{"type": "FeatureCollection", "features": [{"type": "Feature", "properties": {"id": "bus_stop_001", "name": "El Ahram Street Stop", "category": "Bus Stop", "address": "59 Ramses Avenue", "district": "New Cairo Heights", "opening_hours": "05:00-01:00", "phone": "+20-2-8042-5655", "website": "https://elahramstreetstop.example.com"}, "geometry": {"type": "Point", "coordinates": [31.313, 30.05]}}, {"type": "Feature", "properties": {"id": "bus_stop_002", "name": "Abbas El Akkad Street Stop", "category": "Bus Stop", "address": "161 El Horreya Road", "district": "Nasr City", "opening_hours": "05:00-01:00", "phone": "+20-2-3075-9630", "website": "https://abbaselakkadstreetstop.example.com"}, "geometry": {"type": "Point", "coordinates": [31.228, 29.97]}}, {"type": "Feature", "properties": {"id": "bus_stop_003", "name": "El Nasr Road Stop", "category": "Bus Stop", "address": "44 El Tahrir Avenue", "district": "Downtown", "opening_hours": "05:00-01:00", "phone": "+20-2-2287-6846", "website": "https://elnasrroadstop.example.com"}, "geometry": {"type": "Point", "coordinates": [31.262, 30.01]}}, {"type": "Feature", "properties": {"id": "bus_stop_004", "name": "El Nasr Road Stop 2", "category": "Bus Stop", "address": "84 El Nasr Road", "district": "Maadi Gardens", "opening_hours": "05:00-01:00", "phone": "+20-2-5900-8654", "website": "https://elnasrroadstop2.example.com"}, "geometry": {"type": "Point", "coordinates": [31.30875, 30.13]}}, {"type": "Feature", "properties": {"id": "bus_stop_005", "name": "El Nasr Road Stop 3", "category": "Bus Stop", "address": "139 El Ahram Street", "district": "Nile Riverside", "opening_hours": "05:00-01:00", "phone": "+20-2-6493-8288", "website": "https://elnasrroadstop3.example.com"}, "geometry": {"type": "Point", "coordinates": [31.29175, 29.97]}}, {"type": "Feature", "properties": {"id": "bus_stop_006", "name": "El Horreya Road Stop", "category": "Bus Stop", "address": "179 Makram Ebeid Street", "district": "New Cairo Heights", "opening_hours": "05:00-01:00", "phone": "+20-2-3450-8480", "website": "https://elhorreyaroadstop.example.com"}, "geometry": {"type": "Point", "coordinates": [31.3045, 30.01]}}, {"type": "Feature", "properties": {"id": "bus_stop_007", "name": "Gamal Abdel Nasser Road Stop", "category": "Bus Stop", "address": "192 Gamal Abdel Nasser Road", "district": "Old Town", "opening_hours": "05:00-01:00", "phone": "+20-2-9186-8126", "website": "https://gamalabdelnasserroadstop.example.com"}, "geometry": {"type": "Point", "coordinates": [31.245, 30.074]}}, {"type": "Feature", "properties": {"id": "bus_stop_008", "name": "Makram Ebeid Street Stop", "category": "Bus Stop", "address": "164 Gamal Abdel Nasser Road", "district": "New Cairo Heights", "opening_hours": "05:00-01:00", "phone": "+20-2-6372-6073", "website": "https://makramebeidstreetstop.example.com"}, "geometry": {"type": "Point", "coordinates": [31.30025, 30.05]}}, {"type": "Feature", "properties": {"id": "bus_stop_009", "name": "Salah Salem Road Stop", "category": "Bus Stop", "address": "124 Makram Ebeid Street", "district": "Nasr City", "opening_hours": "05:00-01:00", "phone": "+20-2-3860-2467", "website": "https://salahsalemroadstop.example.com"}, "geometry": {"type": "Point", "coordinates": [31.19825, 30.01]}}, {"type": "Feature", "properties": {"id": "bus_stop_010", "name": "Abbas El Akkad Street Stop 2", "category": "Bus Stop", "address": "79 Salah Salem Road", "district": "University District", "opening_hours": "05:00-01:00", "phone": "+20-2-5376-5256", "website": "https://abbaselakkadstreetstop2.example.com"}, "geometry": {"type": "Point", "coordinates": [31.228, 30.09]}}, {"type": "Feature", "properties": {"id": "bus_stop_011", "name": "El Horreya Road Stop 2", "category": "Bus Stop", "address": "78 El Tahrir Avenue", "district": "Nasr City", "opening_hours": "05:00-01:00", "phone": "+20-2-2000-9574", "website": "https://elhorreyaroadstop2.example.com"}, "geometry": {"type": "Point", "coordinates": [31.20675, 29.97]}}, {"type": "Feature", "properties": {"id": "bus_stop_012", "name": "El Nasr Road Stop 4", "category": "Bus Stop", "address": "195 El Nasr Road", "district": "New Cairo Heights", "opening_hours": "05:00-01:00", "phone": "+20-2-3116-6634", "website": "https://elnasrroadstop4.example.com"}, "geometry": {"type": "Point", "coordinates": [31.3215, 30.01]}}, {"type": "Feature", "properties": {"id": "bus_stop_013", "name": "El Ahram Street Stop 2", "category": "Bus Stop", "address": "121 Makram Ebeid Street", "district": "Old Town", "opening_hours": "05:00-01:00", "phone": "+20-2-2068-9059", "website": "https://elahramstreetstop2.example.com"}, "geometry": {"type": "Point", "coordinates": [31.2535, 30.13]}}, {"type": "Feature", "properties": {"id": "bus_stop_014", "name": "Port Said Street Stop", "category": "Bus Stop", "address": "123 El Ahram Street", "district": "Nile Riverside", "opening_hours": "05:00-01:00", "phone": "+20-2-2074-8052", "website": "https://portsaidstreetstop.example.com"}, "geometry": {"type": "Point", "coordinates": [31.2705, 30.05]}}, {"type": "Feature", "properties": {"id": "bus_stop_015", "name": "Port Said Street Stop 2", "category": "Bus Stop", "address": "75 El Thawra Street", "district": "Industrial Zone", "opening_hours": "05:00-01:00", "phone": "+20-2-3894-1118", "website": "https://portsaidstreetstop2.example.com"}, "geometry": {"type": "Point", "coordinates": [31.177, 30.05]}}, {"type": "Feature", "properties": {"id": "bus_stop_016", "name": "Makram Ebeid Street Stop 2", "category": "Bus Stop", "address": "96 Ramses Avenue", "district": "Zamalek Isle", "opening_hours": "05:00-01:00", "phone": "+20-2-5372-8161", "website": "https://makramebeidstreetstop2.example.com"}, "geometry": {"type": "Point", "coordinates": [31.29, 30.12]}}, {"type": "Feature", "properties": {"id": "bus_stop_017", "name": "El Merghany Street Stop", "category": "Bus Stop", "address": "64 El Horreya Road", "district": "Downtown", "opening_hours": "05:00-01:00", "phone": "+20-2-7856-7385", "website": "https://elmerghanystreetstop.example.com"}, "geometry": {"type": "Point", "coordinates": [31.245, 29.994]}}, {"type": "Feature", "properties": {"id": "bus_stop_018", "name": "El Nasr Road Stop 5", "category": "Bus Stop", "address": "97 Ramses Avenue", "district": "Zamalek Isle", "opening_hours": "05:00-01:00", "phone": "+20-2-4154-2297", "website": "https://elnasrroadstop5.example.com"}, "geometry": {"type": "Point", "coordinates": [31.296, 30.13]}}, {"type": "Feature", "properties": {"id": "bus_stop_019", "name": "El Merghany Street Stop 2", "category": "Bus Stop", "address": "161 Ramses Avenue", "district": "Industrial Zone", "opening_hours": "05:00-01:00", "phone": "+20-2-6232-5454", "website": "https://elmerghanystreetstop2.example.com"}, "geometry": {"type": "Point", "coordinates": [31.1855, 30.05]}}, {"type": "Feature", "properties": {"id": "bus_stop_020", "name": "El Ahram Street Stop 3", "category": "Bus Stop", "address": "167 El Guish Road", "district": "New Cairo Heights", "opening_hours": "05:00-01:00", "phone": "+20-2-6357-5404", "website": "https://elahramstreetstop3.example.com"}, "geometry": {"type": "Point", "coordinates": [31.32, 30.036]}}, {"type": "Feature", "properties": {"id": "bus_stop_021", "name": "El Merghany Street Stop 3", "category": "Bus Stop", "address": "49 El Nasr Road", "district": "Nasr City", "opening_hours": "05:00-01:00", "phone": "+20-2-2560-3988", "website": "https://elmerghanystreetstop3.example.com"}, "geometry": {"type": "Point", "coordinates": [31.228, 30.05]}}, {"type": "Feature", "properties": {"id": "bus_stop_022", "name": "El Horreya Road Stop 3", "category": "Bus Stop", "address": "75 El Nil Street", "district": "New Cairo Heights", "opening_hours": "05:00-01:00", "phone": "+20-2-7217-8460", "website": "https://elhorreyaroadstop3.example.com"}, "geometry": {"type": "Point", "coordinates": [31.313, 30.01]}}, {"type": "Feature", "properties": {"id": "bus_stop_023", "name": "El Thawra Street Stop", "category": "Bus Stop", "address": "116 El Ahram Street", "district": "Helwan Gardens", "opening_hours": "05:00-01:00", "phone": "+20-2-7738-9060", "website": "https://elthawrastreetstop.example.com"}, "geometry": {"type": "Point", "coordinates": [31.194, 30.13]}}, {"type": "Feature", "properties": {"id": "bus_stop_024", "name": "Ramses Avenue Stop", "category": "Bus Stop", "address": "83 El Tahrir Avenue", "district": "Industrial Zone", "opening_hours": "05:00-01:00", "phone": "+20-2-3246-1813", "website": "https://ramsesavenuestop.example.com"}, "geometry": {"type": "Point", "coordinates": [31.17275, 30.01]}}, {"type": "Feature", "properties": {"id": "bus_stop_025", "name": "Makram Ebeid Street Stop 3", "category": "Bus Stop", "address": "6 El Horreya Road", "district": "Nile Riverside", "opening_hours": "05:00-01:00", "phone": "+20-2-9965-2675", "website": "https://makramebeidstreetstop3.example.com"}, "geometry": {"type": "Point", "coordinates": [31.2875, 30.042]}}, {"type": "Feature", "properties": {"id": "bus_stop_026", "name": "El Ahram Street Stop 4", "category": "Bus Stop", "address": "69 El Horreya Road", "district": "New Cairo Heights", "opening_hours": "05:00-01:00", "phone": "+20-2-7858-8183", "website": "https://elahramstreetstop4.example.com"}, "geometry": {"type": "Point", "coordinates": [31.3045, 29.97]}}, {"type": "Feature", "properties": {"id": "bus_stop_027", "name": "El Guish Road Stop", "category": "Bus Stop", "address": "3 Ramses Avenue", "district": "Industrial Zone", "opening_hours": "05:00-01:00", "phone": "+20-2-2738-3468", "website": "https://elguishroadstop.example.com"}, "geometry": {"type": "Point", "coordinates": [31.16425, 30.05]}}, {"type": "Feature", "properties": {"id": "bus_stop_028", "name": "El Tahrir Avenue Stop", "category": "Bus Stop", "address": "127 Ramses Avenue", "district": "Industrial Zone", "opening_hours": "05:00-01:00", "phone": "+20-2-4800-7885", "website": "https://eltahriravenuestop.example.com"}, "geometry": {"type": "Point", "coordinates": [31.16, 29.97]}}, {"type": "Feature", "properties": {"id": "bus_stop_029", "name": "El Ahram Street Stop 5", "category": "Bus Stop", "address": "202 Port Said Street", "district": "Downtown", "opening_hours": "05:00-01:00", "phone": "+20-2-6082-7084", "website": "https://elahramstreetstop5.example.com"}, "geometry": {"type": "Point", "coordinates": [31.245, 29.978]}}, {"type": "Feature", "properties": {"id": "bus_stop_030", "name": "Abbas El Akkad Street Stop 3", "category": "Bus Stop", "address": "179 Port Said Street", "district": "Old Town", "opening_hours": "05:00-01:00", "phone": "+20-2-2259-6410", "website": "https://abbaselakkadstreetstop3.example.com"}, "geometry": {"type": "Point", "coordinates": [31.24925, 30.13]}}, {"type": "Feature", "properties": {"id": "bus_stop_031", "name": "El Nil Street Stop", "category": "Bus Stop", "address": "216 Port Said Street", "district": "New Cairo Heights", "opening_hours": "05:00-01:00", "phone": "+20-2-9795-3393", "website": "https://elnilstreetstop.example.com"}, "geometry": {"type": "Point", "coordinates": [31.32575, 30.01]}}, {"type": "Feature", "properties": {"id": "bus_stop_032", "name": "El Tahrir Avenue Stop 2", "category": "Bus Stop", "address": "69 Port Said Street", "district": "Nile Riverside", "opening_hours": "05:00-01:00", "phone": "+20-2-5214-2169", "website": "https://eltahriravenuestop2.example.com"}, "geometry": {"type": "Point", "coordinates": [31.29175, 30.05]}}, {"type": "Feature", "properties": {"id": "bus_stop_033", "name": "Makram Ebeid Street Stop 4", "category": "Bus Stop", "address": "121 El Horreya Road", "district": "New Cairo Heights", "opening_hours": "05:00-01:00", "phone": "+20-2-3574-5097", "website": "https://makramebeidstreetstop4.example.com"}, "geometry": {"type": "Point", "coordinates": [31.30875, 29.97]}}, {"type": "Feature", "properties": {"id": "bus_stop_034", "name": "El Nasr Road Stop 6", "category": "Bus Stop", "address": "98 El Nasr Road", "district": "Zamalek Isle", "opening_hours": "05:00-01:00", "phone": "+20-2-2103-2998", "website": "https://elnasrroadstop6.example.com"}, "geometry": {"type": "Point", "coordinates": [31.296, 30.09]}}, {"type": "Feature", "properties": {"id": "bus_stop_035", "name": "Port Said Street Stop 3", "category": "Bus Stop", "address": "183 Ramses Avenue", "district": "Industrial Zone", "opening_hours": "05:00-01:00", "phone": "+20-2-5152-8257", "website": "https://portsaidstreetstop3.example.com"}, "geometry": {"type": "Point", "coordinates": [31.17, 30.008]}}, {"type": "Feature", "properties": {"id": "bus_stop_036", "name": "Ramses Avenue Stop 2", "category": "Bus Stop", "address": "189 El Tahrir Avenue", "district": "Nile Riverside", "opening_hours": "05:00-01:00", "phone": "+20-2-3631-8550", "website": "https://ramsesavenuestop2.example.com"}, "geometry": {"type": "Point", "coordinates": [31.279, 29.97]}}, {"type": "Feature", "properties": {"id": "bus_stop_037", "name": "El Guish Road Stop 2", "category": "Bus Stop", "address": "198 El Nil Street", "district": "New Cairo Heights", "opening_hours": "05:00-01:00", "phone": "+20-2-6269-4415", "website": "https://elguishroadstop2.example.com"}, "geometry": {"type": "Point", "coordinates": [31.3215, 30.05]}}, {"type": "Feature", "properties": {"id": "bus_stop_038", "name": "Abbas El Akkad Street Stop 4", "category": "Bus Stop", "address": "100 Gamal Abdel Nasser Road", "district": "Downtown", "opening_hours": "05:00-01:00", "phone": "+20-2-9874-6113", "website": "https://abbaselakkadstreetstop4.example.com"}, "geometry": {"type": "Point", "coordinates": [31.245, 30.01]}}, {"type": "Feature", "properties": {"id": "bus_stop_039", "name": "Salah Salem Road Stop 2", "category": "Bus Stop", "address": "41 Gamal Abdel Nasser Road", "district": "University District", "opening_hours": "05:00-01:00", "phone": "+20-2-7965-1691", "website": "https://salahsalemroadstop2.example.com"}, "geometry": {"type": "Point", "coordinates": [31.2025, 30.13]}}, {"type": "Feature", "properties": {"id": "bus_stop_040", "name": "El Guish Road Stop 3", "category": "Bus Stop", "address": "141 Makram Ebeid Street", "district": "University District", "opening_hours": "05:00-01:00", "phone": "+20-2-3000-5150", "website": "https://elguishroadstop3.example.com"}, "geometry": {"type": "Point", "coordinates": [31.22375, 30.09]}}, {"type": "Feature", "properties": {"id": "bus_stop_041", "name": "Abbas El Akkad Street Stop 5", "category": "Bus Stop", "address": "164 El Ahram Street", "district": "University District", "opening_hours": "05:00-01:00", "phone": "+20-2-3627-6905", "website": "https://abbaselakkadstreetstop5.example.com"}, "geometry": {"type": "Point", "coordinates": [31.22375, 30.13]}}, {"type": "Feature", "properties": {"id": "bus_stop_042", "name": "El Tahrir Avenue Stop 3", "category": "Bus Stop", "address": "171 Ramses Avenue", "district": "Downtown", "opening_hours": "05:00-01:00", "phone": "+20-2-9973-2850", "website": "https://eltahriravenuestop3.example.com"}, "geometry": {"type": "Point", "coordinates": [31.262, 30.05]}}, {"type": "Feature", "properties": {"id": "bus_stop_043", "name": "Ramses Avenue Stop 3", "category": "Bus Stop", "address": "163 El Merghany Street", "district": "Zamalek Isle", "opening_hours": "05:00-01:00", "phone": "+20-2-4658-1246", "website": "https://ramsesavenuestop3.example.com"}, "geometry": {"type": "Point", "coordinates": [31.2875, 30.098]}}, {"type": "Feature", "properties": {"id": "bus_stop_044", "name": "El Horreya Road Stop 4", "category": "Bus Stop", "address": "204 El Ahram Street", "district": "New Cairo Heights", "opening_hours": "05:00-01:00", "phone": "+20-2-6789-2960", "website": "https://elhorreyaroadstop4.example.com"}, "geometry": {"type": "Point", "coordinates": [31.30875, 30.01]}}, {"type": "Feature", "properties": {"id": "bus_stop_045", "name": "El Merghany Street Stop 4", "category": "Bus Stop", "address": "203 Ramses Avenue", "district": "University District", "opening_hours": "05:00-01:00", "phone": "+20-2-2073-1688", "website": "https://elmerghanystreetstop4.example.com"}, "geometry": {"type": "Point", "coordinates": [31.228, 30.13]}}, {"type": "Feature", "properties": {"id": "bus_stop_046", "name": "El Thawra Street Stop 2", "category": "Bus Stop", "address": "201 El Guish Road", "district": "Industrial Zone", "opening_hours": "05:00-01:00", "phone": "+20-2-5893-3539", "website": "https://elthawrastreetstop2.example.com"}, "geometry": {"type": "Point", "coordinates": [31.18125, 29.97]}}, {"type": "Feature", "properties": {"id": "bus_stop_047", "name": "Salah Salem Road Stop 3", "category": "Bus Stop", "address": "198 El Nil Street", "district": "Industrial Zone", "opening_hours": "05:00-01:00", "phone": "+20-2-4037-3583", "website": "https://salahsalemroadstop3.example.com"}, "geometry": {"type": "Point", "coordinates": [31.177, 29.97]}}, {"type": "Feature", "properties": {"id": "bus_stop_048", "name": "Abbas El Akkad Street Stop 6", "category": "Bus Stop", "address": "24 Gamal Abdel Nasser Road", "district": "Maadi Gardens", "opening_hours": "05:00-01:00", "phone": "+20-2-7067-6544", "website": "https://abbaselakkadstreetstop6.example.com"}, "geometry": {"type": "Point", "coordinates": [31.30875, 30.09]}}, {"type": "Feature", "properties": {"id": "bus_stop_049", "name": "Port Said Street Stop 4", "category": "Bus Stop", "address": "161 El Tahrir Avenue", "district": "Maadi Gardens", "opening_hours": "05:00-01:00", "phone": "+20-2-2489-6824", "website": "https://portsaidstreetstop4.example.com"}, "geometry": {"type": "Point", "coordinates": [31.3045, 30.09]}}, {"type": "Feature", "properties": {"id": "bus_stop_050", "name": "Gamal Abdel Nasser Road Stop 2", "category": "Bus Stop", "address": "40 El Guish Road", "district": "University District", "opening_hours": "05:00-01:00", "phone": "+20-2-6393-2759", "website": "https://gamalabdelnasserroadstop2.example.com"}, "geometry": {"type": "Point", "coordinates": [31.2, 30.12]}}, {"type": "Feature", "properties": {"id": "bus_stop_051", "name": "El Horreya Road Stop 5", "category": "Bus Stop", "address": "125 Ramses Avenue", "district": "Old Town", "opening_hours": "05:00-01:00", "phone": "+20-2-4594-6690", "website": "https://elhorreyaroadstop5.example.com"}, "geometry": {"type": "Point", "coordinates": [31.26, 30.12]}}, {"type": "Feature", "properties": {"id": "bus_stop_052", "name": "Port Said Street Stop 5", "category": "Bus Stop", "address": "113 El Guish Road", "district": "Nile Riverside", "opening_hours": "05:00-01:00", "phone": "+20-2-3580-1349", "website": "https://portsaidstreetstop5.example.com"}, "geometry": {"type": "Point", "coordinates": [31.2705, 29.97]}}, {"type": "Feature", "properties": {"id": "bus_stop_053", "name": "El Guish Road Stop 4", "category": "Bus Stop", "address": "97 Salah Salem Road", "district": "Downtown", "opening_hours": "05:00-01:00", "phone": "+20-2-7934-3207", "website": "https://elguishroadstop4.example.com"}, "geometry": {"type": "Point", "coordinates": [31.24925, 29.97]}}, {"type": "Feature", "properties": {"id": "bus_stop_054", "name": "El Ahram Street Stop 6", "category": "Bus Stop", "address": "11 Abbas El Akkad Street", "district": "Nile Riverside", "opening_hours": "05:00-01:00", "phone": "+20-2-7788-8168", "website": "https://elahramstreetstop6.example.com"}, "geometry": {"type": "Point", "coordinates": [31.2875, 30.002]}}, {"type": "Feature", "properties": {"id": "bus_stop_055", "name": "Makram Ebeid Street Stop 5", "category": "Bus Stop", "address": "76 Makram Ebeid Street", "district": "University District", "opening_hours": "05:00-01:00", "phone": "+20-2-7710-9029", "website": "https://makramebeidstreetstop5.example.com"}, "geometry": {"type": "Point", "coordinates": [31.19825, 30.09]}}, {"type": "Feature", "properties": {"id": "bus_stop_056", "name": "Ramses Avenue Stop 4", "category": "Bus Stop", "address": "146 El Horreya Road", "district": "Nile Riverside", "opening_hours": "05:00-01:00", "phone": "+20-2-6453-6696", "website": "https://ramsesavenuestop4.example.com"}, "geometry": {"type": "Point", "coordinates": [31.2875, 30.05]}}, {"type": "Feature", "properties": {"id": "bus_stop_057", "name": "Salah Salem Road Stop 4", "category": "Bus Stop", "address": "188 Abbas El Akkad Street", "district": "Nasr City", "opening_hours": "05:00-01:00", "phone": "+20-2-4255-3627", "website": "https://salahsalemroadstop4.example.com"}, "geometry": {"type": "Point", "coordinates": [31.2025, 30.042]}}, {"type": "Feature", "properties": {"id": "bus_stop_058", "name": "El Nil Street Stop 2", "category": "Bus Stop", "address": "136 El Horreya Road", "district": "Nasr City", "opening_hours": "05:00-01:00", "phone": "+20-2-5681-5844", "website": "https://elnilstreetstop2.example.com"}, "geometry": {"type": "Point", "coordinates": [31.19825, 29.97]}}, {"type": "Feature", "properties": {"id": "bus_stop_059", "name": "El Nasr Road Stop 7", "category": "Bus Stop", "address": "68 Makram Ebeid Street", "district": "New Cairo Heights", "opening_hours": "05:00-01:00", "phone": "+20-2-5007-8439", "website": "https://elnasrroadstop7.example.com"}, "geometry": {"type": "Point", "coordinates": [31.3045, 30.05]}}, {"type": "Feature", "properties": {"id": "bus_stop_060", "name": "El Tahrir Avenue Stop 4", "category": "Bus Stop", "address": "199 Gamal Abdel Nasser Road", "district": "Zamalek Isle", "opening_hours": "05:00-01:00", "phone": "+20-2-6144-7210", "website": "https://eltahriravenuestop4.example.com"}, "geometry": {"type": "Point", "coordinates": [31.2875, 30.082]}}, {"type": "Feature", "properties": {"id": "bus_stop_061", "name": "El Guish Road Stop 5", "category": "Bus Stop", "address": "48 El Tahrir Avenue", "district": "New Cairo Heights", "opening_hours": "05:00-01:00", "phone": "+20-2-7076-6965", "website": "https://elguishroadstop5.example.com"}, "geometry": {"type": "Point", "coordinates": [31.32575, 30.05]}}, {"type": "Feature", "properties": {"id": "bus_stop_062", "name": "Port Said Street Stop 6", "category": "Bus Stop", "address": "159 Ramses Avenue", "district": "Nasr City", "opening_hours": "05:00-01:00", "phone": "+20-2-4627-2037", "website": "https://portsaidstreetstop6.example.com"}, "geometry": {"type": "Point", "coordinates": [31.2025, 29.97]}}, {"type": "Feature", "properties": {"id": "bus_stop_063", "name": "Gamal Abdel Nasser Road Stop 3", "category": "Bus Stop", "address": "138 El Nasr Road", "district": "Downtown", "opening_hours": "05:00-01:00", "phone": "+20-2-5174-4110", "website": "https://gamalabdelnasserroadstop3.example.com"}, "geometry": {"type": "Point", "coordinates": [31.262, 29.97]}}, {"type": "Feature", "properties": {"id": "bus_stop_064", "name": "Makram Ebeid Street Stop 6", "category": "Bus Stop", "address": "175 Abbas El Akkad Street", "district": "Zamalek Isle", "opening_hours": "05:00-01:00", "phone": "+20-2-8272-3525", "website": "https://makramebeidstreetstop6.example.com"}, "geometry": {"type": "Point", "coordinates": [31.28325, 30.13]}}, {"type": "Feature", "properties": {"id": "bus_stop_065", "name": "El Thawra Street Stop 3", "category": "Bus Stop", "address": "73 Salah Salem Road", "district": "Industrial Zone", "opening_hours": "05:00-01:00", "phone": "+20-2-5357-6276", "website": "https://elthawrastreetstop3.example.com"}, "geometry": {"type": "Point", "coordinates": [31.18125, 30.05]}}, {"type": "Feature", "properties": {"id": "bus_stop_066", "name": "El Nil Street Stop 3", "category": "Bus Stop", "address": "25 Makram Ebeid Street", "district": "Old Town", "opening_hours": "05:00-01:00", "phone": "+20-2-7397-2092", "website": "https://elnilstreetstop3.example.com"}, "geometry": {"type": "Point", "coordinates": [31.23225, 30.13]}}, {"type": "Feature", "properties": {"id": "bus_stop_067", "name": "El Tahrir Avenue Stop 5", "category": "Bus Stop", "address": "214 El Horreya Road", "district": "Nile Riverside", "opening_hours": "05:00-01:00", "phone": "+20-2-3463-1512", "website": "https://eltahriravenuestop5.example.com"}, "geometry": {"type": "Point", "coordinates": [31.26625, 30.01]}}, {"type": "Feature", "properties": {"id": "bus_stop_068", "name": "Ramses Avenue Stop 5", "category": "Bus Stop", "address": "28 Abbas El Akkad Street", "district": "Industrial Zone", "opening_hours": "05:00-01:00", "phone": "+20-2-3569-2617", "website": "https://ramsesavenuestop5.example.com"}, "geometry": {"type": "Point", "coordinates": [31.16425, 30.01]}}, {"type": "Feature", "properties": {"id": "bus_stop_069", "name": "El Tahrir Avenue Stop 6", "category": "Bus Stop", "address": "147 Gamal Abdel Nasser Road", "district": "Downtown", "opening_hours": "05:00-01:00", "phone": "+20-2-8850-7366", "website": "https://eltahriravenuestop6.example.com"}, "geometry": {"type": "Point", "coordinates": [31.245, 30.002]}}, {"type": "Feature", "properties": {"id": "bus_stop_070", "name": "Gamal Abdel Nasser Road Stop 4", "category": "Bus Stop", "address": "126 Makram Ebeid Street", "district": "New Cairo Heights", "opening_hours": "05:00-01:00", "phone": "+20-2-7111-5193", "website": "https://gamalabdelnasserroadstop4.example.com"}, "geometry": {"type": "Point", "coordinates": [31.313, 29.97]}}, {"type": "Feature", "properties": {"id": "bus_stop_071", "name": "El Tahrir Avenue Stop 7", "category": "Bus Stop", "address": "94 Ramses Avenue", "district": "Nile Riverside", "opening_hours": "05:00-01:00", "phone": "+20-2-6963-2161", "website": "https://eltahriravenuestop7.example.com"}, "geometry": {"type": "Point", "coordinates": [31.296, 30.05]}}, {"type": "Feature", "properties": {"id": "bus_stop_072", "name": "El Tahrir Avenue Stop 8", "category": "Bus Stop", "address": "54 Gamal Abdel Nasser Road", "district": "Nile Riverside", "opening_hours": "05:00-01:00", "phone": "+20-2-6025-2310", "website": "https://eltahriravenuestop8.example.com"}, "geometry": {"type": "Point", "coordinates": [31.2875, 29.986]}}, {"type": "Feature", "properties": {"id": "bus_stop_073", "name": "Abbas El Akkad Street Stop 7", "category": "Bus Stop", "address": "206 Gamal Abdel Nasser Road", "district": "Old Town", "opening_hours": "05:00-01:00", "phone": "+20-2-2497-6913", "website": "https://abbaselakkadstreetstop7.example.com"}, "geometry": {"type": "Point", "coordinates": [31.262, 30.09]}}, {"type": "Feature", "properties": {"id": "bus_stop_074", "name": "Makram Ebeid Street Stop 7", "category": "Bus Stop", "address": "191 El Merghany Street", "district": "New Cairo Heights", "opening_hours": "05:00-01:00", "phone": "+20-2-8734-7046", "website": "https://makramebeidstreetstop7.example.com"}, "geometry": {"type": "Point", "coordinates": [31.31725, 30.01]}}, {"type": "Feature", "properties": {"id": "bus_stop_075", "name": "Port Said Street Stop 7", "category": "Bus Stop", "address": "182 El Tahrir Avenue", "district": "Nasr City", "opening_hours": "05:00-01:00", "phone": "+20-2-8747-5355", "website": "https://portsaidstreetstop7.example.com"}, "geometry": {"type": "Point", "coordinates": [31.22375, 29.97]}}, {"type": "Feature", "properties": {"id": "bus_stop_076", "name": "Makram Ebeid Street Stop 8", "category": "Bus Stop", "address": "11 El Guish Road", "district": "Industrial Zone", "opening_hours": "05:00-01:00", "phone": "+20-2-2576-5979", "website": "https://makramebeidstreetstop8.example.com"}, "geometry": {"type": "Point", "coordinates": [31.17, 30.036]}}, {"type": "Feature", "properties": {"id": "bus_stop_077", "name": "El Nil Street Stop 4", "category": "Bus Stop", "address": "56 Makram Ebeid Street", "district": "Zamalek Isle", "opening_hours": "05:00-01:00", "phone": "+20-2-2795-2658", "website": "https://elnilstreetstop4.example.com"}, "geometry": {"type": "Point", "coordinates": [31.2705, 30.13]}}, {"type": "Feature", "properties": {"id": "bus_stop_078", "name": "El Guish Road Stop 6", "category": "Bus Stop", "address": "60 Makram Ebeid Street", "district": "Helwan Gardens", "opening_hours": "05:00-01:00", "phone": "+20-2-5156-4104", "website": "https://elguishroadstop6.example.com"}, "geometry": {"type": "Point", "coordinates": [31.177, 30.13]}}, {"type": "Feature", "properties": {"id": "bus_stop_079", "name": "Ramses Avenue Stop 6", "category": "Bus Stop", "address": "135 Gamal Abdel Nasser Road", "district": "Helwan Gardens", "opening_hours": "05:00-01:00", "phone": "+20-2-4037-3931", "website": "https://ramsesavenuestop6.example.com"}, "geometry": {"type": "Point", "coordinates": [31.17, 30.12]}}, {"type": "Feature", "properties": {"id": "bus_stop_080", "name": "Makram Ebeid Street Stop 9", "category": "Bus Stop", "address": "192 Makram Ebeid Street", "district": "Old Town", "opening_hours": "05:00-01:00", "phone": "+20-2-5401-2728", "website": "https://makramebeidstreetstop9.example.com"}, "geometry": {"type": "Point", "coordinates": [31.25775, 30.09]}}, {"type": "Feature", "properties": {"id": "bus_stop_081", "name": "Port Said Street Stop 8", "category": "Bus Stop", "address": "164 El Thawra Street", "district": "Downtown", "opening_hours": "05:00-01:00", "phone": "+20-2-4932-8515", "website": "https://portsaidstreetstop8.example.com"}, "geometry": {"type": "Point", "coordinates": [31.2365, 30.05]}}, {"type": "Feature", "properties": {"id": "bus_stop_082", "name": "El Guish Road Stop 7", "category": "Bus Stop", "address": "171 El Merghany Street", "district": "Industrial Zone", "opening_hours": "05:00-01:00", "phone": "+20-2-9232-2705", "website": "https://elguishroadstop7.example.com"}, "geometry": {"type": "Point", "coordinates": [31.1685, 30.05]}}, {"type": "Feature", "properties": {"id": "bus_stop_083", "name": "El Horreya Road Stop 6", "category": "Bus Stop", "address": "203 El Horreya Road", "district": "New Cairo Heights", "opening_hours": "05:00-01:00", "phone": "+20-2-6505-7579", "website": "https://elhorreyaroadstop6.example.com"}, "geometry": {"type": "Point", "coordinates": [31.32, 29.98]}}, {"type": "Feature", "properties": {"id": "bus_stop_084", "name": "Makram Ebeid Street Stop 10", "category": "Bus Stop", "address": "87 Gamal Abdel Nasser Road", "district": "Old Town", "opening_hours": "05:00-01:00", "phone": "+20-2-3295-9747", "website": "https://makramebeidstreetstop10.example.com"}, "geometry": {"type": "Point", "coordinates": [31.245, 30.106]}}, {"type": "Feature", "properties": {"id": "bus_stop_085", "name": "El Thawra Street Stop 4", "category": "Bus Stop", "address": "114 Salah Salem Road", "district": "Industrial Zone", "opening_hours": "05:00-01:00", "phone": "+20-2-9393-6163", "website": "https://elthawrastreetstop4.example.com"}, "geometry": {"type": "Point", "coordinates": [31.1685, 30.01]}}, {"type": "Feature", "properties": {"id": "bus_stop_086", "name": "Makram Ebeid Street Stop 11", "category": "Bus Stop", "address": "84 El Nasr Road", "district": "Downtown", "opening_hours": "05:00-01:00", "phone": "+20-2-5045-7755", "website": "https://makramebeidstreetstop11.example.com"}, "geometry": {"type": "Point", "coordinates": [31.23225, 30.01]}}, {"type": "Feature", "properties": {"id": "bus_stop_087", "name": "Port Said Street Stop 9", "category": "Bus Stop", "address": "163 El Merghany Street", "district": "Helwan Gardens", "opening_hours": "05:00-01:00", "phone": "+20-2-8767-6299", "website": "https://portsaidstreetstop9.example.com"}, "geometry": {"type": "Point", "coordinates": [31.16, 30.13]}}, {"type": "Feature", "properties": {"id": "bus_stop_088", "name": "El Thawra Street Stop 5", "category": "Bus Stop", "address": "62 El Thawra Street", "district": "Old Town", "opening_hours": "05:00-01:00", "phone": "+20-2-6469-4504", "website": "https://elthawrastreetstop5.example.com"}, "geometry": {"type": "Point", "coordinates": [31.245, 30.122]}}, {"type": "Feature", "properties": {"id": "bus_stop_089", "name": "El Merghany Street Stop 5", "category": "Bus Stop", "address": "197 Makram Ebeid Street", "district": "Helwan Gardens", "opening_hours": "05:00-01:00", "phone": "+20-2-9586-5162", "website": "https://elmerghanystreetstop5.example.com"}, "geometry": {"type": "Point", "coordinates": [31.16425, 30.13]}}, {"type": "Feature", "properties": {"id": "bus_stop_090", "name": "Salah Salem Road Stop 5", "category": "Bus Stop", "address": "116 Abbas El Akkad Street", "district": "Downtown", "opening_hours": "05:00-01:00", "phone": "+20-2-9862-7505", "website": "https://salahsalemroadstop5.example.com"}, "geometry": {"type": "Point", "coordinates": [31.24075, 30.05]}}, {"type": "Feature", "properties": {"id": "bus_stop_091", "name": "El Tahrir Avenue Stop 9", "category": "Bus Stop", "address": "186 El Tahrir Avenue", "district": "Maadi Gardens", "opening_hours": "05:00-01:00", "phone": "+20-2-4330-1267", "website": "https://eltahriravenuestop9.example.com"}, "geometry": {"type": "Point", "coordinates": [31.3215, 30.13]}}, {"type": "Feature", "properties": {"id": "bus_stop_092", "name": "Makram Ebeid Street Stop 12", "category": "Bus Stop", "address": "35 El Ahram Street", "district": "Industrial Zone", "opening_hours": "05:00-01:00", "phone": "+20-2-2053-5920", "website": "https://makramebeidstreetstop12.example.com"}, "geometry": {"type": "Point", "coordinates": [31.18975, 29.97]}}, {"type": "Feature", "properties": {"id": "bus_stop_093", "name": "Ramses Avenue Stop 7", "category": "Bus Stop", "address": "55 El Nasr Road", "district": "Maadi Gardens", "opening_hours": "05:00-01:00", "phone": "+20-2-4579-1355", "website": "https://ramsesavenuestop7.example.com"}, "geometry": {"type": "Point", "coordinates": [31.313, 30.13]}}, {"type": "Feature", "properties": {"id": "bus_stop_094", "name": "Port Said Street Stop 10", "category": "Bus Stop", "address": "211 El Guish Road", "district": "Helwan Gardens", "opening_hours": "05:00-01:00", "phone": "+20-2-8736-5521", "website": "https://portsaidstreetstop10.example.com"}, "geometry": {"type": "Point", "coordinates": [31.1855, 30.13]}}, {"type": "Feature", "properties": {"id": "bus_stop_095", "name": "Makram Ebeid Street Stop 13", "category": "Bus Stop", "address": "131 Makram Ebeid Street", "district": "Nasr City", "opening_hours": "05:00-01:00", "phone": "+20-2-6674-3534", "website": "https://makramebeidstreetstop13.example.com"}, "geometry": {"type": "Point", "coordinates": [31.211, 29.97]}}, {"type": "Feature", "properties": {"id": "bus_stop_096", "name": "El Nil Street Stop 5", "category": "Bus Stop", "address": "10 Abbas El Akkad Street", "district": "Nasr City", "opening_hours": "05:00-01:00", "phone": "+20-2-4913-3557", "website": "https://elnilstreetstop5.example.com"}, "geometry": {"type": "Point", "coordinates": [31.2025, 30.01]}}, {"type": "Feature", "properties": {"id": "bus_stop_097", "name": "El Horreya Road Stop 7", "category": "Bus Stop", "address": "68 Salah Salem Road", "district": "Industrial Zone", "opening_hours": "05:00-01:00", "phone": "+20-2-9287-5093", "website": "https://elhorreyaroadstop7.example.com"}, "geometry": {"type": "Point", "coordinates": [31.1855, 29.97]}}, {"type": "Feature", "properties": {"id": "bus_stop_098", "name": "Ramses Avenue Stop 8", "category": "Bus Stop", "address": "66 Port Said Street", "district": "Nile Riverside", "opening_hours": "05:00-01:00", "phone": "+20-2-4460-2505", "website": "https://ramsesavenuestop8.example.com"}, "geometry": {"type": "Point", "coordinates": [31.296, 30.01]}}, {"type": "Feature", "properties": {"id": "bus_stop_099", "name": "El Thawra Street Stop 6", "category": "Bus Stop", "address": "103 El Thawra Street", "district": "Industrial Zone", "opening_hours": "05:00-01:00", "phone": "+20-2-9519-4562", "website": "https://elthawrastreetstop6.example.com"}, "geometry": {"type": "Point", "coordinates": [31.17, 29.98]}}, {"type": "Feature", "properties": {"id": "bus_stop_100", "name": "El Guish Road Stop 8", "category": "Bus Stop", "address": "20 El Guish Road", "district": "University District", "opening_hours": "05:00-01:00", "phone": "+20-2-4659-8905", "website": "https://elguishroadstop8.example.com"}, "geometry": {"type": "Point", "coordinates": [31.2025, 30.09]}}, {"type": "Feature", "properties": {"id": "bus_stop_101", "name": "El Horreya Road Stop 8", "category": "Bus Stop", "address": "125 El Nasr Road", "district": "New Cairo Heights", "opening_hours": "05:00-01:00", "phone": "+20-2-9364-2562", "website": "https://elhorreyaroadstop8.example.com"}, "geometry": {"type": "Point", "coordinates": [31.3215, 29.97]}}, {"type": "Feature", "properties": {"id": "bus_stop_102", "name": "El Thawra Street Stop 7", "category": "Bus Stop", "address": "165 El Ahram Street", "district": "Downtown", "opening_hours": "05:00-01:00", "phone": "+20-2-2306-7251", "website": "https://elthawrastreetstop7.example.com"}, "geometry": {"type": "Point", "coordinates": [31.2535, 30.01]}}, {"type": "Feature", "properties": {"id": "bus_stop_103", "name": "El Nil Street Stop 6", "category": "Bus Stop", "address": "200 El Tahrir Avenue", "district": "Helwan Gardens", "opening_hours": "05:00-01:00", "phone": "+20-2-9551-6478", "website": "https://elnilstreetstop6.example.com"}, "geometry": {"type": "Point", "coordinates": [31.18125, 30.13]}}, {"type": "Feature", "properties": {"id": "bus_stop_104", "name": "Salah Salem Road Stop 6", "category": "Bus Stop", "address": "210 El Merghany Street", "district": "Industrial Zone", "opening_hours": "05:00-01:00", "phone": "+20-2-5412-2974", "website": "https://salahsalemroadstop6.example.com"}, "geometry": {"type": "Point", "coordinates": [31.16, 30.01]}}, {"type": "Feature", "properties": {"id": "bus_stop_105", "name": "El Nasr Road Stop 8", "category": "Bus Stop", "address": "198 Ramses Avenue", "district": "Zamalek Isle", "opening_hours": "05:00-01:00", "phone": "+20-2-8124-1187", "website": "https://elnasrroadstop8.example.com"}, "geometry": {"type": "Point", "coordinates": [31.29175, 30.09]}}, {"type": "Feature", "properties": {"id": "bus_stop_106", "name": "Gamal Abdel Nasser Road Stop 5", "category": "Bus Stop", "address": "200 Gamal Abdel Nasser Road", "district": "Zamalek Isle", "opening_hours": "05:00-01:00", "phone": "+20-2-5133-1886", "website": "https://gamalabdelnasserroadstop5.example.com"}, "geometry": {"type": "Point", "coordinates": [31.26625, 30.09]}}, {"type": "Feature", "properties": {"id": "bus_stop_107", "name": "El Ahram Street Stop 7", "category": "Bus Stop", "address": "135 El Tahrir Avenue", "district": "Maadi Gardens", "opening_hours": "05:00-01:00", "phone": "+20-2-4615-9846", "website": "https://elahramstreetstop7.example.com"}, "geometry": {"type": "Point", "coordinates": [31.32, 30.092]}}, {"type": "Feature", "properties": {"id": "bus_stop_108", "name": "El Thawra Street Stop 8", "category": "Bus Stop", "address": "39 Salah Salem Road", "district": "Maadi Gardens", "opening_hours": "05:00-01:00", "phone": "+20-2-6115-4617", "website": "https://elthawrastreetstop8.example.com"}, "geometry": {"type": "Point", "coordinates": [31.32575, 30.09]}}, {"type": "Feature", "properties": {"id": "bus_stop_109", "name": "El Horreya Road Stop 9", "category": "Bus Stop", "address": "13 Gamal Abdel Nasser Road", "district": "Old Town", "opening_hours": "05:00-01:00", "phone": "+20-2-7993-7436", "website": "https://elhorreyaroadstop9.example.com"}, "geometry": {"type": "Point", "coordinates": [31.24075, 30.09]}}, {"type": "Feature", "properties": {"id": "bus_stop_110", "name": "Abbas El Akkad Street Stop 8", "category": "Bus Stop", "address": "193 El Thawra Street", "district": "Zamalek Isle", "opening_hours": "05:00-01:00", "phone": "+20-2-6712-9269", "website": "https://abbaselakkadstreetstop8.example.com"}, "geometry": {"type": "Point", "coordinates": [31.2875, 30.066]}}, {"type": "Feature", "properties": {"id": "bus_stop_111", "name": "El Nil Street Stop 7", "category": "Bus Stop", "address": "57 El Merghany Street", "district": "Nasr City", "opening_hours": "05:00-01:00", "phone": "+20-2-4373-7460", "website": "https://elnilstreetstop7.example.com"}, "geometry": {"type": "Point", "coordinates": [31.2025, 29.994]}}, {"type": "Feature", "properties": {"id": "bus_stop_112", "name": "El Horreya Road Stop 10", "category": "Bus Stop", "address": "34 Salah Salem Road", "district": "Maadi Gardens", "opening_hours": "05:00-01:00", "phone": "+20-2-2676-8796", "website": "https://elhorreyaroadstop10.example.com"}, "geometry": {"type": "Point", "coordinates": [31.3045, 30.13]}}, {"type": "Feature", "properties": {"id": "bus_stop_113", "name": "El Thawra Street Stop 9", "category": "Bus Stop", "address": "191 El Tahrir Avenue", "district": "Downtown", "opening_hours": "05:00-01:00", "phone": "+20-2-6490-7540", "website": "https://elthawrastreetstop9.example.com"}, "geometry": {"type": "Point", "coordinates": [31.2535, 29.97]}}, {"type": "Feature", "properties": {"id": "bus_stop_114", "name": "El Ahram Street Stop 8", "category": "Bus Stop", "address": "22 El Merghany Street", "district": "University District", "opening_hours": "05:00-01:00", "phone": "+20-2-6110-8118", "website": "https://elahramstreetstop8.example.com"}, "geometry": {"type": "Point", "coordinates": [31.2025, 30.098]}}, {"type": "Feature", "properties": {"id": "bus_stop_115", "name": "Port Said Street Stop 11", "category": "Bus Stop", "address": "179 El Horreya Road", "district": "Downtown", "opening_hours": "05:00-01:00", "phone": "+20-2-8242-3209", "website": "https://portsaidstreetstop11.example.com"}, "geometry": {"type": "Point", "coordinates": [31.25775, 30.05]}}, {"type": "Feature", "properties": {"id": "bus_stop_116", "name": "Abbas El Akkad Street Stop 9", "category": "Bus Stop", "address": "144 Ramses Avenue", "district": "University District", "opening_hours": "05:00-01:00", "phone": "+20-2-5996-7476", "website": "https://abbaselakkadstreetstop9.example.com"}, "geometry": {"type": "Point", "coordinates": [31.2025, 30.122]}}, {"type": "Feature", "properties": {"id": "bus_stop_117", "name": "Gamal Abdel Nasser Road Stop 6", "category": "Bus Stop", "address": "147 Ramses Avenue", "district": "Downtown", "opening_hours": "05:00-01:00", "phone": "+20-2-6597-9589", "website": "https://gamalabdelnasserroadstop6.example.com"}, "geometry": {"type": "Point", "coordinates": [31.26, 29.98]}}, {"type": "Feature", "properties": {"id": "bus_stop_118", "name": "Ramses Avenue Stop 9", "category": "Bus Stop", "address": "63 El Nil Street", "district": "Nasr City", "opening_hours": "05:00-01:00", "phone": "+20-2-4181-8046", "website": "https://ramsesavenuestop9.example.com"}, "geometry": {"type": "Point", "coordinates": [31.2195, 30.05]}}, {"type": "Feature", "properties": {"id": "bus_stop_119", "name": "Salah Salem Road Stop 7", "category": "Bus Stop", "address": "176 El Thawra Street", "district": "Old Town", "opening_hours": "05:00-01:00", "phone": "+20-2-2733-2843", "website": "https://salahsalemroadstop7.example.com"}, "geometry": {"type": "Point", "coordinates": [31.262, 30.13]}}, {"type": "Feature", "properties": {"id": "bus_stop_120", "name": "Gamal Abdel Nasser Road Stop 7", "category": "Bus Stop", "address": "106 El Merghany Street", "district": "Downtown", "opening_hours": "05:00-01:00", "phone": "+20-2-4992-6706", "website": "https://gamalabdelnasserroadstop7.example.com"}, "geometry": {"type": "Point", "coordinates": [31.2365, 29.97]}}]}