{"type": "FeatureCollection", "features": [{"type": "Feature", "properties": {"id": "fire_001", "name": "Industrial Zone Fire Station", "category": "Fire Station", "address": "148 Salah Salem Road", "district": "Industrial Zone", "opening_hours": "24/7", "phone": "+20-2-8342-7522", "website": "https://industrialzonefirestation.example.com"}, "geometry": {"type": "Point", "coordinates": [31.17658, 30.039701]}}, {"type": "Feature", "properties": {"id": "fire_002", "name": "Industrial Zone Fire Station 2", "category": "Fire Station", "address": "169 El Nil Street", "district": "Industrial Zone", "opening_hours": "24/7", "phone": "+20-2-8126-4764", "website": "https://industrialzonefirestation2.example.com"}, "geometry": {"type": "Point", "coordinates": [31.183093, 30.031584]}}, {"type": "Feature", "properties": {"id": "fire_003", "name": "Industrial Zone Fire Station 3", "category": "Fire Station", "address": "42 El Nil Street", "district": "Industrial Zone", "opening_hours": "24/7", "phone": "+20-2-3756-9328", "website": "https://industrialzonefirestation3.example.com"}, "geometry": {"type": "Point", "coordinates": [31.17562, 30.022118]}}, {"type": "Feature", "properties": {"id": "fire_004", "name": "Nasr City Fire Station", "category": "Fire Station", "address": "141 El Thawra Street", "district": "Nasr City", "opening_hours": "24/7", "phone": "+20-2-7710-1852", "website": "https://nasrcityfirestation.example.com"}, "geometry": {"type": "Point", "coordinates": [31.20843, 30.000177]}}, {"type": "Feature", "properties": {"id": "fire_005", "name": "Downtown Fire Station", "category": "Fire Station", "address": "2 Port Said Street", "district": "Downtown", "opening_hours": "24/7", "phone": "+20-2-2746-3381", "website": "https://downtownfirestation.example.com"}, "geometry": {"type": "Point", "coordinates": [31.236233, 30.038246]}}, {"type": "Feature", "properties": {"id": "fire_006", "name": "Nile Riverside Fire Station", "category": "Fire Station", "address": "23 El Nil Street", "district": "Nile Riverside", "opening_hours": "24/7", "phone": "+20-2-4155-4633", "website": "https://nileriversidefirestation.example.com"}, "geometry": {"type": "Point", "coordinates": [31.278268, 30.016095]}}, {"type": "Feature", "properties": {"id": "fire_007", "name": "New Cairo Heights Fire Station", "category": "Fire Station", "address": "186 El Merghany Street", "district": "New Cairo Heights", "opening_hours": "24/7", "phone": "+20-2-9624-7564", "website": "https://newcairoheightsfirestation.example.com"}, "geometry": {"type": "Point", "coordinates": [31.309662, 30.016629]}}, {"type": "Feature", "properties": {"id": "fire_008", "name": "Helwan Gardens Fire Station", "category": "Fire Station", "address": "183 El Thawra Street", "district": "Helwan Gardens", "opening_hours": "24/7", "phone": "+20-2-2470-3871", "website": "https://helwangardensfirestation.example.com"}, "geometry": {"type": "Point", "coordinates": [31.179945, 30.091277]}}, {"type": "Feature", "properties": {"id": "fire_009", "name": "Helwan Gardens Fire Station 2", "category": "Fire Station", "address": "52 El Nasr Road", "district": "Helwan Gardens", "opening_hours": "24/7", "phone": "+20-2-7381-9489", "website": "https://helwangardensfirestation2.example.com"}, "geometry": {"type": "Point", "coordinates": [31.180625, 30.08629]}}, {"type": "Feature", "properties": {"id": "fire_010", "name": "University District Fire Station", "category": "Fire Station", "address": "154 Makram Ebeid Street", "district": "University District", "opening_hours": "24/7", "phone": "+20-2-6225-4795", "website": "https://universitydistrictfirestation.example.com"}, "geometry": {"type": "Point", "coordinates": [31.20547, 30.061643]}}, {"type": "Feature", "properties": {"id": "fire_011", "name": "Old Town Fire Station", "category": "Fire Station", "address": "93 Ramses Avenue", "district": "Old Town", "opening_hours": "24/7", "phone": "+20-2-7365-1004", "website": "https://oldtownfirestation.example.com"}, "geometry": {"type": "Point", "coordinates": [31.247977, 30.100581]}}, {"type": "Feature", "properties": {"id": "fire_012", "name": "Zamalek Isle Fire Station", "category": "Fire Station", "address": "71 Port Said Street", "district": "Zamalek Isle", "opening_hours": "24/7", "phone": "+20-2-5272-6785", "website": "https://zamalekislefirestation.example.com"}, "geometry": {"type": "Point", "coordinates": [31.291291, 30.06488]}}, {"type": "Feature", "properties": {"id": "fire_013", "name": "Zamalek Isle Fire Station 2", "category": "Fire Station", "address": "52 Makram Ebeid Street", "district": "Zamalek Isle", "opening_hours": "24/7", "phone": "+20-2-2125-2124", "website": "https://zamalekislefirestation2.example.com"}, "geometry": {"type": "Point", "coordinates": [31.283384, 30.084251]}}, {"type": "Feature", "properties": {"id": "fire_014", "name": "Zamalek Isle Fire Station 3", "category": "Fire Station", "address": "186 El Nasr Road", "district": "Zamalek Isle", "opening_hours": "24/7", "phone": "+20-2-6580-6703", "website": "https://zamalekislefirestation3.example.com"}, "geometry": {"type": "Point", "coordinates": [31.289832, 30.093015]}}, {"type": "Feature", "properties": {"id": "fire_015", "name": "Maadi Gardens Fire Station", "category": "Fire Station", "address": "58 El Thawra Street", "district": "Maadi Gardens", "opening_hours": "24/7", "phone": "+20-2-9889-4187", "website": "https://maadigardensfirestation.example.com"}, "geometry": {"type": "Point", "coordinates": [31.309059, 30.109183]}}]}