{"type": "FeatureCollection", "features": [{"type": "Feature", "properties": {"id": "flood_zone_001", "name": "Flood Zone 1", "category": "Flood Zone", "address": "", "district": "Nile Riverside", "opening_hours": "", "phone": "", "website": "", "risk": "medium"}, "geometry": {"type": "Polygon", "coordinates": [[[31.264275813168428, 29.971338271756192], [31.27531207834838, 29.971338271756192], [31.27531207834838, 29.984815574397654], [31.264275813168428, 29.984815574397654], [31.264275813168428, 29.971338271756192]]]}}, {"type": "Feature", "properties": {"id": "flood_zone_002", "name": "Flood Zone 2", "category": "Flood Zone", "address": "", "district": "Nile Riverside", "opening_hours": "", "phone": "", "website": "", "risk": "high"}, "geometry": {"type": "Polygon", "coordinates": [[[31.26056505188135, 29.98896349607676], [31.269841348110134, 29.98896349607676], [31.269841348110134, 30.002062144948876], [31.26056505188135, 30.002062144948876], [31.26056505188135, 29.98896349607676]]]}}, {"type": "Feature", "properties": {"id": "flood_zone_003", "name": "Flood Zone 3", "category": "Flood Zone", "address": "", "district": "Downtown", "opening_hours": "", "phone": "", "website": "", "risk": "low"}, "geometry": {"type": "Polygon", "coordinates": [[[31.25236178728201, 30.007666784727633], [31.260564793695497, 30.007666784727633], [31.260564793695497, 30.0182306511698], [31.25236178728201, 30.0182306511698], [31.25236178728201, 30.007666784727633]]]}}, {"type": "Feature", "properties": {"id": "flood_zone_004", "name": "Flood Zone 4", "category": "Flood Zone", "address": "", "district": "Downtown", "opening_hours": "", "phone": "", "website": "", "risk": "medium"}, "geometry": {"type": "Polygon", "coordinates": [[[31.251030840427763, 30.025320402332092], [31.262151350757595, 30.025320402332092], [31.262151350757595, 30.03544882843714], [31.251030840427763, 30.03544882843714], [31.251030840427763, 30.025320402332092]]]}}, {"type": "Feature", "properties": {"id": "flood_zone_005", "name": "Flood Zone 5", "category": "Flood Zone", "address": "", "district": "Downtown", "opening_hours": "", "phone": "", "website": "", "risk": "medium"}, "geometry": {"type": "Polygon", "coordinates": [[[31.256607992032954, 30.042534138112995], [31.263407193048614, 30.042534138112995], [31.263407193048614, 30.053106887528028], [31.256607992032954, 30.053106887528028], [31.256607992032954, 30.042534138112995]]]}}, {"type": "Feature", "properties": {"id": "flood_zone_006", "name": "Flood Zone 6", "category": "Flood Zone", "address": "", "district": "Zamalek Isle", "opening_hours": "", "phone": "", "website": "", "risk": "high"}, "geometry": {"type": "Polygon", "coordinates": [[[31.267352717086546, 30.059709969878508], [31.275642308779055, 30.059709969878508], [31.275642308779055, 30.070802850634312], [31.267352717086546, 30.070802850634312], [31.267352717086546, 30.059709969878508]]]}}, {"type": "Feature", "properties": {"id": "flood_zone_007", "name": "Flood Zone 7", "category": "Flood Zone", "address": "", "district": "Zamalek Isle", "opening_hours": "", "phone": "", "website": "", "risk": "high"}, "geometry": {"type": "Polygon", "coordinates": [[[31.2622955717801, 30.074619612461962], [31.271828864457603, 30.074619612461962], [31.271828864457603, 30.090765002922648], [31.2622955717801, 30.090765002922648], [31.2622955717801, 30.074619612461962]]]}}, {"type": "Feature", "properties": {"id": "flood_zone_008", "name": "Flood Zone 8", "category": "Flood Zone", "address": "", "district": "Old Town", "opening_hours": "", "phone": "", "website": "", "risk": "high"}, "geometry": {"type": "Polygon", "coordinates": [[[31.253691228020553, 30.093232989648527], [31.25997605253332, 30.093232989648527], [31.25997605253332, 30.10702342060788], [31.253691228020553, 30.10702342060788], [31.253691228020553, 30.093232989648527]]]}}]}