{"type": "FeatureCollection", "features": [{"type": "Feature", "properties": {"id": "hospital_001", "name": "Om Kolthoum General Hospital", "category": "Hospital", "address": "27 El Nil Street", "district": "Zamalek Isle", "opening_hours": "24/7", "phone": "+20-2-5112-2584", "website": "https://omkolthoumgeneralhospital.example.com"}, "geometry": {"type": "Point", "coordinates": [31.262483, 30.078978]}}, {"type": "Feature", "properties": {"id": "hospital_002", "name": "Ibn Sina General Hospital", "category": "Hospital", "address": "187 Abbas El Akkad Street", "district": "Zamalek Isle", "opening_hours": "24/7", "phone": "+20-2-6392-3045", "website": "https://ibnsinageneralhospital.example.com"}, "geometry": {"type": "Point", "coordinates": [31.271533, 30.062016]}}, {"type": "Feature", "properties": {"id": "hospital_003", "name": "Sayed Darwish General Hospital", "category": "Hospital", "address": "93 El Thawra Street", "district": "Zamalek Isle", "opening_hours": "24/7", "phone": "+20-2-3575-2139", "website": "https://sayeddarwishgeneralhospital.example.com"}, "geometry": {"type": "Point", "coordinates": [31.26269, 30.067386]}}, {"type": "Feature", "properties": {"id": "hospital_004", "name": "Al Razi General Hospital", "category": "Hospital", "address": "219 Ramses Avenue", "district": "Nile Riverside", "opening_hours": "24/7", "phone": "+20-2-9098-2654", "website": "https://alrazigeneralhospital.example.com"}, "geometry": {"type": "Point", "coordinates": [31.267717, 29.976662]}}, {"type": "Feature", "properties": {"id": "hospital_005", "name": "Om Kolthoum General Hospital 2", "category": "Hospital", "address": "42 Salah Salem Road", "district": "Zamalek Isle", "opening_hours": "24/7", "phone": "+20-2-4910-4432", "website": "https://omkolthoumgeneralhospital2.example.com"}, "geometry": {"type": "Point", "coordinates": [31.265171, 30.071078]}}, {"type": "Feature", "properties": {"id": "hospital_006", "name": "Al Razi General Hospital 2", "category": "Hospital", "address": "156 Gamal Abdel Nasser Road", "district": "Downtown", "opening_hours": "24/7", "phone": "+20-2-3401-9751", "website": "https://alrazigeneralhospital2.example.com"}, "geometry": {"type": "Point", "coordinates": [31.261044, 30.041081]}}, {"type": "Feature", "properties": {"id": "hospital_007", "name": "El Galaa General Hospital", "category": "Hospital", "address": "57 Gamal Abdel Nasser Road", "district": "Downtown", "opening_hours": "24/7", "phone": "+20-2-4656-1916", "website": "https://elgalaageneralhospital.example.com"}, "geometry": {"type": "Point", "coordinates": [31.252055, 30.029085]}}, {"type": "Feature", "properties": {"id": "hospital_008", "name": "Saad Zaghloul General Hospital", "category": "Hospital", "address": "69 El Nil Street", "district": "Downtown", "opening_hours": "24/7", "phone": "+20-2-3728-6155", "website": "https://saadzaghloulgeneralhospital.example.com"}, "geometry": {"type": "Point", "coordinates": [31.260013, 30.029314]}}, {"type": "Feature", "properties": {"id": "hospital_009", "name": "El Rehab Specialized Hospital", "category": "Hospital", "address": "68 El Guish Road", "district": "Industrial Zone", "opening_hours": "24/7", "phone": "+20-2-6788-8019", "website": "https://elrehabspecializedhospital.example.com"}, "geometry": {"type": "Point", "coordinates": [31.170925, 29.994595]}}, {"type": "Feature", "properties": {"id": "hospital_010", "name": "El Nasr General Hospital", "category": "Hospital", "address": "131 Abbas El Akkad Street", "district": "Nasr City", "opening_hours": "24/7", "phone": "+20-2-2744-1771", "website": "https://elnasrgeneralhospital.example.com"}, "geometry": {"type": "Point", "coordinates": [31.22128, 30.003884]}}, {"type": "Feature", "properties": {"id": "hospital_011", "name": "El Fardous Specialized Hospital", "category": "Hospital", "address": "109 El Thawra Street", "district": "Downtown", "opening_hours": "24/7", "phone": "+20-2-2520-7304", "website": "https://elfardousspecializedhospital.example.com"}, "geometry": {"type": "Point", "coordinates": [31.254331, 29.988893]}}, {"type": "Feature", "properties": {"id": "hospital_012", "name": "Al Zahraa Medical Center", "category": "Hospital", "address": "142 El Nasr Road", "district": "Downtown", "opening_hours": "24/7", "phone": "+20-2-9720-1188", "website": "https://alzahraamedicalcenter.example.com"}, "geometry": {"type": "Point", "coordinates": [31.241941, 30.040164]}}, {"type": "Feature", "properties": {"id": "hospital_013", "name": "El Rehab Medical Center", "category": "Hospital", "address": "197 Gamal Abdel Nasser Road", "district": "Downtown", "opening_hours": "24/7", "phone": "+20-2-4786-2827", "website": "https://elrehabmedicalcenter.example.com"}, "geometry": {"type": "Point", "coordinates": [31.249659, 29.986565]}}, {"type": "Feature", "properties": {"id": "hospital_014", "name": "Al Noor Specialized Hospital", "category": "Hospital", "address": "185 El Ahram Street", "district": "Downtown", "opening_hours": "24/7", "phone": "+20-2-9961-9201", "website": "https://alnoorspecializedhospital.example.com"}, "geometry": {"type": "Point", "coordinates": [31.239664, 29.989216]}}, {"type": "Feature", "properties": {"id": "hospital_015", "name": "El Horreya Specialized Hospital", "category": "Hospital", "address": "77 El Nasr Road", "district": "Downtown", "opening_hours": "24/7", "phone": "+20-2-7234-9317", "website": "https://elhorreyaspecializedhospital.example.com"}, "geometry": {"type": "Point", "coordinates": [31.251769, 30.010467]}}, {"type": "Feature", "properties": {"id": "hospital_016", "name": "El Fardous Specialized Hospital 2", "category": "Hospital", "address": "200 Makram Ebeid Street", "district": "Downtown", "opening_hours": "24/7", "phone": "+20-2-9524-1009", "website": "https://elfardousspecializedhospital2.example.com"}, "geometry": {"type": "Point", "coordinates": [31.247816, 29.988893]}}, {"type": "Feature", "properties": {"id": "hospital_017", "name": "El Horreya Medical Center", "category": "Hospital", "address": "213 Port Said Street", "district": "Nile Riverside", "opening_hours": "24/7", "phone": "+20-2-4519-4923", "website": "https://elhorreyamedicalcenter.example.com"}, "geometry": {"type": "Point", "coordinates": [31.281557, 30.009307]}}, {"type": "Feature", "properties": {"id": "hospital_018", "name": "Al Nahda General Hospital", "category": "Hospital", "address": "188 Abbas El Akkad Street", "district": "Nile Riverside", "opening_hours": "24/7", "phone": "+20-2-8684-2133", "website": "https://alnahdageneralhospital.example.com"}, "geometry": {"type": "Point", "coordinates": [31.267577, 30.032983]}}, {"type": "Feature", "properties": {"id": "hospital_019", "name": "Al Amal General Hospital", "category": "Hospital", "address": "169 Abbas El Akkad Street", "district": "Nile Riverside", "opening_hours": "24/7", "phone": "+20-2-9756-3705", "website": "https://alamalgeneralhospital.example.com"}, "geometry": {"type": "Point", "coordinates": [31.291351, 30.011989]}}, {"type": "Feature", "properties": {"id": "hospital_020", "name": "El Gomhoria General Hospital", "category": "Hospital", "address": "139 Port Said Street", "district": "Nile Riverside", "opening_hours": "24/7", "phone": "+20-2-7979-4295", "website": "https://elgomhoriageneralhospital.example.com"}, "geometry": {"type": "Point", "coordinates": [31.272929, 30.032644]}}, {"type": "Feature", "properties": {"id": "hospital_021", "name": "El Feryal Specialized Hospital", "category": "Hospital", "address": "96 Abbas El Akkad Street", "district": "Nile Riverside", "opening_hours": "24/7", "phone": "+20-2-9369-9479", "website": "https://elferyalspecializedhospital.example.com"}, "geometry": {"type": "Point", "coordinates": [31.284503, 30.003859]}}, {"type": "Feature", "properties": {"id": "hospital_022", "name": "Al Nahda Medical Center", "category": "Hospital", "address": "6 El Thawra Street", "district": "Nile Riverside", "opening_hours": "24/7", "phone": "+20-2-6537-4770", "website": "https://alnahdamedicalcenter.example.com"}, "geometry": {"type": "Point", "coordinates": [31.277746, 29.994673]}}, {"type": "Feature", "properties": {"id": "hospital_023", "name": "Al Safwa Specialized Hospital", "category": "Hospital", "address": "16 Ramses Avenue", "district": "New Cairo Heights", "opening_hours": "24/7", "phone": "+20-2-2552-1514", "website": "https://alsafwaspecializedhospital.example.com"}, "geometry": {"type": "Point", "coordinates": [31.315285, 29.980037]}}, {"type": "Feature", "properties": {"id": "hospital_024", "name": "El Nasr Medical Center", "category": "Hospital", "address": "172 Abbas El Akkad Street", "district": "Helwan Gardens", "opening_hours": "24/7", "phone": "+20-2-3755-9834", "website": "https://elnasrmedicalcenter.example.com"}, "geometry": {"type": "Point", "coordinates": [31.186293, 30.063908]}}, {"type": "Feature", "properties": {"id": "hospital_025", "name": "Al Nozha Specialized Hospital", "category": "Hospital", "address": "122 Ramses Avenue", "district": "University District", "opening_hours": "24/7", "phone": "+20-2-8427-8749", "website": "https://alnozhaspecializedhospital.example.com"}, "geometry": {"type": "Point", "coordinates": [31.201499, 30.116479]}}, {"type": "Feature", "properties": {"id": "hospital_026", "name": "El Horreya Specialized Hospital 2", "category": "Hospital", "address": "111 Salah Salem Road", "district": "University District", "opening_hours": "24/7", "phone": "+20-2-5469-7735", "website": "https://elhorreyaspecializedhospital2.example.com"}, "geometry": {"type": "Point", "coordinates": [31.218946, 30.071177]}}, {"type": "Feature", "properties": {"id": "hospital_027", "name": "El Feryal Specialized Hospital 2", "category": "Hospital", "address": "166 El Nil Street", "district": "Old Town", "opening_hours": "24/7", "phone": "+20-2-2496-7596", "website": "https://elferyalspecializedhospital2.example.com"}, "geometry": {"type": "Point", "coordinates": [31.244148, 30.103928]}}, {"type": "Feature", "properties": {"id": "hospital_028", "name": "El Horreya General Hospital", "category": "Hospital", "address": "50 Ramses Avenue", "district": "Old Town", "opening_hours": "24/7", "phone": "+20-2-6393-8350", "website": "https://elhorreyageneralhospital.example.com"}, "geometry": {"type": "Point", "coordinates": [31.250897, 30.108276]}}, {"type": "Feature", "properties": {"id": "hospital_029", "name": "Al Ahram General Hospital", "category": "Hospital", "address": "20 Abbas El Akkad Street", "district": "Old Town", "opening_hours": "24/7", "phone": "+20-2-8619-2604", "website": "https://alahramgeneralhospital.example.com"}, "geometry": {"type": "Point", "coordinates": [31.235702, 30.070756]}}, {"type": "Feature", "properties": {"id": "hospital_030", "name": "Al Noor General Hospital", "category": "Hospital", "address": "193 El Nasr Road", "district": "Zamalek Isle", "opening_hours": "24/7", "phone": "+20-2-3936-3724", "website": "https://alnoorgeneralhospital.example.com"}, "geometry": {"type": "Point", "coordinates": [31.267387, 30.120356]}}, {"type": "Feature", "properties": {"id": "hospital_031", "name": "Al Andalus General Hospital", "category": "Hospital", "address": "43 El Merghany Street", "district": "Zamalek Isle", "opening_hours": "24/7", "phone": "+20-2-2017-7396", "website": "https://alandalusgeneralhospital.example.com"}, "geometry": {"type": "Point", "coordinates": [31.276582, 30.088867]}}, {"type": "Feature", "properties": {"id": "hospital_032", "name": "Al Ahram Medical Center", "category": "Hospital", "address": "109 El Guish Road", "district": "Zamalek Isle", "opening_hours": "24/7", "phone": "+20-2-9842-8973", "website": "https://alahrammedicalcenter.example.com"}, "geometry": {"type": "Point", "coordinates": [31.272933, 30.107271]}}, {"type": "Feature", "properties": {"id": "hospital_033", "name": "El Salam Specialized Hospital", "category": "Hospital", "address": "189 Makram Ebeid Street", "district": "Zamalek Isle", "opening_hours": "24/7", "phone": "+20-2-2499-6138", "website": "https://elsalamspecializedhospital.example.com"}, "geometry": {"type": "Point", "coordinates": [31.27008, 30.07764]}}, {"type": "Feature", "properties": {"id": "hospital_034", "name": "Al Zahraa Specialized Hospital", "category": "Hospital", "address": "41 El Tahrir Avenue", "district": "Zamalek Isle", "opening_hours": "24/7", "phone": "+20-2-9870-9320", "website": "https://alzahraaspecializedhospital.example.com"}, "geometry": {"type": "Point", "coordinates": [31.267557, 30.095118]}}, {"type": "Feature", "properties": {"id": "hospital_035", "name": "El Mostakbal General Hospital", "category": "Hospital", "address": "173 El Nasr Road", "district": "Maadi Gardens", "opening_hours": "24/7", "phone": "+20-2-3926-7615", "website": "https://elmostakbalgeneralhospital.example.com"}, "geometry": {"type": "Point", "coordinates": [31.30215, 30.070898]}}]}