{"type": "FeatureCollection", "features": [{"type": "Feature", "properties": {"id": "landmark_001", "name": "El Tahrir Mosque", "category": "Landmark", "address": "156 Abbas El Akkad Street", "district": "Industrial Zone", "opening_hours": "09:00-17:00", "phone": "+20-2-3948-4553", "website": "https://eltahrirmosque.example.com"}, "geometry": {"type": "Point", "coordinates": [31.164395, 30.009856]}}, {"type": "Feature", "properties": {"id": "landmark_002", "name": "El Gomhoria Opera House", "category": "Landmark", "address": "21 El Thawra Street", "district": "Industrial Zone", "opening_hours": "09:00-17:00", "phone": "+20-2-6916-1107", "website": "https://elgomhoriaoperahouse.example.com"}, "geometry": {"type": "Point", "coordinates": [31.179296, 30.008523]}}, {"type": "Feature", "properties": {"id": "landmark_003", "name": "El Mostakbal Cathedral", "category": "Landmark", "address": "13 El Horreya Road", "district": "Industrial Zone", "opening_hours": "09:00-17:00", "phone": "+20-2-3214-1902", "website": "https://elmostakbalcathedral.example.com"}, "geometry": {"type": "Point", "coordinates": [31.170403, 30.012878]}}, {"type": "Feature", "properties": {"id": "landmark_004", "name": "El Salam Palace", "category": "Landmark", "address": "85 El Nil Street", "district": "Industrial Zone", "opening_hours": "09:00-17:00", "phone": "+20-2-2401-2784", "website": "https://elsalampalace.example.com"}, "geometry": {"type": "Point", "coordinates": [31.180961, 29.981833]}}, {"type": "Feature", "properties": {"id": "landmark_005", "name": "El Feryal Palace", "category": "Landmark", "address": "157 Gamal Abdel Nasser Road", "district": "Nasr City", "opening_hours": "09:00-17:00", "phone": "+20-2-7664-3906", "website": "https://elferyalpalace.example.com"}, "geometry": {"type": "Point", "coordinates": [31.208854, 29.990438]}}, {"type": "Feature", "properties": {"id": "landmark_006", "name": "El Yasmin Mosque", "category": "Landmark", "address": "24 Port Said Street", "district": "Nasr City", "opening_hours": "09:00-17:00", "phone": "+20-2-4451-6289", "website": "https://elyasminmosque.example.com"}, "geometry": {"type": "Point", "coordinates": [31.223049, 30.02516]}}, {"type": "Feature", "properties": {"id": "landmark_007", "name": "Al Nahda Obelisk", "category": "Landmark", "address": "216 Makram Ebeid Street", "district": "Nasr City", "opening_hours": "09:00-17:00", "phone": "+20-2-2531-5797", "website": "https://alnahdaobelisk.example.com"}, "geometry": {"type": "Point", "coordinates": [31.207604, 30.00264]}}, {"type": "Feature", "properties": {"id": "landmark_008", "name": "Al Manar Citadel", "category": "Landmark", "address": "135 El Merghany Street", "district": "Downtown", "opening_hours": "09:00-17:00", "phone": "+20-2-6297-4438", "website": "https://almanarcitadel.example.com"}, "geometry": {"type": "Point", "coordinates": [31.244246, 29.987019]}}, {"type": "Feature", "properties": {"id": "landmark_009", "name": "El Horreya Tower", "category": "Landmark", "address": "124 El Guish Road", "district": "Downtown", "opening_hours": "09:00-17:00", "phone": "+20-2-7641-5705", "website": "https://elhorreyatower.example.com"}, "geometry": {"type": "Point", "coordinates": [31.25006, 30.016813]}}, {"type": "Feature", "properties": {"id": "landmark_010", "name": "Al Manar Citadel 2", "category": "Landmark", "address": "34 El Thawra Street", "district": "Downtown", "opening_hours": "09:00-17:00", "phone": "+20-2-6609-9132", "website": "https://almanarcitadel2.example.com"}, "geometry": {"type": "Point", "coordinates": [31.243115, 30.031146]}}, {"type": "Feature", "properties": {"id": "landmark_011", "name": "El Tahrir Museum", "category": "Landmark", "address": "157 Ramses Avenue", "district": "Downtown", "opening_hours": "09:00-17:00", "phone": "+20-2-7804-5759", "website": "https://eltahrirmuseum.example.com"}, "geometry": {"type": "Point", "coordinates": [31.245509, 30.018017]}}, {"type": "Feature", "properties": {"id": "landmark_012", "name": "Al Noor Opera House", "category": "Landmark", "address": "161 Port Said Street", "district": "Downtown", "opening_hours": "09:00-17:00", "phone": "+20-2-2966-4396", "website": "https://alnooroperahouse.example.com"}, "geometry": {"type": "Point", "coordinates": [31.257384, 29.979696]}}, {"type": "Feature", "properties": {"id": "landmark_013", "name": "El Gomhoria Mosque", "category": "Landmark", "address": "86 Salah Salem Road", "district": "Downtown", "opening_hours": "09:00-17:00", "phone": "+20-2-6590-4478", "website": "https://elgomhoriamosque.example.com"}, "geometry": {"type": "Point", "coordinates": [31.252741, 30.040338]}}, {"type": "Feature", "properties": {"id": "landmark_014", "name": "El Shorouk Palace", "category": "Landmark", "address": "203 El Nil Street", "district": "Nile Riverside", "opening_hours": "09:00-17:00", "phone": "+20-2-4521-5919", "website": "https://elshoroukpalace.example.com"}, "geometry": {"type": "Point", "coordinates": [31.266372, 29.991832]}}, {"type": "Feature", "properties": {"id": "landmark_015", "name": "Al Noor Tower", "category": "Landmark", "address": "176 Salah Salem Road", "district": "Nile Riverside", "opening_hours": "09:00-17:00", "phone": "+20-2-4796-7488", "website": "https://alnoortower.example.com"}, "geometry": {"type": "Point", "coordinates": [31.279173, 29.999295]}}, {"type": "Feature", "properties": {"id": "landmark_016", "name": "Al Noor Museum", "category": "Landmark", "address": "50 Salah Salem Road", "district": "Nile Riverside", "opening_hours": "09:00-17:00", "phone": "+20-2-8830-6536", "website": "https://alnoormuseum.example.com"}, "geometry": {"type": "Point", "coordinates": [31.284798, 30.017052]}}, {"type": "Feature", "properties": {"id": "landmark_017", "name": "El Tahrir Mosque 2", "category": "Landmark", "address": "166 El Horreya Road", "district": "Nile Riverside", "opening_hours": "09:00-17:00", "phone": "+20-2-5944-3545", "website": "https://eltahrirmosque2.example.com"}, "geometry": {"type": "Point", "coordinates": [31.289912, 30.00873]}}, {"type": "Feature", "properties": {"id": "landmark_018", "name": "El Rehab Citadel", "category": "Landmark", "address": "119 Port Said Street", "district": "New Cairo Heights", "opening_hours": "09:00-17:00", "phone": "+20-2-8669-7782", "website": "https://elrehabcitadel.example.com"}, "geometry": {"type": "Point", "coordinates": [31.316287, 30.033837]}}, {"type": "Feature", "properties": {"id": "landmark_019", "name": "Al Zahraa Palace", "category": "Landmark", "address": "145 El Guish Road", "district": "New Cairo Heights", "opening_hours": "09:00-17:00", "phone": "+20-2-7555-6169", "website": "https://alzahraapalace.example.com"}, "geometry": {"type": "Point", "coordinates": [31.324054, 29.983006]}}, {"type": "Feature", "properties": {"id": "landmark_020", "name": "Al Nozha Citadel", "category": "Landmark", "address": "205 Port Said Street", "district": "New Cairo Heights", "opening_hours": "09:00-17:00", "phone": "+20-2-4896-2084", "website": "https://alnozhacitadel.example.com"}, "geometry": {"type": "Point", "coordinates": [31.314426, 29.980738]}}, {"type": "Feature", "properties": {"id": "landmark_021", "name": "Al Noor Citadel", "category": "Landmark", "address": "97 Gamal Abdel Nasser Road", "district": "New Cairo Heights", "opening_hours": "09:00-17:00", "phone": "+20-2-6376-3719", "website": "https://alnoorcitadel.example.com"}, "geometry": {"type": "Point", "coordinates": [31.325135, 29.996652]}}, {"type": "Feature", "properties": {"id": "landmark_022", "name": "El Mostakbal Tower", "category": "Landmark", "address": "201 Port Said Street", "district": "Helwan Gardens", "opening_hours": "09:00-17:00", "phone": "+20-2-4525-6152", "website": "https://elmostakbaltower.example.com"}, "geometry": {"type": "Point", "coordinates": [31.178834, 30.083286]}}, {"type": "Feature", "properties": {"id": "landmark_023", "name": "Al Nahda Opera House", "category": "Landmark", "address": "61 Salah Salem Road", "district": "Helwan Gardens", "opening_hours": "09:00-17:00", "phone": "+20-2-5702-5958", "website": "https://alnahdaoperahouse.example.com"}, "geometry": {"type": "Point", "coordinates": [31.182422, 30.076107]}}, {"type": "Feature", "properties": {"id": "landmark_024", "name": "El Horreya Citadel", "category": "Landmark", "address": "201 El Tahrir Avenue", "district": "Helwan Gardens", "opening_hours": "09:00-17:00", "phone": "+20-2-8371-4311", "website": "https://elhorreyacitadel.example.com"}, "geometry": {"type": "Point", "coordinates": [31.169665, 30.077981]}}, {"type": "Feature", "properties": {"id": "landmark_025", "name": "Al Noor Opera House 2", "category": "Landmark", "address": "129 El Horreya Road", "district": "University District", "opening_hours": "09:00-17:00", "phone": "+20-2-3558-6572", "website": "https://alnooroperahouse2.example.com"}, "geometry": {"type": "Point", "coordinates": [31.221681, 30.086581]}}, {"type": "Feature", "properties": {"id": "landmark_026", "name": "Al Zahraa Palace 2", "category": "Landmark", "address": "199 Salah Salem Road", "district": "University District", "opening_hours": "09:00-17:00", "phone": "+20-2-3173-2609", "website": "https://alzahraapalace2.example.com"}, "geometry": {"type": "Point", "coordinates": [31.221947, 30.104132]}}, {"type": "Feature", "properties": {"id": "landmark_027", "name": "El Feryal Museum", "category": "Landmark", "address": "53 El Guish Road", "district": "University District", "opening_hours": "09:00-17:00", "phone": "+20-2-2299-8526", "website": "https://elferyalmuseum.example.com"}, "geometry": {"type": "Point", "coordinates": [31.219324, 30.116632]}}, {"type": "Feature", "properties": {"id": "landmark_028", "name": "El Horreya Mosque", "category": "Landmark", "address": "80 El Tahrir Avenue", "district": "Old Town", "opening_hours": "09:00-17:00", "phone": "+20-2-7628-2426", "website": "https://elhorreyamosque.example.com"}, "geometry": {"type": "Point", "coordinates": [31.242095, 30.11218]}}, {"type": "Feature", "properties": {"id": "landmark_029", "name": "El Horreya Palace", "category": "Landmark", "address": "6 El Thawra Street", "district": "Old Town", "opening_hours": "09:00-17:00", "phone": "+20-2-8213-6114", "website": "https://elhorreyapalace.example.com"}, "geometry": {"type": "Point", "coordinates": [31.240692, 30.113663]}}, {"type": "Feature", "properties": {"id": "landmark_030", "name": "Al Rahma Cathedral", "category": "Landmark", "address": "74 El Ahram Street", "district": "Old Town", "opening_hours": "09:00-17:00", "phone": "+20-2-6360-6228", "website": "https://alrahmacathedral.example.com"}, "geometry": {"type": "Point", "coordinates": [31.248588, 30.072359]}}, {"type": "Feature", "properties": {"id": "landmark_031", "name": "Al Manar Museum", "category": "Landmark", "address": "41 El Ahram Street", "district": "Old Town", "opening_hours": "09:00-17:00", "phone": "+20-2-2937-1249", "website": "https://almanarmuseum.example.com"}, "geometry": {"type": "Point", "coordinates": [31.252049, 30.100404]}}, {"type": "Feature", "properties": {"id": "landmark_032", "name": "El Horreya Cathedral", "category": "Landmark", "address": "139 Salah Salem Road", "district": "Old Town", "opening_hours": "09:00-17:00", "phone": "+20-2-6500-6218", "website": "https://elhorreyacathedral.example.com"}, "geometry": {"type": "Point", "coordinates": [31.256842, 30.093625]}}, {"type": "Feature", "properties": {"id": "landmark_033", "name": "El Shorouk Cathedral", "category": "Landmark", "address": "44 El Nil Street", "district": "Old Town", "opening_hours": "09:00-17:00", "phone": "+20-2-4550-6549", "website": "https://elshoroukcathedral.example.com"}, "geometry": {"type": "Point", "coordinates": [31.239084, 30.116951]}}, {"type": "Feature", "properties": {"id": "landmark_034", "name": "Al Noor Opera House 3", "category": "Landmark", "address": "173 El Tahrir Avenue", "district": "Zamalek Isle", "opening_hours": "09:00-17:00", "phone": "+20-2-2867-7284", "website": "https://alnooroperahouse3.example.com"}, "geometry": {"type": "Point", "coordinates": [31.280049, 30.062684]}}, {"type": "Feature", "properties": {"id": "landmark_035", "name": "El Fardous Opera House", "category": "Landmark", "address": "158 Salah Salem Road", "district": "Zamalek Isle", "opening_hours": "09:00-17:00", "phone": "+20-2-4559-6444", "website": "https://elfardousoperahouse.example.com"}, "geometry": {"type": "Point", "coordinates": [31.26747, 30.085529]}}, {"type": "Feature", "properties": {"id": "landmark_036", "name": "El Feryal Tower", "category": "Landmark", "address": "194 Port Said Street", "district": "Zamalek Isle", "opening_hours": "09:00-17:00", "phone": "+20-2-5814-3159", "website": "https://elferyaltower.example.com"}, "geometry": {"type": "Point", "coordinates": [31.287203, 30.102944]}}, {"type": "Feature", "properties": {"id": "landmark_037", "name": "Al Safwa Opera House", "category": "Landmark", "address": "25 Abbas El Akkad Street", "district": "Maadi Gardens", "opening_hours": "09:00-17:00", "phone": "+20-2-4542-8625", "website": "https://alsafwaoperahouse.example.com"}, "geometry": {"type": "Point", "coordinates": [31.302481, 30.108383]}}, {"type": "Feature", "properties": {"id": "landmark_038", "name": "Al Amal Palace", "category": "Landmark", "address": "94 El Merghany Street", "district": "Maadi Gardens", "opening_hours": "09:00-17:00", "phone": "+20-2-3502-6412", "website": "https://alamalpalace.example.com"}, "geometry": {"type": "Point", "coordinates": [31.312239, 30.117205]}}, {"type": "Feature", "properties": {"id": "landmark_039", "name": "Al Ahram Opera House", "category": "Landmark", "address": "8 El Nil Street", "district": "Maadi Gardens", "opening_hours": "09:00-17:00", "phone": "+20-2-5893-2849", "website": "https://alahramoperahouse.example.com"}, "geometry": {"type": "Point", "coordinates": [31.320462, 30.11325]}}, {"type": "Feature", "properties": {"id": "landmark_040", "name": "El Fardous Palace", "category": "Landmark", "address": "197 Salah Salem Road", "district": "Maadi Gardens", "opening_hours": "09:00-17:00", "phone": "+20-2-6951-3087", "website": "https://elfardouspalace.example.com"}, "geometry": {"type": "Point", "coordinates": [31.309161, 30.087643]}}]}