{"type": "FeatureCollection", "features": [{"type": "Feature", "properties": {"id": "metro_001", "name": "El Horreya Station", "category": "Metro Station", "address": "146 Ramses Avenue", "district": "Industrial Zone", "opening_hours": "05:00-01:00", "phone": "+20-2-6742-1651", "website": "https://elhorreyastation.example.com"}, "geometry": {"type": "Point", "coordinates": [31.194, 29.98]}}, {"type": "Feature", "properties": {"id": "metro_002", "name": "El Mostakbal Station", "category": "Metro Station", "address": "21 El Merghany Street", "district": "Nasr City", "opening_hours": "05:00-01:00", "phone": "+20-2-7385-9565", "website": "https://elmostakbalstation.example.com"}, "geometry": {"type": "Point", "coordinates": [31.19825, 29.9825]}}, {"type": "Feature", "properties": {"id": "metro_003", "name": "Al Waha Station", "category": "Metro Station", "address": "67 Ramses Avenue", "district": "Nasr City", "opening_hours": "05:00-01:00", "phone": "+20-2-7486-6147", "website": "https://alwahastation.example.com"}, "geometry": {"type": "Point", "coordinates": [31.2025, 29.985]}}, {"type": "Feature", "properties": {"id": "metro_004", "name": "El Nasr Station", "category": "Metro Station", "address": "68 El Merghany Street", "district": "Nasr City", "opening_hours": "05:00-01:00", "phone": "+20-2-3072-5915", "website": "https://elnasrstation.example.com"}, "geometry": {"type": "Point", "coordinates": [31.20675, 29.9875]}}, {"type": "Feature", "properties": {"id": "metro_005", "name": "Al Ahram Station", "category": "Metro Station", "address": "81 Port Said Street", "district": "Nasr City", "opening_hours": "05:00-01:00", "phone": "+20-2-9665-2188", "website": "https://alahramstation.example.com"}, "geometry": {"type": "Point", "coordinates": [31.211, 29.99]}}, {"type": "Feature", "properties": {"id": "metro_006", "name": "Al Noor Station", "category": "Metro Station", "address": "118 El Thawra Street", "district": "Nasr City", "opening_hours": "05:00-01:00", "phone": "+20-2-6612-2638", "website": "https://alnoorstation.example.com"}, "geometry": {"type": "Point", "coordinates": [31.21525, 29.9925]}}, {"type": "Feature", "properties": {"id": "metro_007", "name": "Al Nahda Station", "category": "Metro Station", "address": "138 Ramses Avenue", "district": "Nasr City", "opening_hours": "05:00-01:00", "phone": "+20-2-6144-5345", "website": "https://alnahdastation.example.com"}, "geometry": {"type": "Point", "coordinates": [31.2195, 29.995]}}, {"type": "Feature", "properties": {"id": "metro_008", "name": "Al Amal Station", "category": "Metro Station", "address": "90 El Nil Street", "district": "Nasr City", "opening_hours": "05:00-01:00", "phone": "+20-2-9202-5002", "website": "https://alamalstation.example.com"}, "geometry": {"type": "Point", "coordinates": [31.22375, 29.9975]}}, {"type": "Feature", "properties": {"id": "metro_009", "name": "El Yasmin Station", "category": "Metro Station", "address": "73 El Horreya Road", "district": "Nasr City", "opening_hours": "05:00-01:00", "phone": "+20-2-5589-9900", "website": "https://elyasminstation.example.com"}, "geometry": {"type": "Point", "coordinates": [31.228, 30.0]}}, {"type": "Feature", "properties": {"id": "metro_010", "name": "Al Safwa Station", "category": "Metro Station", "address": "78 El Thawra Street", "district": "Downtown", "opening_hours": "05:00-01:00", "phone": "+20-2-8611-9666", "website": "https://alsafwastation.example.com"}, "geometry": {"type": "Point", "coordinates": [31.23225, 30.0025]}}, {"type": "Feature", "properties": {"id": "metro_011", "name": "Al Noor Station 2", "category": "Metro Station", "address": "171 El Nasr Road", "district": "Downtown", "opening_hours": "05:00-01:00", "phone": "+20-2-6543-5905", "website": "https://alnoorstation2.example.com"}, "geometry": {"type": "Point", "coordinates": [31.2365, 30.005]}}, {"type": "Feature", "properties": {"id": "metro_012", "name": "El Feryal Station", "category": "Metro Station", "address": "27 El Horreya Road", "district": "Downtown", "opening_hours": "05:00-01:00", "phone": "+20-2-4166-2891", "website": "https://elferyalstation.example.com"}, "geometry": {"type": "Point", "coordinates": [31.24075, 30.0075]}}, {"type": "Feature", "properties": {"id": "metro_013", "name": "El Horreya Station 2", "category": "Metro Station", "address": "191 Makram Ebeid Street", "district": "Downtown", "opening_hours": "05:00-01:00", "phone": "+20-2-3273-5462", "website": "https://elhorreyastation2.example.com"}, "geometry": {"type": "Point", "coordinates": [31.245, 30.01]}}, {"type": "Feature", "properties": {"id": "metro_014", "name": "El Shorouk Station", "category": "Metro Station", "address": "155 Ramses Avenue", "district": "Downtown", "opening_hours": "05:00-01:00", "phone": "+20-2-7878-6617", "website": "https://elshoroukstation.example.com"}, "geometry": {"type": "Point", "coordinates": [31.245, 30.01]}}, {"type": "Feature", "properties": {"id": "metro_015", "name": "Al Rahma Station", "category": "Metro Station", "address": "176 Gamal Abdel Nasser Road", "district": "Downtown", "opening_hours": "05:00-01:00", "phone": "+20-2-8987-5325", "website": "https://alrahmastation.example.com"}, "geometry": {"type": "Point", "coordinates": [31.24925, 30.019167]}}, {"type": "Feature", "properties": {"id": "metro_016", "name": "Al Zahraa Station", "category": "Metro Station", "address": "126 El Ahram Street", "district": "Downtown", "opening_hours": "05:00-01:00", "phone": "+20-2-9416-1832", "website": "https://alzahraastation.example.com"}, "geometry": {"type": "Point", "coordinates": [31.2535, 30.028333]}}, {"type": "Feature", "properties": {"id": "metro_017", "name": "Al Nahda Station 2", "category": "Metro Station", "address": "163 El Merghany Street", "district": "Downtown", "opening_hours": "05:00-01:00", "phone": "+20-2-8794-5533", "website": "https://alnahdastation2.example.com"}, "geometry": {"type": "Point", "coordinates": [31.25775, 30.0375]}}, {"type": "Feature", "properties": {"id": "metro_018", "name": "El Salam Station", "category": "Metro Station", "address": "1 Salah Salem Road", "district": "Downtown", "opening_hours": "05:00-01:00", "phone": "+20-2-8317-3143", "website": "https://elsalamstation.example.com"}, "geometry": {"type": "Point", "coordinates": [31.262, 30.046667]}}, {"type": "Feature", "properties": {"id": "metro_019", "name": "Al Basma Station", "category": "Metro Station", "address": "68 El Horreya Road", "district": "Zamalek Isle", "opening_hours": "05:00-01:00", "phone": "+20-2-8072-8239", "website": "https://albasmastation.example.com"}, "geometry": {"type": "Point", "coordinates": [31.26625, 30.055833]}}, {"type": "Feature", "properties": {"id": "metro_020", "name": "El Rehab Station", "category": "Metro Station", "address": "181 El Merghany Street", "district": "Zamalek Isle", "opening_hours": "05:00-01:00", "phone": "+20-2-6594-1158", "website": "https://elrehabstation.example.com"}, "geometry": {"type": "Point", "coordinates": [31.2705, 30.065]}}, {"type": "Feature", "properties": {"id": "metro_021", "name": "El Horreya Station 3", "category": "Metro Station", "address": "20 El Guish Road", "district": "Zamalek Isle", "opening_hours": "05:00-01:00", "phone": "+20-2-9404-3442", "website": "https://elhorreyastation3.example.com"}, "geometry": {"type": "Point", "coordinates": [31.27475, 30.074167]}}, {"type": "Feature", "properties": {"id": "metro_022", "name": "El Rehab Station 2", "category": "Metro Station", "address": "10 El Nasr Road", "district": "Zamalek Isle", "opening_hours": "05:00-01:00", "phone": "+20-2-5024-3426", "website": "https://elrehabstation2.example.com"}, "geometry": {"type": "Point", "coordinates": [31.279, 30.083333]}}, {"type": "Feature", "properties": {"id": "metro_023", "name": "El Gomhoria Station", "category": "Metro Station", "address": "33 El Tahrir Avenue", "district": "Zamalek Isle", "opening_hours": "05:00-01:00", "phone": "+20-2-4525-6974", "website": "https://elgomhoriastation.example.com"}, "geometry": {"type": "Point", "coordinates": [31.28325, 30.0925]}}, {"type": "Feature", "properties": {"id": "metro_024", "name": "El Salam Station 2", "category": "Metro Station", "address": "92 Ramses Avenue", "district": "Zamalek Isle", "opening_hours": "05:00-01:00", "phone": "+20-2-7587-5088", "website": "https://elsalamstation2.example.com"}, "geometry": {"type": "Point", "coordinates": [31.2875, 30.101667]}}, {"type": "Feature", "properties": {"id": "metro_025", "name": "El Feryal Station 2", "category": "Metro Station", "address": "27 Salah Salem Road", "district": "Zamalek Isle", "opening_hours": "05:00-01:00", "phone": "+20-2-8390-7658", "website": "https://elferyalstation2.example.com"}, "geometry": {"type": "Point", "coordinates": [31.29175, 30.110833]}}]}