{"type": "FeatureCollection", "features": [{"type": "Feature", "properties": {"id": "neighborhood_001", "name": "Industrial Zone", "category": "Neighborhood", "address": "Industrial Zone District", "district": "Industrial Zone", "opening_hours": "", "phone": "", "website": "https://industrialzone.example.com", "type": "industrial"}, "geometry": {"type": "Polygon", "coordinates": [[[31.16, 29.97], [31.194, 29.97], [31.194, 30.049999999999997], [31.16, 30.049999999999997], [31.16, 29.97]]]}}, {"type": "Feature", "properties": {"id": "neighborhood_002", "name": "Nasr City", "category": "Neighborhood", "address": "Nasr City District", "district": "Nasr City", "opening_hours": "", "phone": "", "website": "https://nasrcity.example.com", "type": "residential"}, "geometry": {"type": "Polygon", "coordinates": [[[31.194, 29.97], [31.227999999999998, 29.97], [31.227999999999998, 30.049999999999997], [31.194, 30.049999999999997], [31.194, 29.97]]]}}, {"type": "Feature", "properties": {"id": "neighborhood_003", "name": "Downtown", "category": "Neighborhood", "address": "Downtown District", "district": "Downtown", "opening_hours": "", "phone": "", "website": "https://downtown.example.com", "type": "downtown"}, "geometry": {"type": "Polygon", "coordinates": [[[31.227999999999998, 29.97], [31.262, 29.97], [31.262, 30.049999999999997], [31.227999999999998, 30.049999999999997], [31.227999999999998, 29.97]]]}}, {"type": "Feature", "properties": {"id": "neighborhood_004", "name": "Nile Riverside", "category": "Neighborhood", "address": "Nile Riverside District", "district": "Nile Riverside", "opening_hours": "", "phone": "", "website": "https://nileriverside.example.com", "type": "commercial"}, "geometry": {"type": "Polygon", "coordinates": [[[31.262, 29.97], [31.296, 29.97], [31.296, 30.049999999999997], [31.262, 30.049999999999997], [31.262, 29.97]]]}}, {"type": "Feature", "properties": {"id": "neighborhood_005", "name": "New Cairo Heights", "category": "Neighborhood", "address": "New Cairo Heights District", "district": "New Cairo Heights", "opening_hours": "", "phone": "", "website": "https://newcairoheights.example.com", "type": "suburban"}, "geometry": {"type": "Polygon", "coordinates": [[[31.296, 29.97], [31.33, 29.97], [31.33, 30.049999999999997], [31.296, 30.049999999999997], [31.296, 29.97]]]}}, {"type": "Feature", "properties": {"id": "neighborhood_006", "name": "Helwan Gardens", "category": "Neighborhood", "address": "Helwan Gardens District", "district": "Helwan Gardens", "opening_hours": "", "phone": "", "website": "https://helwangardens.example.com", "type": "residential"}, "geometry": {"type": "Polygon", "coordinates": [[[31.16, 30.049999999999997], [31.194, 30.049999999999997], [31.194, 30.13], [31.16, 30.13], [31.16, 30.049999999999997]]]}}, {"type": "Feature", "properties": {"id": "neighborhood_007", "name": "University District", "category": "Neighborhood", "address": "University District District", "district": "University District", "opening_hours": "", "phone": "", "website": "https://universitydistrict.example.com", "type": "university"}, "geometry": {"type": "Polygon", "coordinates": [[[31.194, 30.049999999999997], [31.227999999999998, 30.049999999999997], [31.227999999999998, 30.13], [31.194, 30.13], [31.194, 30.049999999999997]]]}}, {"type": "Feature", "properties": {"id": "neighborhood_008", "name": "Old Town", "category": "Neighborhood", "address": "Old Town District", "district": "Old Town", "opening_hours": "", "phone": "", "website": "https://oldtown.example.com", "type": "historic"}, "geometry": {"type": "Polygon", "coordinates": [[[31.227999999999998, 30.049999999999997], [31.262, 30.049999999999997], [31.262, 30.13], [31.227999999999998, 30.13], [31.227999999999998, 30.049999999999997]]]}}, {"type": "Feature", "properties": {"id": "neighborhood_009", "name": "Zamalek Isle", "category": "Neighborhood", "address": "Zamalek Isle District", "district": "Zamalek Isle", "opening_hours": "", "phone": "", "website": "https://zamalekisle.example.com", "type": "commercial"}, "geometry": {"type": "Polygon", "coordinates": [[[31.262, 30.049999999999997], [31.296, 30.049999999999997], [31.296, 30.13], [31.262, 30.13], [31.262, 30.049999999999997]]]}}, {"type": "Feature", "properties": {"id": "neighborhood_010", "name": "Maadi Gardens", "category": "Neighborhood", "address": "Maadi Gardens District", "district": "Maadi Gardens", "opening_hours": "", "phone": "", "website": "https://maadigardens.example.com", "type": "residential"}, "geometry": {"type": "Polygon", "coordinates": [[[31.296, 30.049999999999997], [31.33, 30.049999999999997], [31.33, 30.13], [31.296, 30.13], [31.296, 30.049999999999997]]]}}]}