{"type": "FeatureCollection", "features": [{"type": "Feature", "properties": {"id": "park_001", "name": "El Mostakbal Park", "category": "Park", "address": "160 Ramses Avenue", "district": "Nile Riverside", "opening_hours": "06:00-22:00", "phone": "", "website": "https://park.example.com"}, "geometry": {"type": "Polygon", "coordinates": [[[31.26854948410627, 29.976998949666935], [31.27103840741054, 29.976998949666935], [31.27103840741054, 29.97915489648691], [31.26854948410627, 29.97915489648691], [31.26854948410627, 29.976998949666935]]]}}, {"type": "Feature", "properties": {"id": "park_002", "name": "El Salam Park", "category": "Park", "address": "175 Salah Salem Road", "district": "Nile Riverside", "opening_hours": "06:00-22:00", "phone": "", "website": "https://park.example.com"}, "geometry": {"type": "Polygon", "coordinates": [[[31.263958519794258, 29.99443484710283], [31.266447880197227, 29.99443484710283], [31.266447880197227, 29.996590793922806], [31.263958519794258, 29.996590793922806], [31.263958519794258, 29.99443484710283]]]}}, {"type": "Feature", "properties": {"id": "park_003", "name": "Al Andalus Park", "category": "Park", "address": "204 El Nil Street", "district": "Downtown", "opening_hours": "06:00-22:00", "phone": "", "website": "https://park.example.com"}, "geometry": {"type": "Polygon", "coordinates": [[[31.25521839154584, 30.01187074453873], [31.257708189431668, 30.01187074453873], [31.257708189431668, 30.014026691358705], [31.25521839154584, 30.014026691358705], [31.25521839154584, 30.01187074453873]]]}}, {"type": "Feature", "properties": {"id": "park_004", "name": "Al Andalus Park 2", "category": "Park", "address": "66 Makram Ebeid Street", "district": "Downtown", "opening_hours": "06:00-22:00", "phone": "", "website": "https://park.example.com"}, "geometry": {"type": "Polygon", "coordinates": [[[31.25534597771611, 30.029306641974628], [31.257836213469247, 30.029306641974628], [31.257836213469247, 30.031462588794604], [31.25534597771611, 30.031462588794604], [31.25534597771611, 30.029306641974628]]]}}, {"type": "Feature", "properties": {"id": "park_005", "name": "Al Rahma Gardens", "category": "Park", "address": "132 El Nil Street", "district": "Industrial Zone", "opening_hours": "06:00-22:00", "phone": "", "website": "https://park.example.com"}, "geometry": {"type": "Polygon", "coordinates": [[[31.174308261564796, 29.98115320131632], [31.176878118901712, 29.98115320131632], [31.176878118901712, 29.98337916065039], [31.174308261564796, 29.98337916065039], [31.174308261564796, 29.98115320131632]]]}}, {"type": "Feature", "properties": {"id": "park_006", "name": "El Rehab Park", "category": "Park", "address": "161 El Nil Street", "district": "Industrial Zone", "opening_hours": "06:00-22:00", "phone": "", "website": "https://park.example.com"}, "geometry": {"type": "Polygon", "coordinates": [[[31.18726067726748, 29.988633366416092], [31.18990290957195, 29.988633366416092], [31.18990290957195, 29.990921842384264], [31.18726067726748, 29.990921842384264], [31.18726067726748, 29.988633366416092]]]}}, {"type": "Feature", "properties": {"id": "park_007", "name": "El Feryal Gardens", "category": "Park", "address": "214 El Nil Street", "district": "Industrial Zone", "opening_hours": "06:00-22:00", "phone": "", "website": "https://park.example.com"}, "geometry": {"type": "Polygon", "coordinates": [[[31.168667668855786, 30.017130764237365], [31.17038551776888, 30.017130764237365], [31.17038551776888, 30.01861819700617], [31.168667668855786, 30.01861819700617], [31.168667668855786, 30.017130764237365]]]}}, {"type": "Feature", "properties": {"id": "park_008", "name": "El Karma Gardens", "category": "Park", "address": "166 El Nasr Road", "district": "Industrial Zone", "opening_hours": "06:00-22:00", "phone": "", "website": "https://park.example.com"}, "geometry": {"type": "Polygon", "coordinates": [[[31.16811885890934, 30.02888552758704], [31.170665493163963, 30.02888552758704], [31.170665493163963, 30.03109031080484], [31.16811885890934, 30.03109031080484], [31.16811885890934, 30.02888552758704]]]}}, {"type": "Feature", "properties": {"id": "park_009", "name": "Al Ahram Gardens", "category": "Park", "address": "10 El Nil Street", "district": "Nasr City", "opening_hours": "06:00-22:00", "phone": "", "website": "https://park.example.com"}, "geometry": {"type": "Polygon", "coordinates": [[[31.221541173234424, 30.024299272705548], [31.223185164208328, 30.024299272705548], [31.223185164208328, 30.02572265169644], [31.221541173234424, 30.02572265169644], [31.221541173234424, 30.024299272705548]]]}}, {"type": "Feature", "properties": {"id": "park_010", "name": "Al Nahda Park", "category": "Park", "address": "67 El Merghany Street", "district": "Nasr City", "opening_hours": "06:00-22:00", "phone": "", "website": "https://park.example.com"}, "geometry": {"type": "Polygon", "coordinates": [[[31.199089938446726, 29.989657330658257], [31.200855519700234, 29.989657330658257], [31.200855519700234, 29.99118651643008], [31.199089938446726, 29.99118651643008], [31.199089938446726, 29.989657330658257]]]}}, {"type": "Feature", "properties": {"id": "park_011", "name": "Al Noor Gardens", "category": "Park", "address": "173 El Nil Street", "district": "Nasr City", "opening_hours": "06:00-22:00", "phone": "", "website": "https://park.example.com"}, "geometry": {"type": "Polygon", "coordinates": [[[31.20711098534004, 30.01705499713015], [31.209102539616314, 30.01705499713015], [31.209102539616314, 30.01877942224834], [31.20711098534004, 30.01877942224834], [31.20711098534004, 30.01705499713015]]]}}, {"type": "Feature", "properties": {"id": "park_012", "name": "El Karma Park", "category": "Park", "address": "180 El Nasr Road", "district": "Downtown", "opening_hours": "06:00-22:00", "phone": "", "website": "https://park.example.com"}, "geometry": {"type": "Polygon", "coordinates": [[[31.24478897454368, 30.017636403080093], [31.24701126570107, 30.017636403080093], [31.24701126570107, 30.019560602892067], [31.24478897454368, 30.019560602892067], [31.24478897454368, 30.017636403080093]]]}}, {"type": "Feature", "properties": {"id": "park_013", "name": "El Feryal Gardens 2", "category": "Park", "address": "156 El Nil Street", "district": "Downtown", "opening_hours": "06:00-22:00", "phone": "", "website": "https://park.example.com"}, "geometry": {"type": "Polygon", "coordinates": [[[31.23316327176128, 30.03533927974162], [31.234748150745933, 30.03533927974162], [31.234748150745933, 30.0367113266786], [31.23316327176128, 30.0367113266786], [31.23316327176128, 30.03533927974162]]]}}, {"type": "Feature", "properties": {"id": "park_014", "name": "El Feryal Park", "category": "Park", "address": "122 El Horreya Road", "district": "Downtown", "opening_hours": "06:00-22:00", "phone": "", "website": "https://park.example.com"}, "geometry": {"type": "Polygon", "coordinates": [[[31.238390585516605, 30.035108410820243], [31.24031823600442, 30.035108410820243], [31.24031823600442, 30.036777200156727], [31.238390585516605, 30.036777200156727], [31.238390585516605, 30.035108410820243]]]}}, {"type": "Feature", "properties": {"id": "park_015", "name": "El Rehab Gardens", "category": "Park", "address": "163 El Horreya Road", "district": "Nile Riverside", "opening_hours": "06:00-22:00", "phone": "", "website": "https://park.example.com"}, "geometry": {"type": "Polygon", "coordinates": [[[31.27889548762787, 29.987052435171023], [31.28083412640585, 29.987052435171023], [31.28083412640585, 29.98873155040505], [31.27889548762787, 29.98873155040505], [31.27889548762787, 29.987052435171023]]]}}, {"type": "Feature", "properties": {"id": "park_016", "name": "El Karma Gardens 2", "category": "Park", "address": "3 Makram Ebeid Street", "district": "Nile Riverside", "opening_hours": "06:00-22:00", "phone": "", "website": "https://park.example.com"}, "geometry": {"type": "Polygon", "coordinates": [[[31.272454422326444, 30.0323791326985], [31.27510913775976, 30.0323791326985], [31.27510913775976, 30.03467740656852], [31.272454422326444, 30.03467740656852], [31.272454422326444, 30.0323791326985]]]}}, {"type": "Feature", "properties": {"id": "park_017", "name": "Al Nozha Gardens", "category": "Park", "address": "138 Makram Ebeid Street", "district": "Nile Riverside", "opening_hours": "06:00-22:00", "phone": "", "website": "https://park.example.com"}, "geometry": {"type": "Polygon", "coordinates": [[[31.287931972290544, 29.98754419807662], [31.289435982529007, 29.98754419807662], [31.289435982529007, 29.988846864056285], [31.287931972290544, 29.988846864056285], [31.287931972290544, 29.98754419807662]]]}}, {"type": "Feature", "properties": {"id": "park_018", "name": "El Karma Gardens 3", "category": "Park", "address": "55 El Merghany Street", "district": "New Cairo Heights", "opening_hours": "06:00-22:00", "phone": "", "website": "https://park.example.com"}, "geometry": {"type": "Polygon", "coordinates": [[[31.323358157625048, 29.997093082328714], [31.325741737210297, 29.997093082328714], [31.325741737210297, 29.999157361796986], [31.323358157625048, 29.999157361796986], [31.323358157625048, 29.997093082328714]]]}}, {"type": "Feature", "properties": {"id": "park_019", "name": "El Fardous Park", "category": "Park", "address": "158 El Nasr Road", "district": "New Cairo Heights", "opening_hours": "06:00-22:00", "phone": "", "website": "https://park.example.com"}, "geometry": {"type": "Polygon", "coordinates": [[[31.32266641474439, 30.030663098924887], [31.324296441863808, 30.030663098924887], [31.324296441863808, 30.032074297398243], [31.32266641474439, 30.032074297398243], [31.32266641474439, 30.030663098924887]]]}}, {"type": "Feature", "properties": {"id": "park_020", "name": "Al Nozha Park", "category": "Park", "address": "218 Port Said Street", "district": "New Cairo Heights", "opening_hours": "06:00-22:00", "phone": "", "website": "https://park.example.com"}, "geometry": {"type": "Polygon", "coordinates": [[[31.305467310654763, 29.98557858456503], [31.30775438442476, 29.98557858456503], [31.30775438442476, 29.987559516557145], [31.305467310654763, 29.987559516557145], [31.305467310654763, 29.98557858456503]]]}}, {"type": "Feature", "properties": {"id": "park_021", "name": "El Rehab Park 2", "category": "Park", "address": "75 Gamal Abdel Nasser Road", "district": "New Cairo Heights", "opening_hours": "06:00-22:00", "phone": "", "website": "https://park.example.com"}, "geometry": {"type": "Polygon", "coordinates": [[[31.323158854888863, 30.039176799831104], [31.32518601975517, 30.039176799831104], [31.32518601975517, 30.040931667100622], [31.323158854888863, 30.040931667100622], [31.323158854888863, 30.039176799831104]]]}}, {"type": "Feature", "properties": {"id": "park_022", "name": "El Tahrir Gardens", "category": "Park", "address": "92 El Horreya Road", "district": "Helwan Gardens", "opening_hours": "06:00-22:00", "phone": "", "website": "https://park.example.com"}, "geometry": {"type": "Polygon", "coordinates": [[[31.164642194245598, 30.064550805218442], [31.166999113057077, 30.064550805218442], [31.166999113057077, 30.066590606789408], [31.164642194245598, 30.066590606789408], [31.164642194245598, 30.064550805218442]]]}}, {"type": "Feature", "properties": {"id": "park_023", "name": "Al Nahda Park 2", "category": "Park", "address": "82 Abbas El Akkad Street", "district": "Helwan Gardens", "opening_hours": "06:00-22:00", "phone": "", "website": "https://park.example.com"}, "geometry": {"type": "Polygon", "coordinates": [[[31.180522047107615, 30.073077094251605], [31.182330507731898, 30.073077094251605], [31.182330507731898, 30.074642100155895], [31.180522047107615, 30.074642100155895], [31.180522047107615, 30.073077094251605]]]}}, {"type": "Feature", "properties": {"id": "park_024", "name": "Al Nozha Park 2", "category": "Park", "address": "145 El Thawra Street", "district": "Helwan Gardens", "opening_hours": "06:00-22:00", "phone": "", "website": "https://park.example.com"}, "geometry": {"type": "Polygon", "coordinates": [[[31.17480745454526, 30.096280046912447], [31.176641929608884, 30.096280046912447], [31.176641929608884, 30.097867192607097], [31.17480745454526, 30.097867192607097], [31.17480745454526, 30.096280046912447]]]}}, {"type": "Feature", "properties": {"id": "park_025", "name": "Al Noor Gardens 2", "category": "Park", "address": "64 Port Said Street", "district": "Helwan Gardens", "opening_hours": "06:00-22:00", "phone": "", "website": "https://park.example.com"}, "geometry": {"type": "Polygon", "coordinates": [[[31.17250505906996, 30.077973386284423], [31.174491961685913, 30.077973386284423], [31.174491961685913, 30.079692725910324], [31.17250505906996, 30.079692725910324], [31.17250505906996, 30.077973386284423]]]}}, {"type": "Feature", "properties": {"id": "park_026", "name": "El Yasmin Park", "category": "Park", "address": "174 El Guish Road", "district": "University District", "opening_hours": "06:00-22:00", "phone": "", "website": "https://park.example.com"}, "geometry": {"type": "Polygon", "coordinates": [[[31.202805644159533, 30.103716943033223], [31.204802804233857, 30.103716943033223], [31.204802804233857, 30.10544470882491], [31.202805644159533, 30.10544470882491], [31.202805644159533, 30.103716943033223]]]}}, {"type": "Feature", "properties": {"id": "park_027", "name": "El Shorouk Gardens", "category": "Park", "address": "142 El Nil Street", "district": "University District", "opening_hours": "06:00-22:00", "phone": "", "website": "https://park.example.com"}, "geometry": {"type": "Polygon", "coordinates": [[[31.205643414143815, 30.087912341556173], [31.20765175912755, 30.087912341556173], [31.20765175912755, 30.08965006125459], [31.205643414143815, 30.08965006125459], [31.205643414143815, 30.087912341556173]]]}}, {"type": "Feature", "properties": {"id": "park_028", "name": "Al Amal Park", "category": "Park", "address": "68 El Guish Road", "district": "University District", "opening_hours": "06:00-22:00", "phone": "", "website": "https://park.example.com"}, "geometry": {"type": "Polygon", "coordinates": [[[31.20137068121352, 30.095400429041767], [31.203873120701545, 30.095400429041767], [31.203873120701545, 30.097565495152445], [31.20137068121352, 30.097565495152445], [31.20137068121352, 30.095400429041767]]]}}, {"type": "Feature", "properties": {"id": "park_029", "name": "Al Noor Park", "category": "Park", "address": "209 El Thawra Street", "district": "Old Town", "opening_hours": "06:00-22:00", "phone": "", "website": "https://park.example.com"}, "geometry": {"type": "Polygon", "coordinates": [[[31.2542093938074, 30.06357945521951], [31.255756441994436, 30.06357945521951], [31.255756441994436, 30.06491837001304], [31.2542093938074, 30.06491837001304], [31.2542093938074, 30.06357945521951]]]}}, {"type": "Feature", "properties": {"id": "park_030", "name": "El Salam Gardens", "category": "Park", "address": "140 Makram Ebeid Street", "district": "Old Town", "opening_hours": "06:00-22:00", "phone": "", "website": "https://park.example.com"}, "geometry": {"type": "Polygon", "coordinates": [[[31.24617936192496, 30.10562388249438], [31.247898230761287, 30.10562388249438], [31.247898230761287, 30.10711086850176], [31.24617936192496, 30.10711086850176], [31.24617936192496, 30.10562388249438]]]}}, {"type": "Feature", "properties": {"id": "park_031", "name": "El Nasr Gardens", "category": "Park", "address": "35 Abbas El Akkad Street", "district": "Old Town", "opening_hours": "06:00-22:00", "phone": "", "website": "https://park.example.com"}, "geometry": {"type": "Polygon", "coordinates": [[[31.243324367369365, 30.105906002920758], [31.245233964807095, 30.105906002920758], [31.245233964807095, 30.10755798132187], [31.243324367369365, 30.10755798132187], [31.243324367369365, 30.105906002920758]]]}}, {"type": "Feature", "properties": {"id": "park_032", "name": "Al Noor Park 2", "category": "Park", "address": "218 Port Said Street", "district": "Zamalek Isle", "opening_hours": "06:00-22:00", "phone": "", "website": "https://park.example.com"}, "geometry": {"type": "Polygon", "coordinates": [[[31.278075842156298, 30.064280748154008], [31.27998220334048, 30.064280748154008], [31.27998220334048, 30.06593062119541], [31.278075842156298, 30.06593062119541], [31.278075842156298, 30.064280748154008]]]}}, {"type": "Feature", "properties": {"id": "park_033", "name": "Al Amal Gardens", "category": "Park", "address": "41 El Horreya Road", "district": "Zamalek Isle", "opening_hours": "06:00-22:00", "phone": "", "website": "https://park.example.com"}, "geometry": {"type": "Polygon", "coordinates": [[[31.290252505281796, 30.100160086908048], [31.292649668048195, 30.100160086908048], [31.292649668048195, 30.102233970563752], [31.290252505281796, 30.102233970563752], [31.290252505281796, 30.100160086908048]]]}}, {"type": "Feature", "properties": {"id": "park_034", "name": "Al Amal Gardens 2", "category": "Park", "address": "92 El Tahrir Avenue", "district": "Zamalek Isle", "opening_hours": "06:00-22:00", "phone": "", "website": "https://park.example.com"}, "geometry": {"type": "Polygon", "coordinates": [[[31.27944454381926, 30.092902482594457], [31.28198479909846, 30.092902482594457], [31.28198479909846, 30.09510032142398], [31.27944454381926, 30.09510032142398], [31.27944454381926, 30.092902482594457]]]}}, {"type": "Feature", "properties": {"id": "park_035", "name": "El Yasmin Park 2", "category": "Park", "address": "11 Gamal Abdel Nasser Road", "district": "Zamalek Isle", "opening_hours": "06:00-22:00", "phone": "", "website": "https://park.example.com"}, "geometry": {"type": "Polygon", "coordinates": [[[31.27096837718897, 30.08858594346836], [31.27250019479097, 30.08858594346836], [31.27250019479097, 30.08991134177387], [31.27096837718897, 30.08991134177387], [31.27096837718897, 30.08858594346836]]]}}, {"type": "Feature", "properties": {"id": "park_036", "name": "El Tahrir Gardens 2", "category": "Park", "address": "12 El Tahrir Avenue", "district": "Zamalek Isle", "opening_hours": "06:00-22:00", "phone": "", "website": "https://park.example.com"}, "geometry": {"type": "Polygon", "coordinates": [[[31.270471011315497, 30.113966218923284], [31.272375072865902, 30.113966218923284], [31.272375072865902, 30.115613273933587], [31.270471011315497, 30.115613273933587], [31.270471011315497, 30.113966218923284]]]}}, {"type": "Feature", "properties": {"id": "park_037", "name": "Al Zahraa Gardens", "category": "Park", "address": "214 El Guish Road", "district": "Zamalek Isle", "opening_hours": "06:00-22:00", "phone": "", "website": "https://park.example.com"}, "geometry": {"type": "Polygon", "coordinates": [[[31.29025342850468, 30.078295401185287], [31.292583451432346, 30.078295401185287], [31.292583451432346, 30.08031164579849], [31.29025342850468, 30.08031164579849], [31.29025342850468, 30.078295401185287]]]}}, {"type": "Feature", "properties": {"id": "park_038", "name": "Al Basma Gardens", "category": "Park", "address": "94 El Thawra Street", "district": "Maadi Gardens", "opening_hours": "06:00-22:00", "phone": "", "website": "https://park.example.com"}, "geometry": {"type": "Polygon", "coordinates": [[[31.306049011237672, 30.091973963212748], [31.307719163228096, 30.091973963212748], [31.307719163228096, 30.093419004337196], [31.306049011237672, 30.093419004337196], [31.306049011237672, 30.091973963212748]]]}}, {"type": "Feature", "properties": {"id": "park_039", "name": "Al Andalus Park 3", "category": "Park", "address": "133 El Merghany Street", "district": "Maadi Gardens", "opening_hours": "06:00-22:00", "phone": "", "website": "https://park.example.com"}, "geometry": {"type": "Polygon", "coordinates": [[[31.315913396824506, 30.109489227059502], [31.31801103590155, 30.109489227059502], [31.31801103590155, 30.11130381156998], [31.315913396824506, 30.11130381156998], [31.315913396824506, 30.109489227059502]]]}}, {"type": "Feature", "properties": {"id": "park_040", "name": "El Tahrir Park", "category": "Park", "address": "129 El Horreya Road", "district": "Maadi Gardens", "opening_hours": "06:00-22:00", "phone": "", "website": "https://park.example.com"}, "geometry": {"type": "Polygon", "coordinates": [[[31.30816861262846, 30.111466111117824], [31.310229156412557, 30.111466111117824], [31.310229156412557, 30.11324857058172], [31.30816861262846, 30.11324857058172], [31.30816861262846, 30.111466111117824]]]}}]}