{"type": "FeatureCollection", "features": [{"type": "Feature", "properties": {"id": "parking_001", "name": "El Yasmin Parking", "category": "Parking", "address": "153 Gamal Abdel Nasser Road", "district": "Zamalek Isle", "opening_hours": "24/7", "phone": "+20-2-2198-5994", "website": "https://elyasminparking.example.com"}, "geometry": {"type": "Point", "coordinates": [31.262862, 30.079814]}}, {"type": "Feature", "properties": {"id": "parking_002", "name": "El Yasmin Parking 2", "category": "Parking", "address": "158 El Nasr Road", "district": "Zamalek Isle", "opening_hours": "24/7", "phone": "+20-2-8576-8245", "website": "https://elyasminparking2.example.com"}, "geometry": {"type": "Point", "coordinates": [31.272037, 30.062801]}}, {"type": "Feature", "properties": {"id": "parking_003", "name": "Al Ahram Parking", "category": "Parking", "address": "12 El Nasr Road", "district": "Old Town", "opening_hours": "24/7", "phone": "+20-2-3912-4271", "website": "https://alahramparking.example.com"}, "geometry": {"type": "Point", "coordinates": [31.261948, 30.066758]}}, {"type": "Feature", "properties": {"id": "parking_004", "name": "Al Amal Parking", "category": "Parking", "address": "194 El Guish Road", "district": "Nile Riverside", "opening_hours": "24/7", "phone": "+20-2-8985-2405", "website": "https://alamalparking.example.com"}, "geometry": {"type": "Point", "coordinates": [31.267307, 29.975837]}}, {"type": "Feature", "properties": {"id": "parking_005", "name": "El Salam Parking", "category": "Parking", "address": "63 El Thawra Street", "district": "Zamalek Isle", "opening_hours": "24/7", "phone": "+20-2-9591-3419", "website": "https://elsalamparking.example.com"}, "geometry": {"type": "Point", "coordinates": [31.265961, 30.071661]}}, {"type": "Feature", "properties": {"id": "parking_006", "name": "El Shorouk Parking", "category": "Parking", "address": "4 Salah Salem Road", "district": "Downtown", "opening_hours": "24/7", "phone": "+20-2-7683-2823", "website": "https://elshoroukparking.example.com"}, "geometry": {"type": "Point", "coordinates": [31.261748, 30.040421]}}, {"type": "Feature", "properties": {"id": "parking_007", "name": "El Tahrir Parking", "category": "Parking", "address": "6 Salah Salem Road", "district": "Downtown", "opening_hours": "24/7", "phone": "+20-2-3712-9814", "website": "https://eltahrirparking.example.com"}, "geometry": {"type": "Point", "coordinates": [31.251703, 30.02993]}}, {"type": "Feature", "properties": {"id": "parking_008", "name": "El Rehab Parking", "category": "Parking", "address": "134 Port Said Street", "district": "Downtown", "opening_hours": "24/7", "phone": "+20-2-4118-9991", "website": "https://elrehabparking.example.com"}, "geometry": {"type": "Point", "coordinates": [31.260259, 30.030187]}}, {"type": "Feature", "properties": {"id": "parking_009", "name": "El Karma Parking", "category": "Parking", "address": "37 El Guish Road", "district": "Industrial Zone", "opening_hours": "24/7", "phone": "+20-2-7724-1301", "website": "https://elkarmaparking.example.com"}, "geometry": {"type": "Point", "coordinates": [31.169894, 29.994691]}}, {"type": "Feature", "properties": {"id": "parking_010", "name": "El Feryal Parking", "category": "Parking", "address": "135 El Tahrir Avenue", "district": "Nasr City", "opening_hours": "24/7", "phone": "+20-2-4092-3790", "website": "https://elferyalparking.example.com"}, "geometry": {"type": "Point", "coordinates": [31.220539, 30.004513]}}, {"type": "Feature", "properties": {"id": "parking_011", "name": "Al Rahma Parking", "category": "Parking", "address": "203 El Guish Road", "district": "Downtown", "opening_hours": "24/7", "phone": "+20-2-7062-5444", "website": "https://alrahmaparking.example.com"}, "geometry": {"type": "Point", "coordinates": [31.255295, 29.989224]}}, {"type": "Feature", "properties": {"id": "parking_012", "name": "Al Basma Parking", "category": "Parking", "address": "3 El Nil Street", "district": "Downtown", "opening_hours": "24/7", "phone": "+20-2-5183-5445", "website": "https://albasmaparking.example.com"}, "geometry": {"type": "Point", "coordinates": [31.242922, 30.040458]}}, {"type": "Feature", "properties": {"id": "parking_013", "name": "El Feryal Parking 2", "category": "Parking", "address": "93 El Nasr Road", "district": "Downtown", "opening_hours": "24/7", "phone": "+20-2-2883-1312", "website": "https://elferyalparking2.example.com"}, "geometry": {"type": "Point", "coordinates": [31.24912, 29.985798]}}, {"type": "Feature", "properties": {"id": "parking_014", "name": "Al Basma Parking 2", "category": "Parking", "address": "99 Ramses Avenue", "district": "Downtown", "opening_hours": "24/7", "phone": "+20-2-5118-9331", "website": "https://albasmaparking2.example.com"}, "geometry": {"type": "Point", "coordinates": [31.23939, 29.990082]}}, {"type": "Feature", "properties": {"id": "parking_015", "name": "El Horreya Parking", "category": "Parking", "address": "81 Abbas El Akkad Street", "district": "Downtown", "opening_hours": "24/7", "phone": "+20-2-9100-9709", "website": "https://elhorreyaparking.example.com"}, "geometry": {"type": "Point", "coordinates": [31.252795, 30.010335]}}, {"type": "Feature", "properties": {"id": "parking_016", "name": "Al Rahma Parking 2", "category": "Parking", "address": "129 Abbas El Akkad Street", "district": "Downtown", "opening_hours": "24/7", "phone": "+20-2-6593-1352", "website": "https://alrahmaparking2.example.com"}, "geometry": {"type": "Point", "coordinates": [31.248699, 29.989365]}}, {"type": "Feature", "properties": {"id": "parking_017", "name": "Al Zahraa Parking", "category": "Parking", "address": "79 Salah Salem Road", "district": "Nile Riverside", "opening_hours": "24/7", "phone": "+20-2-6013-7445", "website": "https://alzahraaparking.example.com"}, "geometry": {"type": "Point", "coordinates": [31.282562, 30.009529]}}, {"type": "Feature", "properties": {"id": "parking_018", "name": "Al Noor Parking", "category": "Parking", "address": "89 Gamal Abdel Nasser Road", "district": "Nile Riverside", "opening_hours": "24/7", "phone": "+20-2-4882-6822", "website": "https://alnoorparking.example.com"}, "geometry": {"type": "Point", "coordinates": [31.26754, 30.032085]}}, {"type": "Feature", "properties": {"id": "parking_019", "name": "El Nasr Parking", "category": "Parking", "address": "129 El Ahram Street", "district": "Nile Riverside", "opening_hours": "24/7", "phone": "+20-2-8651-2015", "website": "https://elnasrparking.example.com"}, "geometry": {"type": "Point", "coordinates": [31.290619, 30.011353]}}, {"type": "Feature", "properties": {"id": "parking_020", "name": "Al Andalus Parking", "category": "Parking", "address": "209 El Tahrir Avenue", "district": "Nile Riverside", "opening_hours": "24/7", "phone": "+20-2-9734-5590", "website": "https://alandalusparking.example.com"}, "geometry": {"type": "Point", "coordinates": [31.272199, 30.032006]}}, {"type": "Feature", "properties": {"id": "parking_021", "name": "Al Waha Parking", "category": "Parking", "address": "101 Gamal Abdel Nasser Road", "district": "Nile Riverside", "opening_hours": "24/7", "phone": "+20-2-3124-2438", "website": "https://alwahaparking.example.com"}, "geometry": {"type": "Point", "coordinates": [31.284662, 30.004747]}}, {"type": "Feature", "properties": {"id": "parking_022", "name": "Al Zahraa Parking 2", "category": "Parking", "address": "174 El Thawra Street", "district": "Nile Riverside", "opening_hours": "24/7", "phone": "+20-2-9149-4726", "website": "https://alzahraaparking2.example.com"}, "geometry": {"type": "Point", "coordinates": [31.277615, 29.993782]}}, {"type": "Feature", "properties": {"id": "parking_023", "name": "Al Nozha Parking", "category": "Parking", "address": "40 El Merghany Street", "district": "New Cairo Heights", "opening_hours": "24/7", "phone": "+20-2-9950-6118", "website": "https://alnozhaparking.example.com"}, "geometry": {"type": "Point", "coordinates": [31.314385, 29.980483]}}, {"type": "Feature", "properties": {"id": "parking_024", "name": "Al Waha Parking 2", "category": "Parking", "address": "115 Makram Ebeid Street", "district": "Helwan Gardens", "opening_hours": "24/7", "phone": "+20-2-3079-4387", "website": "https://alwahaparking2.example.com"}, "geometry": {"type": "Point", "coordinates": [31.187168, 30.063425]}}, {"type": "Feature", "properties": {"id": "parking_025", "name": "Al Nozha Parking 2", "category": "Parking", "address": "139 Gamal Abdel Nasser Road", "district": "University District", "opening_hours": "24/7", "phone": "+20-2-8554-4314", "website": "https://alnozhaparking2.example.com"}, "geometry": {"type": "Point", "coordinates": [31.200902, 30.115744]}}, {"type": "Feature", "properties": {"id": "parking_026", "name": "El Shorouk Parking 2", "category": "Parking", "address": "177 El Guish Road", "district": "University District", "opening_hours": "24/7", "phone": "+20-2-9361-9582", "website": "https://elshoroukparking2.example.com"}, "geometry": {"type": "Point", "coordinates": [31.219621, 30.070494]}}, {"type": "Feature", "properties": {"id": "parking_027", "name": "El Gomhoria Parking", "category": "Parking", "address": "198 El Horreya Road", "district": "Old Town", "opening_hours": "24/7", "phone": "+20-2-7375-3589", "website": "https://elgomhoriaparking.example.com"}, "geometry": {"type": "Point", "coordinates": [31.245023, 30.103445]}}, {"type": "Feature", "properties": {"id": "parking_028", "name": "El Rehab Parking 2", "category": "Parking", "address": "137 El Guish Road", "district": "Old Town", "opening_hours": "24/7", "phone": "+20-2-2969-4016", "website": "https://elrehabparking2.example.com"}, "geometry": {"type": "Point", "coordinates": [31.25047, 30.109095]}}, {"type": "Feature", "properties": {"id": "parking_029", "name": "Al Amal Parking 2", "category": "Parking", "address": "187 El Tahrir Avenue", "district": "Old Town", "opening_hours": "24/7", "phone": "+20-2-8270-6221", "website": "https://alamalparking2.example.com"}, "geometry": {"type": "Point", "coordinates": [31.235274, 30.071574]}}, {"type": "Feature", "properties": {"id": "parking_030", "name": "El Gomhoria Parking 2", "category": "Parking", "address": "106 El Ahram Street", "district": "Zamalek Isle", "opening_hours": "24/7", "phone": "+20-2-5629-5485", "website": "https://elgomhoriaparking2.example.com"}, "geometry": {"type": "Point", "coordinates": [31.268145, 30.119742]}}, {"type": "Feature", "properties": {"id": "parking_031", "name": "Al Rahma Parking 3", "category": "Parking", "address": "28 El Horreya Road", "district": "Zamalek Isle", "opening_hours": "24/7", "phone": "+20-2-3513-1429", "website": "https://alrahmaparking3.example.com"}, "geometry": {"type": "Point", "coordinates": [31.277182, 30.0896]}}, {"type": "Feature", "properties": {"id": "parking_032", "name": "El Mostakbal Parking", "category": "Parking", "address": "158 El Ahram Street", "district": "Zamalek Isle", "opening_hours": "24/7", "phone": "+20-2-6961-4783", "website": "https://elmostakbalparking.example.com"}, "geometry": {"type": "Point", "coordinates": [31.273014, 30.106375]}}, {"type": "Feature", "properties": {"id": "parking_033", "name": "El Nasr Parking 2", "category": "Parking", "address": "176 El Tahrir Avenue", "district": "Zamalek Isle", "opening_hours": "24/7", "phone": "+20-2-4943-2302", "website": "https://elnasrparking2.example.com"}, "geometry": {"type": "Point", "coordinates": [31.269226, 30.077129]}}, {"type": "Feature", "properties": {"id": "parking_034", "name": "El Tahrir Parking 2", "category": "Parking", "address": "35 Makram Ebeid Street", "district": "Zamalek Isle", "opening_hours": "24/7", "phone": "+20-2-8931-8680", "website": "https://eltahrirparking2.example.com"}, "geometry": {"type": "Point", "coordinates": [31.267164, 30.094287]}}, {"type": "Feature", "properties": {"id": "parking_035", "name": "El Yasmin Parking 3", "category": "Parking", "address": "48 El Nasr Road", "district": "Maadi Gardens", "opening_hours": "24/7", "phone": "+20-2-5174-9051", "website": "https://elyasminparking3.example.com"}, "geometry": {"type": "Point", "coordinates": [31.301905, 30.070025]}}, {"type": "Feature", "properties": {"id": "parking_036", "name": "City Mall Parking", "category": "Parking", "address": "122 El Horreya Road", "district": "Downtown", "opening_hours": "24/7", "phone": "+20-2-3341-4166", "website": "https://citymallparking.example.com"}, "geometry": {"type": "Point", "coordinates": [31.255289, 30.022334]}}, {"type": "Feature", "properties": {"id": "parking_037", "name": "Al Waha Mall Parking", "category": "Parking", "address": "58 El Tahrir Avenue", "district": "Industrial Zone", "opening_hours": "24/7", "phone": "+20-2-5347-1245", "website": "https://alwahamallparking.example.com"}, "geometry": {"type": "Point", "coordinates": [31.165343, 30.024742]}}, {"type": "Feature", "properties": {"id": "parking_038", "name": "El Horreya Mall Parking", "category": "Parking", "address": "70 El Merghany Street", "district": "Nasr City", "opening_hours": "24/7", "phone": "+20-2-3823-4323", "website": "https://elhorreyamallparking.example.com"}, "geometry": {"type": "Point", "coordinates": [31.205597, 30.027831]}}, {"type": "Feature", "properties": {"id": "parking_039", "name": "Al Ahram Mall Parking", "category": "Parking", "address": "194 Ramses Avenue", "district": "Downtown", "opening_hours": "24/7", "phone": "+20-2-2541-3901", "website": "https://alahrammallparking.example.com"}, "geometry": {"type": "Point", "coordinates": [31.238451, 30.029607]}}, {"type": "Feature", "properties": {"id": "parking_040", "name": "Al Andalus Mall Parking", "category": "Parking", "address": "113 El Nasr Road", "district": "Downtown", "opening_hours": "24/7", "phone": "+20-2-7054-9027", "website": "https://alandalusmallparking.example.com"}, "geometry": {"type": "Point", "coordinates": [31.238462, 30.020089]}}, {"type": "Feature", "properties": {"id": "parking_041", "name": "Al Basma Mall Parking", "category": "Parking", "address": "177 Salah Salem Road", "district": "Downtown", "opening_hours": "24/7", "phone": "+20-2-9100-8496", "website": "https://albasmamallparking.example.com"}, "geometry": {"type": "Point", "coordinates": [31.257686, 29.99693]}}, {"type": "Feature", "properties": {"id": "parking_042", "name": "Al Manar Mall Parking", "category": "Parking", "address": "64 El Merghany Street", "district": "Nile Riverside", "opening_hours": "24/7", "phone": "+20-2-5316-1685", "website": "https://almanarmallparking.example.com"}, "geometry": {"type": "Point", "coordinates": [31.275259, 29.981637]}}, {"type": "Feature", "properties": {"id": "parking_043", "name": "El Yasmin Mall Parking", "category": "Parking", "address": "156 El Guish Road", "district": "Nile Riverside", "opening_hours": "24/7", "phone": "+20-2-8752-7232", "website": "https://elyasminmallparking.example.com"}, "geometry": {"type": "Point", "coordinates": [31.267691, 30.016231]}}, {"type": "Feature", "properties": {"id": "parking_044", "name": "Al Andalus Mall 2 Parking", "category": "Parking", "address": "185 Salah Salem Road", "district": "Nile Riverside", "opening_hours": "24/7", "phone": "+20-2-5228-9784", "website": "https://alandalusmall2parking.example.com"}, "geometry": {"type": "Point", "coordinates": [31.282366, 30.011054]}}, {"type": "Feature", "properties": {"id": "parking_045", "name": "El Rehab Mall Parking", "category": "Parking", "address": "135 Gamal Abdel Nasser Road", "district": "New Cairo Heights", "opening_hours": "24/7", "phone": "+20-2-9174-1630", "website": "https://elrehabmallparking.example.com"}, "geometry": {"type": "Point", "coordinates": [31.319017, 29.980062]}}, {"type": "Feature", "properties": {"id": "parking_046", "name": "El Feryal Mall Parking", "category": "Parking", "address": "134 El Nil Street", "district": "New Cairo Heights", "opening_hours": "24/7", "phone": "+20-2-5699-8485", "website": "https://elferyalmallparking.example.com"}, "geometry": {"type": "Point", "coordinates": [31.310113, 29.984213]}}, {"type": "Feature", "properties": {"id": "parking_047", "name": "El Shorouk Mall Parking", "category": "Parking", "address": "212 El Tahrir Avenue", "district": "New Cairo Heights", "opening_hours": "24/7", "phone": "+20-2-9190-5025", "website": "https://elshoroukmallparking.example.com"}, "geometry": {"type": "Point", "coordinates": [31.3193, 29.998219]}}, {"type": "Feature", "properties": {"id": "parking_048", "name": "Al Rahma Mall Parking", "category": "Parking", "address": "133 Makram Ebeid Street", "district": "Helwan Gardens", "opening_hours": "24/7", "phone": "+20-2-5240-1643", "website": "https://alrahmamallparking.example.com"}, "geometry": {"type": "Point", "coordinates": [31.182719, 30.093667]}}, {"type": "Feature", "properties": {"id": "parking_049", "name": "El Mostakbal Mall Parking", "category": "Parking", "address": "143 El Merghany Street", "district": "University District", "opening_hours": "24/7", "phone": "+20-2-6228-1807", "website": "https://elmostakbalmallparking.example.com"}, "geometry": {"type": "Point", "coordinates": [31.216205, 30.11485]}}, {"type": "Feature", "properties": {"id": "parking_050", "name": "Al Rahma Mall 2 Parking", "category": "Parking", "address": "49 El Ahram Street", "district": "University District", "opening_hours": "24/7", "phone": "+20-2-5600-7521", "website": "https://alrahmamall2parking.example.com"}, "geometry": {"type": "Point", "coordinates": [31.220246, 30.078435]}}, {"type": "Feature", "properties": {"id": "parking_051", "name": "El Shorouk Parking 3", "category": "Parking", "address": "119 El Horreya Road", "district": "Downtown", "opening_hours": "24/7", "phone": "+20-2-5460-5823", "website": "https://elshoroukparking3.example.com"}, "geometry": {"type": "Point", "coordinates": [31.255456, 30.027515]}}, {"type": "Feature", "properties": {"id": "parking_052", "name": "Al Zahraa Parking 3", "category": "Parking", "address": "37 Abbas El Akkad Street", "district": "Downtown", "opening_hours": "24/7", "phone": "+20-2-8798-8400", "website": "https://alzahraaparking3.example.com"}, "geometry": {"type": "Point", "coordinates": [31.248077, 29.981491]}}, {"type": "Feature", "properties": {"id": "parking_053", "name": "El Fardous Parking", "category": "Parking", "address": "200 El Thawra Street", "district": "Downtown", "opening_hours": "24/7", "phone": "+20-2-9682-9952", "website": "https://elfardousparking.example.com"}, "geometry": {"type": "Point", "coordinates": [31.23386, 30.010042]}}, {"type": "Feature", "properties": {"id": "parking_054", "name": "Al Ahram Parking 2", "category": "Parking", "address": "7 El Horreya Road", "district": "Downtown", "opening_hours": "24/7", "phone": "+20-2-5716-4308", "website": "https://alahramparking2.example.com"}, "geometry": {"type": "Point", "coordinates": [31.23508, 30.004468]}}, {"type": "Feature", "properties": {"id": "parking_055", "name": "Al Waha Parking 3", "category": "Parking", "address": "178 Gamal Abdel Nasser Road", "district": "Downtown", "opening_hours": "24/7", "phone": "+20-2-9431-3686", "website": "https://alwahaparking3.example.com"}, "geometry": {"type": "Point", "coordinates": [31.255405, 29.983771]}}, {"type": "Feature", "properties": {"id": "parking_056", "name": "El Horreya Parking 2", "category": "Parking", "address": "181 Abbas El Akkad Street", "district": "Downtown", "opening_hours": "24/7", "phone": "+20-2-7194-6946", "website": "https://elhorreyaparking2.example.com"}, "geometry": {"type": "Point", "coordinates": [31.25094, 29.985907]}}, {"type": "Feature", "properties": {"id": "parking_057", "name": "El Karma Parking 2", "category": "Parking", "address": "203 Makram Ebeid Street", "district": "Downtown", "opening_hours": "24/7", "phone": "+20-2-7014-3619", "website": "https://elkarmaparking2.example.com"}, "geometry": {"type": "Point", "coordinates": [31.23372, 30.023266]}}, {"type": "Feature", "properties": {"id": "parking_058", "name": "El Fardous Parking 2", "category": "Parking", "address": "86 El Thawra Street", "district": "Downtown", "opening_hours": "24/7", "phone": "+20-2-9137-3459", "website": "https://elfardousparking2.example.com"}, "geometry": {"type": "Point", "coordinates": [31.2417, 30.002359]}}, {"type": "Feature", "properties": {"id": "parking_059", "name": "Al Safwa Parking", "category": "Parking", "address": "14 El Merghany Street", "district": "Downtown", "opening_hours": "24/7", "phone": "+20-2-4523-6071", "website": "https://alsafwaparking.example.com"}, "geometry": {"type": "Point", "coordinates": [31.23581, 29.987255]}}, {"type": "Feature", "properties": {"id": "parking_060", "name": "El Shorouk Parking 4", "category": "Parking", "address": "161 El Horreya Road", "district": "Downtown", "opening_hours": "24/7", "phone": "+20-2-2963-3155", "website": "https://elshoroukparking4.example.com"}, "geometry": {"type": "Point", "coordinates": [31.25126, 30.039502]}}]}