{"type": "FeatureCollection", "features": [{"type": "Feature", "properties": {"id": "pharmacy_001", "name": "El Nasr Pharmacy", "category": "Pharmacy", "address": "38 Gamal Abdel Nasser Road", "district": "University District", "opening_hours": "09:00-24:00", "phone": "+20-2-7633-1090", "website": "https://elnasrpharmacy.example.com"}, "geometry": {"type": "Point", "coordinates": [31.210066, 30.090029]}}, {"type": "Feature", "properties": {"id": "pharmacy_002", "name": "El Horreya Pharmacy", "category": "Pharmacy", "address": "200 El Merghany Street", "district": "University District", "opening_hours": "09:00-24:00", "phone": "+20-2-3792-3881", "website": "https://elhorreyapharmacy.example.com"}, "geometry": {"type": "Point", "coordinates": [31.211892, 30.089383]}}, {"type": "Feature", "properties": {"id": "pharmacy_003", "name": "Al Safwa Pharmacy", "category": "Pharmacy", "address": "133 Abbas El Akkad Street", "district": "University District", "opening_hours": "09:00-24:00", "phone": "+20-2-2411-5082", "website": "https://alsafwapharmacy.example.com"}, "geometry": {"type": "Point", "coordinates": [31.211831, 30.087967]}}, {"type": "Feature", "properties": {"id": "pharmacy_004", "name": "El Horreya Pharmacy 2", "category": "Pharmacy", "address": "117 El Horreya Road", "district": "University District", "opening_hours": "09:00-24:00", "phone": "+20-2-8565-8612", "website": "https://elhorreyapharmacy2.example.com"}, "geometry": {"type": "Point", "coordinates": [31.213345, 30.088842]}}, {"type": "Feature", "properties": {"id": "pharmacy_005", "name": "El Rehab Pharmacy", "category": "Pharmacy", "address": "153 Salah Salem Road", "district": "University District", "opening_hours": "09:00-24:00", "phone": "+20-2-9782-8251", "website": "https://elrehabpharmacy.example.com"}, "geometry": {"type": "Point", "coordinates": [31.208584, 30.086332]}}, {"type": "Feature", "properties": {"id": "pharmacy_006", "name": "El Karma Pharmacy", "category": "Pharmacy", "address": "130 El Merghany Street", "district": "University District", "opening_hours": "09:00-24:00", "phone": "+20-2-8804-9976", "website": "https://elkarmapharmacy.example.com"}, "geometry": {"type": "Point", "coordinates": [31.207135, 30.087138]}}, {"type": "Feature", "properties": {"id": "pharmacy_007", "name": "El Fardous Pharmacy", "category": "Pharmacy", "address": "191 El Nasr Road", "district": "University District", "opening_hours": "09:00-24:00", "phone": "+20-2-5888-8373", "website": "https://elfardouspharmacy.example.com"}, "geometry": {"type": "Point", "coordinates": [31.201701, 30.092845]}}, {"type": "Feature", "properties": {"id": "pharmacy_008", "name": "El Nasr Pharmacy 2", "category": "Pharmacy", "address": "216 Gamal Abdel Nasser Road", "district": "Zamalek Isle", "opening_hours": "09:00-24:00", "phone": "+20-2-4271-9540", "website": "https://elnasrpharmacy2.example.com"}, "geometry": {"type": "Point", "coordinates": [31.262411, 30.080054]}}, {"type": "Feature", "properties": {"id": "pharmacy_009", "name": "El Nasr Pharmacy 3", "category": "Pharmacy", "address": "71 Abbas El Akkad Street", "district": "Zamalek Isle", "opening_hours": "09:00-24:00", "phone": "+20-2-2634-5681", "website": "https://elnasrpharmacy3.example.com"}, "geometry": {"type": "Point", "coordinates": [31.270293, 30.06212]}}, {"type": "Feature", "properties": {"id": "pharmacy_010", "name": "Al Waha Pharmacy", "category": "Pharmacy", "address": "82 Makram Ebeid Street", "district": "Zamalek Isle", "opening_hours": "09:00-24:00", "phone": "+20-2-2660-3267", "website": "https://alwahapharmacy.example.com"}, "geometry": {"type": "Point", "coordinates": [31.262811, 30.068459]}}, {"type": "Feature", "properties": {"id": "pharmacy_011", "name": "Al Andalus Pharmacy", "category": "Pharmacy", "address": "178 El Horreya Road", "district": "Nile Riverside", "opening_hours": "09:00-24:00", "phone": "+20-2-7786-4505", "website": "https://alandaluspharmacy.example.com"}, "geometry": {"type": "Point", "coordinates": [31.268443, 29.977537]}}, {"type": "Feature", "properties": {"id": "pharmacy_012", "name": "El Gomhoria Pharmacy", "category": "Pharmacy", "address": "85 Makram Ebeid Street", "district": "Zamalek Isle", "opening_hours": "09:00-24:00", "phone": "+20-2-5816-7812", "website": "https://elgomhoriapharmacy.example.com"}, "geometry": {"type": "Point", "coordinates": [31.266317, 30.071501]}}, {"type": "Feature", "properties": {"id": "pharmacy_013", "name": "El Gomhoria Pharmacy 2", "category": "Pharmacy", "address": "100 Port Said Street", "district": "Nile Riverside", "opening_hours": "09:00-24:00", "phone": "+20-2-6784-1320", "website": "https://elgomhoriapharmacy2.example.com"}, "geometry": {"type": "Point", "coordinates": [31.262195, 30.041492]}}, {"type": "Feature", "properties": {"id": "pharmacy_014", "name": "Al Nozha Pharmacy", "category": "Pharmacy", "address": "98 Abbas El Akkad Street", "district": "Downtown", "opening_hours": "09:00-24:00", "phone": "+20-2-2048-6763", "website": "https://alnozhapharmacy.example.com"}, "geometry": {"type": "Point", "coordinates": [31.252829, 30.02824]}}, {"type": "Feature", "properties": {"id": "pharmacy_015", "name": "Al Andalus Pharmacy 2", "category": "Pharmacy", "address": "219 El Nasr Road", "district": "Downtown", "opening_hours": "09:00-24:00", "phone": "+20-2-5432-9818", "website": "https://alandaluspharmacy2.example.com"}, "geometry": {"type": "Point", "coordinates": [31.259639, 30.030342]}}, {"type": "Feature", "properties": {"id": "pharmacy_016", "name": "El Rehab Pharmacy 2", "category": "Pharmacy", "address": "205 El Thawra Street", "district": "Industrial Zone", "opening_hours": "09:00-24:00", "phone": "+20-2-9354-4613", "website": "https://elrehabpharmacy2.example.com"}, "geometry": {"type": "Point", "coordinates": [31.170906, 29.993517]}}, {"type": "Feature", "properties": {"id": "pharmacy_017", "name": "Al Manar Pharmacy", "category": "Pharmacy", "address": "112 Abbas El Akkad Street", "district": "Nasr City", "opening_hours": "09:00-24:00", "phone": "+20-2-2237-7371", "website": "https://almanarpharmacy.example.com"}, "geometry": {"type": "Point", "coordinates": [31.220039, 30.003964]}}, {"type": "Feature", "properties": {"id": "pharmacy_018", "name": "El Feryal Pharmacy", "category": "Pharmacy", "address": "205 El Merghany Street", "district": "Downtown", "opening_hours": "09:00-24:00", "phone": "+20-2-7932-3704", "website": "https://elferyalpharmacy.example.com"}, "geometry": {"type": "Point", "coordinates": [31.25369, 29.989817]}}, {"type": "Feature", "properties": {"id": "pharmacy_019", "name": "Al Amal Pharmacy", "category": "Pharmacy", "address": "160 Makram Ebeid Street", "district": "Downtown", "opening_hours": "09:00-24:00", "phone": "+20-2-2220-7455", "website": "https://alamalpharmacy.example.com"}, "geometry": {"type": "Point", "coordinates": [31.242612, 30.039256]}}, {"type": "Feature", "properties": {"id": "pharmacy_020", "name": "El Feryal Pharmacy 2", "category": "Pharmacy", "address": "7 El Nil Street", "district": "Downtown", "opening_hours": "09:00-24:00", "phone": "+20-2-7265-8022", "website": "https://elferyalpharmacy2.example.com"}, "geometry": {"type": "Point", "coordinates": [31.248616, 29.985977]}}, {"type": "Feature", "properties": {"id": "pharmacy_021", "name": "Al Ahram Pharmacy", "category": "Pharmacy", "address": "47 El Tahrir Avenue", "district": "Downtown", "opening_hours": "09:00-24:00", "phone": "+20-2-4131-7211", "website": "https://alahrampharmacy.example.com"}, "geometry": {"type": "Point", "coordinates": [31.240483, 29.990028]}}, {"type": "Feature", "properties": {"id": "pharmacy_022", "name": "Al Ahram Pharmacy 2", "category": "Pharmacy", "address": "84 Salah Salem Road", "district": "Downtown", "opening_hours": "09:00-24:00", "phone": "+20-2-8235-7211", "website": "https://alahrampharmacy2.example.com"}, "geometry": {"type": "Point", "coordinates": [31.251188, 30.01142]}}, {"type": "Feature", "properties": {"id": "pharmacy_023", "name": "El Gomhoria Pharmacy 3", "category": "Pharmacy", "address": "65 El Nasr Road", "district": "Downtown", "opening_hours": "09:00-24:00", "phone": "+20-2-2670-8705", "website": "https://elgomhoriapharmacy3.example.com"}, "geometry": {"type": "Point", "coordinates": [31.247596, 29.989954]}}, {"type": "Feature", "properties": {"id": "pharmacy_024", "name": "El Rehab Pharmacy 3", "category": "Pharmacy", "address": "14 Salah Salem Road", "district": "Nile Riverside", "opening_hours": "09:00-24:00", "phone": "+20-2-3836-2124", "website": "https://elrehabpharmacy3.example.com"}, "geometry": {"type": "Point", "coordinates": [31.282793, 30.009438]}}, {"type": "Feature", "properties": {"id": "pharmacy_025", "name": "Al Basma Pharmacy", "category": "Pharmacy", "address": "11 Port Said Street", "district": "Nile Riverside", "opening_hours": "09:00-24:00", "phone": "+20-2-2254-5051", "website": "https://albasmapharmacy.example.com"}, "geometry": {"type": "Point", "coordinates": [31.26782, 30.031926]}}, {"type": "Feature", "properties": {"id": "pharmacy_026", "name": "Al Noor Pharmacy", "category": "Pharmacy", "address": "160 El Horreya Road", "district": "Nile Riverside", "opening_hours": "09:00-24:00", "phone": "+20-2-3954-3068", "website": "https://alnoorpharmacy.example.com"}, "geometry": {"type": "Point", "coordinates": [31.29174, 30.013013]}}, {"type": "Feature", "properties": {"id": "pharmacy_027", "name": "El Horreya Pharmacy 3", "category": "Pharmacy", "address": "145 Ramses Avenue", "district": "Nile Riverside", "opening_hours": "09:00-24:00", "phone": "+20-2-5809-5198", "website": "https://elhorreyapharmacy3.example.com"}, "geometry": {"type": "Point", "coordinates": [31.271701, 30.032822]}}, {"type": "Feature", "properties": {"id": "pharmacy_028", "name": "El Fardous Pharmacy 2", "category": "Pharmacy", "address": "156 El Thawra Street", "district": "Nile Riverside", "opening_hours": "09:00-24:00", "phone": "+20-2-9894-2876", "website": "https://elfardouspharmacy2.example.com"}, "geometry": {"type": "Point", "coordinates": [31.284635, 30.002787]}}, {"type": "Feature", "properties": {"id": "pharmacy_029", "name": "El Fardous Pharmacy 3", "category": "Pharmacy", "address": "80 El Nil Street", "district": "Nile Riverside", "opening_hours": "09:00-24:00", "phone": "+20-2-6740-1420", "website": "https://elfardouspharmacy3.example.com"}, "geometry": {"type": "Point", "coordinates": [31.277962, 29.993611]}}, {"type": "Feature", "properties": {"id": "pharmacy_030", "name": "Al Nozha Pharmacy 2", "category": "Pharmacy", "address": "174 El Merghany Street", "district": "New Cairo Heights", "opening_hours": "09:00-24:00", "phone": "+20-2-5249-4249", "website": "https://alnozhapharmacy2.example.com"}, "geometry": {"type": "Point", "coordinates": [31.316407, 29.979571]}}, {"type": "Feature", "properties": {"id": "pharmacy_031", "name": "Al Safwa Pharmacy 2", "category": "Pharmacy", "address": "213 Gamal Abdel Nasser Road", "district": "Helwan Gardens", "opening_hours": "09:00-24:00", "phone": "+20-2-3989-2669", "website": "https://alsafwapharmacy2.example.com"}, "geometry": {"type": "Point", "coordinates": [31.187399, 30.064403]}}, {"type": "Feature", "properties": {"id": "pharmacy_032", "name": "El Shorouk Pharmacy", "category": "Pharmacy", "address": "218 Gamal Abdel Nasser Road", "district": "University District", "opening_hours": "09:00-24:00", "phone": "+20-2-6918-2983", "website": "https://elshoroukpharmacy.example.com"}, "geometry": {"type": "Point", "coordinates": [31.201093, 30.11546]}}, {"type": "Feature", "properties": {"id": "pharmacy_033", "name": "Al Nozha Pharmacy 3", "category": "Pharmacy", "address": "201 El Tahrir Avenue", "district": "University District", "opening_hours": "09:00-24:00", "phone": "+20-2-4844-9728", "website": "https://alnozhapharmacy3.example.com"}, "geometry": {"type": "Point", "coordinates": [31.219303, 30.070144]}}, {"type": "Feature", "properties": {"id": "pharmacy_034", "name": "El Yasmin Pharmacy", "category": "Pharmacy", "address": "18 Makram Ebeid Street", "district": "Old Town", "opening_hours": "09:00-24:00", "phone": "+20-2-7304-6590", "website": "https://elyasminpharmacy.example.com"}, "geometry": {"type": "Point", "coordinates": [31.243026, 30.104397]}}, {"type": "Feature", "properties": {"id": "pharmacy_035", "name": "El Gomhoria Pharmacy 4", "category": "Pharmacy", "address": "211 Abbas El Akkad Street", "district": "Old Town", "opening_hours": "09:00-24:00", "phone": "+20-2-2864-8102", "website": "https://elgomhoriapharmacy4.example.com"}, "geometry": {"type": "Point", "coordinates": [31.252139, 30.108362]}}, {"type": "Feature", "properties": {"id": "pharmacy_036", "name": "Al Basma Pharmacy 2", "category": "Pharmacy", "address": "213 Abbas El Akkad Street", "district": "Old Town", "opening_hours": "09:00-24:00", "phone": "+20-2-7794-3506", "website": "https://albasmapharmacy2.example.com"}, "geometry": {"type": "Point", "coordinates": [31.23691, 30.070493]}}, {"type": "Feature", "properties": {"id": "pharmacy_037", "name": "El Karma Pharmacy 2", "category": "Pharmacy", "address": "134 Gamal Abdel Nasser Road", "district": "Zamalek Isle", "opening_hours": "09:00-24:00", "phone": "+20-2-4212-9817", "website": "https://elkarmapharmacy2.example.com"}, "geometry": {"type": "Point", "coordinates": [31.266242, 30.120781]}}, {"type": "Feature", "properties": {"id": "pharmacy_038", "name": "Al Ahram Pharmacy 3", "category": "Pharmacy", "address": "112 El Nasr Road", "district": "Zamalek Isle", "opening_hours": "09:00-24:00", "phone": "+20-2-7988-5397", "website": "https://alahrampharmacy3.example.com"}, "geometry": {"type": "Point", "coordinates": [31.276774, 30.087802]}}, {"type": "Feature", "properties": {"id": "pharmacy_039", "name": "El Nasr Pharmacy 4", "category": "Pharmacy", "address": "213 El Nil Street", "district": "Zamalek Isle", "opening_hours": "09:00-24:00", "phone": "+20-2-4284-8385", "website": "https://elnasrpharmacy4.example.com"}, "geometry": {"type": "Point", "coordinates": [31.272386, 30.10824]}}, {"type": "Feature", "properties": {"id": "pharmacy_040", "name": "Al Ahram Pharmacy 4", "category": "Pharmacy", "address": "146 El Thawra Street", "district": "Zamalek Isle", "opening_hours": "09:00-24:00", "phone": "+20-2-7473-7209", "website": "https://alahrampharmacy4.example.com"}, "geometry": {"type": "Point", "coordinates": [31.270128, 30.078717]}}, {"type": "Feature", "properties": {"id": "pharmacy_041", "name": "El Tahrir Pharmacy", "category": "Pharmacy", "address": "218 Salah Salem Road", "district": "Zamalek Isle", "opening_hours": "09:00-24:00", "phone": "+20-2-3489-8988", "website": "https://eltahrirpharmacy.example.com"}, "geometry": {"type": "Point", "coordinates": [31.266913, 30.096041]}}, {"type": "Feature", "properties": {"id": "pharmacy_042", "name": "Al Manar Pharmacy 2", "category": "Pharmacy", "address": "88 El Ahram Street", "district": "Maadi Gardens", "opening_hours": "09:00-24:00", "phone": "+20-2-9211-5526", "website": "https://almanarpharmacy2.example.com"}, "geometry": {"type": "Point", "coordinates": [31.302444, 30.071946]}}, {"type": "Feature", "properties": {"id": "pharmacy_043", "name": "Al Zahraa Pharmacy", "category": "Pharmacy", "address": "49 El Nil Street", "district": "Industrial Zone", "opening_hours": "09:00-24:00", "phone": "+20-2-3977-7658", "website": "https://alzahraapharmacy.example.com"}, "geometry": {"type": "Point", "coordinates": [31.192052, 29.979383]}}, {"type": "Feature", "properties": {"id": "pharmacy_044", "name": "El Nasr Pharmacy 5", "category": "Pharmacy", "address": "177 Abbas El Akkad Street", "district": "Nasr City", "opening_hours": "09:00-24:00", "phone": "+20-2-7291-9041", "website": "https://elnasrpharmacy5.example.com"}, "geometry": {"type": "Point", "coordinates": [31.196181, 29.982629]}}, {"type": "Feature", "properties": {"id": "pharmacy_045", "name": "Al Noor Pharmacy 2", "category": "Pharmacy", "address": "24 El Ahram Street", "district": "Nasr City", "opening_hours": "09:00-24:00", "phone": "+20-2-3815-7625", "website": "https://alnoorpharmacy2.example.com"}, "geometry": {"type": "Point", "coordinates": [31.200535, 29.985575]}}, {"type": "Feature", "properties": {"id": "pharmacy_046", "name": "El Shorouk Pharmacy 2", "category": "Pharmacy", "address": "170 El Thawra Street", "district": "Nasr City", "opening_hours": "09:00-24:00", "phone": "+20-2-5023-8753", "website": "https://elshoroukpharmacy2.example.com"}, "geometry": {"type": "Point", "coordinates": [31.206008, 29.985822]}}, {"type": "Feature", "properties": {"id": "pharmacy_047", "name": "El Yasmin Pharmacy 2", "category": "Pharmacy", "address": "109 El Guish Road", "district": "Nasr City", "opening_hours": "09:00-24:00", "phone": "+20-2-6508-6419", "website": "https://elyasminpharmacy2.example.com"}, "geometry": {"type": "Point", "coordinates": [31.209042, 29.989408]}}, {"type": "Feature", "properties": {"id": "pharmacy_048", "name": "Al Ahram Pharmacy 5", "category": "Pharmacy", "address": "70 El Ahram Street", "district": "Nasr City", "opening_hours": "09:00-24:00", "phone": "+20-2-4059-4777", "website": "https://alahrampharmacy5.example.com"}, "geometry": {"type": "Point", "coordinates": [31.214012, 29.993941]}}, {"type": "Feature", "properties": {"id": "pharmacy_049", "name": "Al Rahma Pharmacy", "category": "Pharmacy", "address": "81 El Nil Street", "district": "Nasr City", "opening_hours": "09:00-24:00", "phone": "+20-2-8085-9779", "website": "https://alrahmapharmacy.example.com"}, "geometry": {"type": "Point", "coordinates": [31.221006, 29.996235]}}, {"type": "Feature", "properties": {"id": "pharmacy_050", "name": "Al Safwa Pharmacy 3", "category": "Pharmacy", "address": "48 Ramses Avenue", "district": "Nasr City", "opening_hours": "09:00-24:00", "phone": "+20-2-3772-8933", "website": "https://alsafwapharmacy3.example.com"}, "geometry": {"type": "Point", "coordinates": [31.225726, 29.996954]}}, {"type": "Feature", "properties": {"id": "pharmacy_051", "name": "Al Nozha Pharmacy 4", "category": "Pharmacy", "address": "195 Makram Ebeid Street", "district": "Nasr City", "opening_hours": "09:00-24:00", "phone": "+20-2-6888-5636", "website": "https://alnozhapharmacy4.example.com"}, "geometry": {"type": "Point", "coordinates": [31.227656, 30.001772]}}, {"type": "Feature", "properties": {"id": "pharmacy_052", "name": "Al Rahma Pharmacy 2", "category": "Pharmacy", "address": "76 Ramses Avenue", "district": "Downtown", "opening_hours": "09:00-24:00", "phone": "+20-2-4956-3939", "website": "https://alrahmapharmacy2.example.com"}, "geometry": {"type": "Point", "coordinates": [31.234309, 30.002281]}}, {"type": "Feature", "properties": {"id": "pharmacy_053", "name": "Al Safwa Pharmacy 4", "category": "Pharmacy", "address": "137 El Horreya Road", "district": "Downtown", "opening_hours": "09:00-24:00", "phone": "+20-2-4247-1745", "website": "https://alsafwapharmacy4.example.com"}, "geometry": {"type": "Point", "coordinates": [31.235831, 30.006701]}}, {"type": "Feature", "properties": {"id": "pharmacy_054", "name": "El Rehab Pharmacy 4", "category": "Pharmacy", "address": "75 El Guish Road", "district": "Downtown", "opening_hours": "09:00-24:00", "phone": "+20-2-9733-3068", "website": "https://elrehabpharmacy4.example.com"}, "geometry": {"type": "Point", "coordinates": [31.242798, 30.007211]}}, {"type": "Feature", "properties": {"id": "pharmacy_055", "name": "El Tahrir Pharmacy 2", "category": "Pharmacy", "address": "27 El Nasr Road", "district": "Downtown", "opening_hours": "09:00-24:00", "phone": "+20-2-2100-5658", "website": "https://eltahrirpharmacy2.example.com"}, "geometry": {"type": "Point", "coordinates": [31.243656, 30.008631]}}, {"type": "Feature", "properties": {"id": "pharmacy_056", "name": "Al Ahram Pharmacy 6", "category": "Pharmacy", "address": "88 El Horreya Road", "district": "Downtown", "opening_hours": "09:00-24:00", "phone": "+20-2-9909-1841", "website": "https://alahrampharmacy6.example.com"}, "geometry": {"type": "Point", "coordinates": [31.242963, 30.010343]}}, {"type": "Feature", "properties": {"id": "pharmacy_057", "name": "El Tahrir Pharmacy 3", "category": "Pharmacy", "address": "30 El Nasr Road", "district": "Downtown", "opening_hours": "09:00-24:00", "phone": "+20-2-2535-7565", "website": "https://eltahrirpharmacy3.example.com"}, "geometry": {"type": "Point", "coordinates": [31.249218, 30.020963]}}, {"type": "Feature", "properties": {"id": "pharmacy_058", "name": "Al Nozha Pharmacy 5", "category": "Pharmacy", "address": "162 Gamal Abdel Nasser Road", "district": "Downtown", "opening_hours": "09:00-24:00", "phone": "+20-2-2439-3485", "website": "https://alnozhapharmacy5.example.com"}, "geometry": {"type": "Point", "coordinates": [31.251428, 30.028426]}}, {"type": "Feature", "properties": {"id": "pharmacy_059", "name": "Al Nozha Pharmacy 6", "category": "Pharmacy", "address": "78 El Nil Street", "district": "Downtown", "opening_hours": "09:00-24:00", "phone": "+20-2-4033-2940", "website": "https://alnozhapharmacy6.example.com"}, "geometry": {"type": "Point", "coordinates": [31.258978, 30.038948]}}, {"type": "Feature", "properties": {"id": "pharmacy_060", "name": "El Gomhoria Pharmacy 5", "category": "Pharmacy", "address": "156 El Thawra Street", "district": "Downtown", "opening_hours": "09:00-24:00", "phone": "+20-2-8477-4697", "website": "https://elgomhoriapharmacy5.example.com"}, "geometry": {"type": "Point", "coordinates": [31.260061, 30.046026]}}, {"type": "Feature", "properties": {"id": "pharmacy_061", "name": "Al Andalus Pharmacy 3", "category": "Pharmacy", "address": "116 Abbas El Akkad Street", "district": "Zamalek Isle", "opening_hours": "09:00-24:00", "phone": "+20-2-4435-8025", "website": "https://alandaluspharmacy3.example.com"}, "geometry": {"type": "Point", "coordinates": [31.266584, 30.05406]}}, {"type": "Feature", "properties": {"id": "pharmacy_062", "name": "El Mostakbal Pharmacy", "category": "Pharmacy", "address": "16 El Thawra Street", "district": "Zamalek Isle", "opening_hours": "09:00-24:00", "phone": "+20-2-9865-2625", "website": "https://elmostakbalpharmacy.example.com"}, "geometry": {"type": "Point", "coordinates": [31.269792, 30.066689]}}, {"type": "Feature", "properties": {"id": "pharmacy_063", "name": "Al Rahma Pharmacy 3", "category": "Pharmacy", "address": "161 Ramses Avenue", "district": "Zamalek Isle", "opening_hours": "09:00-24:00", "phone": "+20-2-4167-2330", "website": "https://alrahmapharmacy3.example.com"}, "geometry": {"type": "Point", "coordinates": [31.276715, 30.073586]}}, {"type": "Feature", "properties": {"id": "pharmacy_064", "name": "El Fardous Pharmacy 4", "category": "Pharmacy", "address": "142 El Nil Street", "district": "Zamalek Isle", "opening_hours": "09:00-24:00", "phone": "+20-2-3282-1043", "website": "https://elfardouspharmacy4.example.com"}, "geometry": {"type": "Point", "coordinates": [31.280145, 30.084832]}}, {"type": "Feature", "properties": {"id": "pharmacy_065", "name": "Al Safwa Pharmacy 5", "category": "Pharmacy", "address": "153 Abbas El Akkad Street", "district": "Zamalek Isle", "opening_hours": "09:00-24:00", "phone": "+20-2-4385-1534", "website": "https://alsafwapharmacy5.example.com"}, "geometry": {"type": "Point", "coordinates": [31.281507, 30.093477]}}, {"type": "Feature", "properties": {"id": "pharmacy_066", "name": "Al Safwa Pharmacy 6", "category": "Pharmacy", "address": "73 El Guish Road", "district": "Zamalek Isle", "opening_hours": "09:00-24:00", "phone": "+20-2-9041-8438", "website": "https://alsafwapharmacy6.example.com"}, "geometry": {"type": "Point", "coordinates": [31.287741, 30.103451]}}, {"type": "Feature", "properties": {"id": "pharmacy_067", "name": "El Nasr Pharmacy 6", "category": "Pharmacy", "address": "68 Port Said Street", "district": "Zamalek Isle", "opening_hours": "09:00-24:00", "phone": "+20-2-8481-4241", "website": "https://elnasrpharmacy6.example.com"}, "geometry": {"type": "Point", "coordinates": [31.293623, 30.11161]}}, {"type": "Feature", "properties": {"id": "pharmacy_068", "name": "El Gomhoria Pharmacy 6", "category": "Pharmacy", "address": "30 Makram Ebeid Street", "district": "Downtown", "opening_hours": "09:00-24:00", "phone": "+20-2-3841-3441", "website": "https://elgomhoriapharmacy6.example.com"}, "geometry": {"type": "Point", "coordinates": [31.2556, 30.022334]}}, {"type": "Feature", "properties": {"id": "pharmacy_069", "name": "El Shorouk Pharmacy 3", "category": "Pharmacy", "address": "113 El Nil Street", "district": "Industrial Zone", "opening_hours": "09:00-24:00", "phone": "+20-2-5839-5982", "website": "https://elshoroukpharmacy3.example.com"}, "geometry": {"type": "Point", "coordinates": [31.183433, 30.014208]}}, {"type": "Feature", "properties": {"id": "pharmacy_070", "name": "Al Zahraa Pharmacy 2", "category": "Pharmacy", "address": "139 Abbas El Akkad Street", "district": "Industrial Zone", "opening_hours": "09:00-24:00", "phone": "+20-2-5586-2317", "website": "https://alzahraapharmacy2.example.com"}, "geometry": {"type": "Point", "coordinates": [31.182161, 30.036915]}}, {"type": "Feature", "properties": {"id": "pharmacy_071", "name": "El Karma Pharmacy 3", "category": "Pharmacy", "address": "83 El Thawra Street", "district": "Industrial Zone", "opening_hours": "09:00-24:00", "phone": "+20-2-4051-1423", "website": "https://elkarmapharmacy3.example.com"}, "geometry": {"type": "Point", "coordinates": [31.179533, 30.033677]}}, {"type": "Feature", "properties": {"id": "pharmacy_072", "name": "Al Nozha Pharmacy 7", "category": "Pharmacy", "address": "151 El Tahrir Avenue", "district": "Industrial Zone", "opening_hours": "09:00-24:00", "phone": "+20-2-8264-5415", "website": "https://alnozhapharmacy7.example.com"}, "geometry": {"type": "Point", "coordinates": [31.16644, 30.038084]}}, {"type": "Feature", "properties": {"id": "pharmacy_073", "name": "El Fardous Pharmacy 5", "category": "Pharmacy", "address": "121 Makram Ebeid Street", "district": "Industrial Zone", "opening_hours": "09:00-24:00", "phone": "+20-2-7337-8245", "website": "https://elfardouspharmacy5.example.com"}, "geometry": {"type": "Point", "coordinates": [31.17897, 30.025997]}}, {"type": "Feature", "properties": {"id": "pharmacy_074", "name": "Al Nozha Pharmacy 8", "category": "Pharmacy", "address": "112 Gamal Abdel Nasser Road", "district": "Industrial Zone", "opening_hours": "09:00-24:00", "phone": "+20-2-8670-9056", "website": "https://alnozhapharmacy8.example.com"}, "geometry": {"type": "Point", "coordinates": [31.187751, 29.990635]}}, {"type": "Feature", "properties": {"id": "pharmacy_075", "name": "El Gomhoria Pharmacy 7", "category": "Pharmacy", "address": "86 Salah Salem Road", "district": "Nasr City", "opening_hours": "09:00-24:00", "phone": "+20-2-7489-2713", "website": "https://elgomhoriapharmacy7.example.com"}, "geometry": {"type": "Point", "coordinates": [31.22312, 30.008177]}}, {"type": "Feature", "properties": {"id": "pharmacy_076", "name": "Al Safwa Pharmacy 7", "category": "Pharmacy", "address": "127 El Ahram Street", "district": "Nasr City", "opening_hours": "09:00-24:00", "phone": "+20-2-7427-7561", "website": "https://alsafwapharmacy7.example.com"}, "geometry": {"type": "Point", "coordinates": [31.220244, 29.999652]}}, {"type": "Feature", "properties": {"id": "pharmacy_077", "name": "Al Ahram Pharmacy 7", "category": "Pharmacy", "address": "23 Salah Salem Road", "district": "Nasr City", "opening_hours": "09:00-24:00", "phone": "+20-2-4067-6296", "website": "https://alahrampharmacy7.example.com"}, "geometry": {"type": "Point", "coordinates": [31.219103, 30.013046]}}, {"type": "Feature", "properties": {"id": "pharmacy_078", "name": "Al Zahraa Pharmacy 3", "category": "Pharmacy", "address": "212 El Tahrir Avenue", "district": "Nasr City", "opening_hours": "09:00-24:00", "phone": "+20-2-7387-9889", "website": "https://alzahraapharmacy3.example.com"}, "geometry": {"type": "Point", "coordinates": [31.201075, 30.026571]}}, {"type": "Feature", "properties": {"id": "pharmacy_079", "name": "Al Zahraa Pharmacy 4", "category": "Pharmacy", "address": "93 El Thawra Street", "district": "Nasr City", "opening_hours": "09:00-24:00", "phone": "+20-2-8196-9167", "website": "https://alzahraapharmacy4.example.com"}, "geometry": {"type": "Point", "coordinates": [31.210017, 29.982896]}}, {"type": "Feature", "properties": {"id": "pharmacy_080", "name": "Al Rahma Pharmacy 4", "category": "Pharmacy", "address": "69 Makram Ebeid Street", "district": "Nasr City", "opening_hours": "09:00-24:00", "phone": "+20-2-3073-5719", "website": "https://alrahmapharmacy4.example.com"}, "geometry": {"type": "Point", "coordinates": [31.214241, 30.025807]}}, {"type": "Feature", "properties": {"id": "pharmacy_081", "name": "El Horreya Pharmacy 4", "category": "Pharmacy", "address": "8 Gamal Abdel Nasser Road", "district": "Nasr City", "opening_hours": "09:00-24:00", "phone": "+20-2-6987-4920", "website": "https://elhorreyapharmacy4.example.com"}, "geometry": {"type": "Point", "coordinates": [31.209401, 30.022054]}}, {"type": "Feature", "properties": {"id": "pharmacy_082", "name": "Al Noor Pharmacy 3", "category": "Pharmacy", "address": "142 El Merghany Street", "district": "Nasr City", "opening_hours": "09:00-24:00", "phone": "+20-2-2763-4681", "website": "https://alnoorpharmacy3.example.com"}, "geometry": {"type": "Point", "coordinates": [31.216421, 29.998494]}}, {"type": "Feature", "properties": {"id": "pharmacy_083", "name": "Al Ahram Pharmacy 8", "category": "Pharmacy", "address": "31 Gamal Abdel Nasser Road", "district": "Nasr City", "opening_hours": "09:00-24:00", "phone": "+20-2-8816-3522", "website": "https://alahrampharmacy8.example.com"}, "geometry": {"type": "Point", "coordinates": [31.22372, 30.035106]}}, {"type": "Feature", "properties": {"id": "pharmacy_084", "name": "Al Zahraa Pharmacy 5", "category": "Pharmacy", "address": "181 El Ahram Street", "district": "Nasr City", "opening_hours": "09:00-24:00", "phone": "+20-2-5403-8905", "website": "https://alzahraapharmacy5.example.com"}, "geometry": {"type": "Point", "coordinates": [31.210958, 30.023169]}}, {"type": "Feature", "properties": {"id": "pharmacy_085", "name": "El Rehab Pharmacy 5", "category": "Pharmacy", "address": "38 El Merghany Street", "district": "Nasr City", "opening_hours": "09:00-24:00", "phone": "+20-2-3561-9327", "website": "https://elrehabpharmacy5.example.com"}, "geometry": {"type": "Point", "coordinates": [31.22341, 29.994419]}}, {"type": "Feature", "properties": {"id": "pharmacy_086", "name": "Al Nahda Pharmacy", "category": "Pharmacy", "address": "71 Port Said Street", "district": "Downtown", "opening_hours": "09:00-24:00", "phone": "+20-2-8471-7798", "website": "https://alnahdapharmacy.example.com"}, "geometry": {"type": "Point", "coordinates": [31.251364, 29.9879]}}, {"type": "Feature", "properties": {"id": "pharmacy_087", "name": "Al Manar Pharmacy 3", "category": "Pharmacy", "address": "211 El Tahrir Avenue", "district": "Downtown", "opening_hours": "09:00-24:00", "phone": "+20-2-4317-5891", "website": "https://almanarpharmacy3.example.com"}, "geometry": {"type": "Point", "coordinates": [31.240862, 30.027493]}}, {"type": "Feature", "properties": {"id": "pharmacy_088", "name": "El Feryal Pharmacy 3", "category": "Pharmacy", "address": "126 El Nasr Road", "district": "Downtown", "opening_hours": "09:00-24:00", "phone": "+20-2-3217-8316", "website": "https://elferyalpharmacy3.example.com"}, "geometry": {"type": "Point", "coordinates": [31.25372, 30.014859]}}, {"type": "Feature", "properties": {"id": "pharmacy_089", "name": "El Rehab Pharmacy 6", "category": "Pharmacy", "address": "196 Makram Ebeid Street", "district": "Downtown", "opening_hours": "09:00-24:00", "phone": "+20-2-5090-8460", "website": "https://elrehabpharmacy6.example.com"}, "geometry": {"type": "Point", "coordinates": [31.245997, 30.000584]}}, {"type": "Feature", "properties": {"id": "pharmacy_090", "name": "Al Safwa Pharmacy 8", "category": "Pharmacy", "address": "62 El Thawra Street", "district": "Downtown", "opening_hours": "09:00-24:00", "phone": "+20-2-5137-4826", "website": "https://alsafwapharmacy8.example.com"}, "geometry": {"type": "Point", "coordinates": [31.256185, 30.032472]}}, {"type": "Feature", "properties": {"id": "pharmacy_091", "name": "Al Waha Pharmacy 2", "category": "Pharmacy", "address": "191 Abbas El Akkad Street", "district": "Downtown", "opening_hours": "09:00-24:00", "phone": "+20-2-7777-7246", "website": "https://alwahapharmacy2.example.com"}, "geometry": {"type": "Point", "coordinates": [31.254199, 30.004575]}}, {"type": "Feature", "properties": {"id": "pharmacy_092", "name": "Al Basma Pharmacy 3", "category": "Pharmacy", "address": "39 Abbas El Akkad Street", "district": "Downtown", "opening_hours": "09:00-24:00", "phone": "+20-2-9903-1606", "website": "https://albasmapharmacy3.example.com"}, "geometry": {"type": "Point", "coordinates": [31.242056, 30.019952]}}, {"type": "Feature", "properties": {"id": "pharmacy_093", "name": "Al Waha Pharmacy 3", "category": "Pharmacy", "address": "26 El Nasr Road", "district": "Downtown", "opening_hours": "09:00-24:00", "phone": "+20-2-8922-8213", "website": "https://alwahapharmacy3.example.com"}, "geometry": {"type": "Point", "coordinates": [31.235342, 30.038293]}}, {"type": "Feature", "properties": {"id": "pharmacy_094", "name": "Al Noor Pharmacy 4", "category": "Pharmacy", "address": "185 El Horreya Road", "district": "Downtown", "opening_hours": "09:00-24:00", "phone": "+20-2-5358-3529", "website": "https://alnoorpharmacy4.example.com"}, "geometry": {"type": "Point", "coordinates": [31.234657, 30.034955]}}, {"type": "Feature", "properties": {"id": "pharmacy_095", "name": "Al Manar Pharmacy 4", "category": "Pharmacy", "address": "87 El Thawra Street", "district": "Downtown", "opening_hours": "09:00-24:00", "phone": "+20-2-7674-7512", "website": "https://almanarpharmacy4.example.com"}, "geometry": {"type": "Point", "coordinates": [31.234014, 30.027117]}}, {"type": "Feature", "properties": {"id": "pharmacy_096", "name": "El Feryal Pharmacy 4", "category": "Pharmacy", "address": "220 Makram Ebeid Street", "district": "Downtown", "opening_hours": "09:00-24:00", "phone": "+20-2-5113-6188", "website": "https://elferyalpharmacy4.example.com"}, "geometry": {"type": "Point", "coordinates": [31.248872, 30.031387]}}, {"type": "Feature", "properties": {"id": "pharmacy_097", "name": "El Tahrir Pharmacy 4", "category": "Pharmacy", "address": "139 El Tahrir Avenue", "district": "Downtown", "opening_hours": "09:00-24:00", "phone": "+20-2-7058-2121", "website": "https://eltahrirpharmacy4.example.com"}, "geometry": {"type": "Point", "coordinates": [31.248276, 30.033556]}}, {"type": "Feature", "properties": {"id": "pharmacy_098", "name": "El Shorouk Pharmacy 4", "category": "Pharmacy", "address": "59 El Guish Road", "district": "Nile Riverside", "opening_hours": "09:00-24:00", "phone": "+20-2-2740-8110", "website": "https://elshoroukpharmacy4.example.com"}, "geometry": {"type": "Point", "coordinates": [31.272146, 30.021211]}}, {"type": "Feature", "properties": {"id": "pharmacy_099", "name": "Al Safwa Pharmacy 9", "category": "Pharmacy", "address": "26 Abbas El Akkad Street", "district": "Nile Riverside", "opening_hours": "09:00-24:00", "phone": "+20-2-3362-5906", "website": "https://alsafwapharmacy9.example.com"}, "geometry": {"type": "Point", "coordinates": [31.29136, 30.02583]}}, {"type": "Feature", "properties": {"id": "pharmacy_100", "name": "El Salam Pharmacy", "category": "Pharmacy", "address": "76 Salah Salem Road", "district": "Nile Riverside", "opening_hours": "09:00-24:00", "phone": "+20-2-5070-8056", "website": "https://elsalampharmacy.example.com"}, "geometry": {"type": "Point", "coordinates": [31.289424, 29.982396]}}, {"type": "Feature", "properties": {"id": "pharmacy_101", "name": "Al Nozha Pharmacy 9", "category": "Pharmacy", "address": "175 Port Said Street", "district": "Nile Riverside", "opening_hours": "09:00-24:00", "phone": "+20-2-3475-3785", "website": "https://alnozhapharmacy9.example.com"}, "geometry": {"type": "Point", "coordinates": [31.269842, 30.011895]}}, {"type": "Feature", "properties": {"id": "pharmacy_102", "name": "Al Andalus Pharmacy 4", "category": "Pharmacy", "address": "159 Gamal Abdel Nasser Road", "district": "Nile Riverside", "opening_hours": "09:00-24:00", "phone": "+20-2-3972-9153", "website": "https://alandaluspharmacy4.example.com"}, "geometry": {"type": "Point", "coordinates": [31.270604, 30.016657]}}, {"type": "Feature", "properties": {"id": "pharmacy_103", "name": "Al Ahram Pharmacy 9", "category": "Pharmacy", "address": "164 El Ahram Street", "district": "New Cairo Heights", "opening_hours": "09:00-24:00", "phone": "+20-2-5764-5183", "website": "https://alahrampharmacy9.example.com"}, "geometry": {"type": "Point", "coordinates": [31.323668, 29.988302]}}, {"type": "Feature", "properties": {"id": "pharmacy_104", "name": "Al Ahram Pharmacy 10", "category": "Pharmacy", "address": "74 Gamal Abdel Nasser Road", "district": "New Cairo Heights", "opening_hours": "09:00-24:00", "phone": "+20-2-6477-3588", "website": "https://alahrampharmacy10.example.com"}, "geometry": {"type": "Point", "coordinates": [31.317311, 30.034254]}}, {"type": "Feature", "properties": {"id": "pharmacy_105", "name": "Al Nozha Pharmacy 10", "category": "Pharmacy", "address": "77 Gamal Abdel Nasser Road", "district": "New Cairo Heights", "opening_hours": "09:00-24:00", "phone": "+20-2-9880-7951", "website": "https://alnozhapharmacy10.example.com"}, "geometry": {"type": "Point", "coordinates": [31.301989, 30.03707]}}, {"type": "Feature", "properties": {"id": "pharmacy_106", "name": "El Shorouk Pharmacy 5", "category": "Pharmacy", "address": "51 El Merghany Street", "district": "New Cairo Heights", "opening_hours": "09:00-24:00", "phone": "+20-2-8990-8916", "website": "https://elshoroukpharmacy5.example.com"}, "geometry": {"type": "Point", "coordinates": [31.317918, 30.007376]}}, {"type": "Feature", "properties": {"id": "pharmacy_107", "name": "El Yasmin Pharmacy 3", "category": "Pharmacy", "address": "148 El Ahram Street", "district": "New Cairo Heights", "opening_hours": "09:00-24:00", "phone": "+20-2-7728-5837", "website": "https://elyasminpharmacy3.example.com"}, "geometry": {"type": "Point", "coordinates": [31.302836, 30.002787]}}, {"type": "Feature", "properties": {"id": "pharmacy_108", "name": "Al Andalus Pharmacy 5", "category": "Pharmacy", "address": "71 El Tahrir Avenue", "district": "New Cairo Heights", "opening_hours": "09:00-24:00", "phone": "+20-2-6636-1803", "website": "https://alandaluspharmacy5.example.com"}, "geometry": {"type": "Point", "coordinates": [31.300647, 30.030066]}}, {"type": "Feature", "properties": {"id": "pharmacy_109", "name": "El Shorouk Pharmacy 6", "category": "Pharmacy", "address": "199 Port Said Street", "district": "New Cairo Heights", "opening_hours": "09:00-24:00", "phone": "+20-2-3885-6772", "website": "https://elshoroukpharmacy6.example.com"}, "geometry": {"type": "Point", "coordinates": [31.32361, 30.024906]}}, {"type": "Feature", "properties": {"id": "pharmacy_110", "name": "Al Manar Pharmacy 5", "category": "Pharmacy", "address": "174 Port Said Street", "district": "New Cairo Heights", "opening_hours": "09:00-24:00", "phone": "+20-2-7905-3240", "website": "https://almanarpharmacy5.example.com"}, "geometry": {"type": "Point", "coordinates": [31.305739, 29.99116]}}, {"type": "Feature", "properties": {"id": "pharmacy_111", "name": "Al Basma Pharmacy 4", "category": "Pharmacy", "address": "11 El Ahram Street", "district": "New Cairo Heights", "opening_hours": "09:00-24:00", "phone": "+20-2-8460-8222", "website": "https://albasmapharmacy4.example.com"}, "geometry": {"type": "Point", "coordinates": [31.316314, 30.034527]}}, {"type": "Feature", "properties": {"id": "pharmacy_112", "name": "Al Amal Pharmacy 2", "category": "Pharmacy", "address": "24 El Ahram Street", "district": "New Cairo Heights", "opening_hours": "09:00-24:00", "phone": "+20-2-4676-7807", "website": "https://alamalpharmacy2.example.com"}, "geometry": {"type": "Point", "coordinates": [31.300942, 30.001784]}}, {"type": "Feature", "properties": {"id": "pharmacy_113", "name": "El Rehab Pharmacy 7", "category": "Pharmacy", "address": "94 Makram Ebeid Street", "district": "New Cairo Heights", "opening_hours": "09:00-24:00", "phone": "+20-2-6110-5465", "website": "https://elrehabpharmacy7.example.com"}, "geometry": {"type": "Point", "coordinates": [31.304619, 29.987635]}}, {"type": "Feature", "properties": {"id": "pharmacy_114", "name": "El Tahrir Pharmacy 5", "category": "Pharmacy", "address": "207 El Ahram Street", "district": "New Cairo Heights", "opening_hours": "09:00-24:00", "phone": "+20-2-8115-6549", "website": "https://eltahrirpharmacy5.example.com"}, "geometry": {"type": "Point", "coordinates": [31.321539, 29.995224]}}, {"type": "Feature", "properties": {"id": "pharmacy_115", "name": "Al Nahda Pharmacy 2", "category": "Pharmacy", "address": "37 Port Said Street", "district": "Helwan Gardens", "opening_hours": "09:00-24:00", "phone": "+20-2-9917-4696", "website": "https://alnahdapharmacy2.example.com"}, "geometry": {"type": "Point", "coordinates": [31.184861, 30.088075]}}, {"type": "Feature", "properties": {"id": "pharmacy_116", "name": "Al Andalus Pharmacy 6", "category": "Pharmacy", "address": "217 Port Said Street", "district": "Helwan Gardens", "opening_hours": "09:00-24:00", "phone": "+20-2-6565-6992", "website": "https://alandaluspharmacy6.example.com"}, "geometry": {"type": "Point", "coordinates": [31.186306, 30.103632]}}, {"type": "Feature", "properties": {"id": "pharmacy_117", "name": "Al Manar Pharmacy 6", "category": "Pharmacy", "address": "138 El Nil Street", "district": "Helwan Gardens", "opening_hours": "09:00-24:00", "phone": "+20-2-5725-7038", "website": "https://almanarpharmacy6.example.com"}, "geometry": {"type": "Point", "coordinates": [31.166413, 30.08359]}}, {"type": "Feature", "properties": {"id": "pharmacy_118", "name": "Al Nozha Pharmacy 11", "category": "Pharmacy", "address": "98 El Nasr Road", "district": "Helwan Gardens", "opening_hours": "09:00-24:00", "phone": "+20-2-7230-7086", "website": "https://alnozhapharmacy11.example.com"}, "geometry": {"type": "Point", "coordinates": [31.181466, 30.100478]}}, {"type": "Feature", "properties": {"id": "pharmacy_119", "name": "Al Noor Pharmacy 5", "category": "Pharmacy", "address": "159 Makram Ebeid Street", "district": "Helwan Gardens", "opening_hours": "09:00-24:00", "phone": "+20-2-4687-4626", "website": "https://alnoorpharmacy5.example.com"}, "geometry": {"type": "Point", "coordinates": [31.16688, 30.073816]}}, {"type": "Feature", "properties": {"id": "pharmacy_120", "name": "Al Ahram Pharmacy 11", "category": "Pharmacy", "address": "180 El Ahram Street", "district": "Helwan Gardens", "opening_hours": "09:00-24:00", "phone": "+20-2-7318-7689", "website": "https://alahrampharmacy11.example.com"}, "geometry": {"type": "Point", "coordinates": [31.180815, 30.098233]}}, {"type": "Feature", "properties": {"id": "pharmacy_121", "name": "El Salam Pharmacy 2", "category": "Pharmacy", "address": "78 Abbas El Akkad Street", "district": "Helwan Gardens", "opening_hours": "09:00-24:00", "phone": "+20-2-2951-2592", "website": "https://elsalampharmacy2.example.com"}, "geometry": {"type": "Point", "coordinates": [31.167095, 30.062357]}}, {"type": "Feature", "properties": {"id": "pharmacy_122", "name": "Al Andalus Pharmacy 7", "category": "Pharmacy", "address": "117 Salah Salem Road", "district": "Helwan Gardens", "opening_hours": "09:00-24:00", "phone": "+20-2-7492-9850", "website": "https://alandaluspharmacy7.example.com"}, "geometry": {"type": "Point", "coordinates": [31.170147, 30.092283]}}, {"type": "Feature", "properties": {"id": "pharmacy_123", "name": "Al Amal Pharmacy 3", "category": "Pharmacy", "address": "107 Gamal Abdel Nasser Road", "district": "Helwan Gardens", "opening_hours": "09:00-24:00", "phone": "+20-2-2811-9017", "website": "https://alamalpharmacy3.example.com"}, "geometry": {"type": "Point", "coordinates": [31.17491, 30.10473]}}, {"type": "Feature", "properties": {"id": "pharmacy_124", "name": "Al Manar Pharmacy 7", "category": "Pharmacy", "address": "9 El Guish Road", "district": "Helwan Gardens", "opening_hours": "09:00-24:00", "phone": "+20-2-5035-4559", "website": "https://almanarpharmacy7.example.com"}, "geometry": {"type": "Point", "coordinates": [31.179988, 30.116694]}}, {"type": "Feature", "properties": {"id": "pharmacy_125", "name": "El Yasmin Pharmacy 4", "category": "Pharmacy", "address": "26 Gamal Abdel Nasser Road", "district": "University District", "opening_hours": "09:00-24:00", "phone": "+20-2-5009-9920", "website": "https://elyasminpharmacy4.example.com"}, "geometry": {"type": "Point", "coordinates": [31.209537, 30.117394]}}, {"type": "Feature", "properties": {"id": "pharmacy_126", "name": "El Salam Pharmacy 3", "category": "Pharmacy", "address": "102 El Ahram Street", "district": "University District", "opening_hours": "09:00-24:00", "phone": "+20-2-3554-3001", "website": "https://elsalampharmacy3.example.com"}, "geometry": {"type": "Point", "coordinates": [31.22138, 30.098805]}}, {"type": "Feature", "properties": {"id": "pharmacy_127", "name": "Al Nahda Pharmacy 3", "category": "Pharmacy", "address": "170 Ramses Avenue", "district": "University District", "opening_hours": "09:00-24:00", "phone": "+20-2-7256-1349", "website": "https://alnahdapharmacy3.example.com"}, "geometry": {"type": "Point", "coordinates": [31.222602, 30.109711]}}, {"type": "Feature", "properties": {"id": "pharmacy_128", "name": "Al Amal Pharmacy 4", "category": "Pharmacy", "address": "202 El Thawra Street", "district": "University District", "opening_hours": "09:00-24:00", "phone": "+20-2-3681-2124", "website": "https://alamalpharmacy4.example.com"}, "geometry": {"type": "Point", "coordinates": [31.199387, 30.079877]}}, {"type": "Feature", "properties": {"id": "pharmacy_129", "name": "Al Nozha Pharmacy 12", "category": "Pharmacy", "address": "56 El Nasr Road", "district": "University District", "opening_hours": "09:00-24:00", "phone": "+20-2-9124-4817", "website": "https://alnozhapharmacy12.example.com"}, "geometry": {"type": "Point", "coordinates": [31.219522, 30.093296]}}, {"type": "Feature", "properties": {"id": "pharmacy_130", "name": "El Mostakbal Pharmacy 2", "category": "Pharmacy", "address": "1 El Ahram Street", "district": "Old Town", "opening_hours": "09:00-24:00", "phone": "+20-2-9032-3370", "website": "https://elmostakbalpharmacy2.example.com"}, "geometry": {"type": "Point", "coordinates": [31.24057, 30.068571]}}, {"type": "Feature", "properties": {"id": "pharmacy_131", "name": "El Fardous Pharmacy 6", "category": "Pharmacy", "address": "29 Gamal Abdel Nasser Road", "district": "Old Town", "opening_hours": "09:00-24:00", "phone": "+20-2-9097-1422", "website": "https://elfardouspharmacy6.example.com"}, "geometry": {"type": "Point", "coordinates": [31.257598, 30.092445]}}, {"type": "Feature", "properties": {"id": "pharmacy_132", "name": "El Nasr Pharmacy 7", "category": "Pharmacy", "address": "151 Salah Salem Road", "district": "Old Town", "opening_hours": "09:00-24:00", "phone": "+20-2-2129-3854", "website": "https://elnasrpharmacy7.example.com"}, "geometry": {"type": "Point", "coordinates": [31.235486, 30.081381]}}, {"type": "Feature", "properties": {"id": "pharmacy_133", "name": "El Gomhoria Pharmacy 8", "category": "Pharmacy", "address": "135 El Nil Street", "district": "Old Town", "opening_hours": "09:00-24:00", "phone": "+20-2-8108-2041", "website": "https://elgomhoriapharmacy8.example.com"}, "geometry": {"type": "Point", "coordinates": [31.238937, 30.067307]}}, {"type": "Feature", "properties": {"id": "pharmacy_134", "name": "Al Zahraa Pharmacy 6", "category": "Pharmacy", "address": "152 El Nil Street", "district": "Old Town", "opening_hours": "09:00-24:00", "phone": "+20-2-5702-9254", "website": "https://alzahraapharmacy6.example.com"}, "geometry": {"type": "Point", "coordinates": [31.244386, 30.106903]}}, {"type": "Feature", "properties": {"id": "pharmacy_135", "name": "El Karma Pharmacy 4", "category": "Pharmacy", "address": "201 El Nasr Road", "district": "Zamalek Isle", "opening_hours": "09:00-24:00", "phone": "+20-2-7397-9543", "website": "https://elkarmapharmacy4.example.com"}, "geometry": {"type": "Point", "coordinates": [31.271805, 30.096998]}}, {"type": "Feature", "properties": {"id": "pharmacy_136", "name": "Al Noor Pharmacy 6", "category": "Pharmacy", "address": "16 Abbas El Akkad Street", "district": "Zamalek Isle", "opening_hours": "09:00-24:00", "phone": "+20-2-8941-7580", "website": "https://alnoorpharmacy6.example.com"}, "geometry": {"type": "Point", "coordinates": [31.273874, 30.098715]}}, {"type": "Feature", "properties": {"id": "pharmacy_137", "name": "Al Safwa Pharmacy 10", "category": "Pharmacy", "address": "114 El Nil Street", "district": "Zamalek Isle", "opening_hours": "09:00-24:00", "phone": "+20-2-9366-2323", "website": "https://alsafwapharmacy10.example.com"}, "geometry": {"type": "Point", "coordinates": [31.277095, 30.066164]}}, {"type": "Feature", "properties": {"id": "pharmacy_138", "name": "Al Amal Pharmacy 5", "category": "Pharmacy", "address": "71 El Thawra Street", "district": "Zamalek Isle", "opening_hours": "09:00-24:00", "phone": "+20-2-7186-9984", "website": "https://alamalpharmacy5.example.com"}, "geometry": {"type": "Point", "coordinates": [31.274403, 30.068619]}}, {"type": "Feature", "properties": {"id": "pharmacy_139", "name": "El Mostakbal Pharmacy 3", "category": "Pharmacy", "address": "136 El Ahram Street", "district": "Zamalek Isle", "opening_hours": "09:00-24:00", "phone": "+20-2-5716-9282", "website": "https://elmostakbalpharmacy3.example.com"}, "geometry": {"type": "Point", "coordinates": [31.284482, 30.082759]}}, {"type": "Feature", "properties": {"id": "pharmacy_140", "name": "Al Safwa Pharmacy 11", "category": "Pharmacy", "address": "30 El Nasr Road", "district": "Maadi Gardens", "opening_hours": "09:00-24:00", "phone": "+20-2-7363-4522", "website": "https://alsafwapharmacy11.example.com"}, "geometry": {"type": "Point", "coordinates": [31.315724, 30.06563]}}, {"type": "Feature", "properties": {"id": "pharmacy_141", "name": "El Gomhoria Pharmacy 9", "category": "Pharmacy", "address": "87 El Nasr Road", "district": "Maadi Gardens", "opening_hours": "09:00-24:00", "phone": "+20-2-5715-7532", "website": "https://elgomhoriapharmacy9.example.com"}, "geometry": {"type": "Point", "coordinates": [31.311193, 30.113596]}}, {"type": "Feature", "properties": {"id": "pharmacy_142", "name": "El Gomhoria Pharmacy 10", "category": "Pharmacy", "address": "81 Gamal Abdel Nasser Road", "district": "Maadi Gardens", "opening_hours": "09:00-24:00", "phone": "+20-2-4088-7132", "website": "https://elgomhoriapharmacy10.example.com"}, "geometry": {"type": "Point", "coordinates": [31.310829, 30.065381]}}, {"type": "Feature", "properties": {"id": "pharmacy_143", "name": "El Tahrir Pharmacy 6", "category": "Pharmacy", "address": "18 El Nil Street", "district": "Maadi Gardens", "opening_hours": "09:00-24:00", "phone": "+20-2-8813-2398", "website": "https://eltahrirpharmacy6.example.com"}, "geometry": {"type": "Point", "coordinates": [31.324721, 30.101359]}}, {"type": "Feature", "properties": {"id": "pharmacy_144", "name": "El Karma Pharmacy 5", "category": "Pharmacy", "address": "96 Port Said Street", "district": "Maadi Gardens", "opening_hours": "09:00-24:00", "phone": "+20-2-3065-1982", "website": "https://elkarmapharmacy5.example.com"}, "geometry": {"type": "Point", "coordinates": [31.302489, 30.065471]}}, {"type": "Feature", "properties": {"id": "pharmacy_145", "name": "Al Waha Pharmacy 4", "category": "Pharmacy", "address": "172 El Nil Street", "district": "Maadi Gardens", "opening_hours": "09:00-24:00", "phone": "+20-2-5365-6793", "website": "https://alwahapharmacy4.example.com"}, "geometry": {"type": "Point", "coordinates": [31.315234, 30.093744]}}, {"type": "Feature", "properties": {"id": "pharmacy_146", "name": "El Gomhoria Pharmacy 11", "category": "Pharmacy", "address": "185 El Tahrir Avenue", "district": "Maadi Gardens", "opening_hours": "09:00-24:00", "phone": "+20-2-9933-5712", "website": "https://elgomhoriapharmacy11.example.com"}, "geometry": {"type": "Point", "coordinates": [31.322654, 30.116821]}}, {"type": "Feature", "properties": {"id": "pharmacy_147", "name": "Al Nozha Pharmacy 13", "category": "Pharmacy", "address": "130 Ramses Avenue", "district": "Maadi Gardens", "opening_hours": "09:00-24:00", "phone": "+20-2-3267-8900", "website": "https://alnozhapharmacy13.example.com"}, "geometry": {"type": "Point", "coordinates": [31.315595, 30.08098]}}, {"type": "Feature", "properties": {"id": "pharmacy_148", "name": "El Rehab Pharmacy 8", "category": "Pharmacy", "address": "95 El Nil Street", "district": "Maadi Gardens", "opening_hours": "09:00-24:00", "phone": "+20-2-8247-5564", "website": "https://elrehabpharmacy8.example.com"}, "geometry": {"type": "Point", "coordinates": [31.305874, 30.06618]}}, {"type": "Feature", "properties": {"id": "pharmacy_149", "name": "El Rehab Pharmacy 9", "category": "Pharmacy", "address": "197 El Nasr Road", "district": "Maadi Gardens", "opening_hours": "09:00-24:00", "phone": "+20-2-7093-1430", "website": "https://elrehabpharmacy9.example.com"}, "geometry": {"type": "Point", "coordinates": [31.314915, 30.108679]}}, {"type": "Feature", "properties": {"id": "pharmacy_150", "name": "Al Safwa Pharmacy 12", "category": "Pharmacy", "address": "69 El Tahrir Avenue", "district": "Maadi Gardens", "opening_hours": "09:00-24:00", "phone": "+20-2-3477-5477", "website": "https://alsafwapharmacy12.example.com"}, "geometry": {"type": "Point", "coordinates": [31.315816, 30.099596]}}]}