{"type": "FeatureCollection", "features": [{"type": "Feature", "properties": {"id": "police_001", "name": "Industrial Zone Police Station", "category": "Police Station", "address": "48 El Horreya Road", "district": "Industrial Zone", "opening_hours": "24/7", "phone": "+20-2-4967-2938", "website": "https://industrialzonepolicestation.example.com"}, "geometry": {"type": "Point", "coordinates": [31.180707, 29.99246]}}, {"type": "Feature", "properties": {"id": "police_002", "name": "Industrial Zone Police Station 2", "category": "Police Station", "address": "85 El Guish Road", "district": "Industrial Zone", "opening_hours": "24/7", "phone": "+20-2-2928-8889", "website": "https://industrialzonepolicestation2.example.com"}, "geometry": {"type": "Point", "coordinates": [31.181163, 30.004809]}}, {"type": "Feature", "properties": {"id": "police_003", "name": "Nasr City Police Station", "category": "Police Station", "address": "152 El Horreya Road", "district": "Nasr City", "opening_hours": "24/7", "phone": "+20-2-7302-7732", "website": "https://nasrcitypolicestation.example.com"}, "geometry": {"type": "Point", "coordinates": [31.215528, 30.008724]}}, {"type": "Feature", "properties": {"id": "police_004", "name": "Nasr City Police Station 2", "category": "Police Station", "address": "147 El Thawra Street", "district": "Nasr City", "opening_hours": "24/7", "phone": "+20-2-3319-3207", "website": "https://nasrcitypolicestation2.example.com"}, "geometry": {"type": "Point", "coordinates": [31.19866, 29.982223]}}, {"type": "Feature", "properties": {"id": "police_005", "name": "Nasr City Police Station 3", "category": "Police Station", "address": "147 El Horreya Road", "district": "Nasr City", "opening_hours": "24/7", "phone": "+20-2-2458-3725", "website": "https://nasrcitypolicestation3.example.com"}, "geometry": {"type": "Point", "coordinates": [31.214347, 29.981983]}}, {"type": "Feature", "properties": {"id": "police_006", "name": "Downtown Police Station", "category": "Police Station", "address": "104 El Thawra Street", "district": "Downtown", "opening_hours": "24/7", "phone": "+20-2-9940-1305", "website": "https://downtownpolicestation.example.com"}, "geometry": {"type": "Point", "coordinates": [31.238753, 29.990546]}}, {"type": "Feature", "properties": {"id": "police_007", "name": "Downtown Police Station 2", "category": "Police Station", "address": "211 El Ahram Street", "district": "Downtown", "opening_hours": "24/7", "phone": "+20-2-9759-2404", "website": "https://downtownpolicestation2.example.com"}, "geometry": {"type": "Point", "coordinates": [31.254781, 30.023861]}}, {"type": "Feature", "properties": {"id": "police_008", "name": "Downtown Police Station 3", "category": "Police Station", "address": "121 El Nasr Road", "district": "Downtown", "opening_hours": "24/7", "phone": "+20-2-5945-3794", "website": "https://downtownpolicestation3.example.com"}, "geometry": {"type": "Point", "coordinates": [31.237677, 30.016477]}}, {"type": "Feature", "properties": {"id": "police_009", "name": "Nile Riverside Police Station", "category": "Police Station", "address": "37 Port Said Street", "district": "Nile Riverside", "opening_hours": "24/7", "phone": "+20-2-6773-3979", "website": "https://nileriversidepolicestation.example.com"}, "geometry": {"type": "Point", "coordinates": [31.271748, 30.004575]}}, {"type": "Feature", "properties": {"id": "police_010", "name": "Nile Riverside Police Station 2", "category": "Police Station", "address": "43 El Guish Road", "district": "Nile Riverside", "opening_hours": "24/7", "phone": "+20-2-7616-6614", "website": "https://nileriversidepolicestation2.example.com"}, "geometry": {"type": "Point", "coordinates": [31.282184, 30.010657]}}, {"type": "Feature", "properties": {"id": "police_011", "name": "Nile Riverside Police Station 3", "category": "Police Station", "address": "18 Ramses Avenue", "district": "Nile Riverside", "opening_hours": "24/7", "phone": "+20-2-5098-7315", "website": "https://nileriversidepolicestation3.example.com"}, "geometry": {"type": "Point", "coordinates": [31.289914, 30.015869]}}, {"type": "Feature", "properties": {"id": "police_012", "name": "New Cairo Heights Police Station", "category": "Police Station", "address": "134 El Nasr Road", "district": "New Cairo Heights", "opening_hours": "24/7", "phone": "+20-2-9449-9263", "website": "https://newcairoheightspolicestation.example.com"}, "geometry": {"type": "Point", "coordinates": [31.303496, 29.980607]}}, {"type": "Feature", "properties": {"id": "police_013", "name": "New Cairo Heights Police Station 2", "category": "Police Station", "address": "156 El Nil Street", "district": "New Cairo Heights", "opening_hours": "24/7", "phone": "+20-2-3453-8796", "website": "https://newcairoheightspolicestation2.example.com"}, "geometry": {"type": "Point", "coordinates": [31.317764, 30.029852]}}, {"type": "Feature", "properties": {"id": "police_014", "name": "Helwan Gardens Police Station", "category": "Police Station", "address": "201 Makram Ebeid Street", "district": "Helwan Gardens", "opening_hours": "24/7", "phone": "+20-2-6123-2925", "website": "https://helwangardenspolicestation.example.com"}, "geometry": {"type": "Point", "coordinates": [31.187378, 30.096069]}}, {"type": "Feature", "properties": {"id": "police_015", "name": "Helwan Gardens Police Station 2", "category": "Police Station", "address": "155 Makram Ebeid Street", "district": "Helwan Gardens", "opening_hours": "24/7", "phone": "+20-2-8779-1019", "website": "https://helwangardenspolicestation2.example.com"}, "geometry": {"type": "Point", "coordinates": [31.166488, 30.099691]}}, {"type": "Feature", "properties": {"id": "police_016", "name": "University District Police Station", "category": "Police Station", "address": "167 El Merghany Street", "district": "University District", "opening_hours": "24/7", "phone": "+20-2-6276-7892", "website": "https://universitydistrictpolicestation.example.com"}, "geometry": {"type": "Point", "coordinates": [31.221258, 30.106712]}}, {"type": "Feature", "properties": {"id": "police_017", "name": "University District Police Station 2", "category": "Police Station", "address": "136 El Merghany Street", "district": "University District", "opening_hours": "24/7", "phone": "+20-2-3879-8899", "website": "https://universitydistrictpolicestation2.example.com"}, "geometry": {"type": "Point", "coordinates": [31.207651, 30.062241]}}, {"type": "Feature", "properties": {"id": "police_018", "name": "Old Town Police Station", "category": "Police Station", "address": "151 Port Said Street", "district": "Old Town", "opening_hours": "24/7", "phone": "+20-2-8073-2600", "website": "https://oldtownpolicestation.example.com"}, "geometry": {"type": "Point", "coordinates": [31.252482, 30.082779]}}, {"type": "Feature", "properties": {"id": "police_019", "name": "Old Town Police Station 2", "category": "Police Station", "address": "197 Ramses Avenue", "district": "Old Town", "opening_hours": "24/7", "phone": "+20-2-9455-2373", "website": "https://oldtownpolicestation2.example.com"}, "geometry": {"type": "Point", "coordinates": [31.243075, 30.075075]}}, {"type": "Feature", "properties": {"id": "police_020", "name": "Old Town Police Station 3", "category": "Police Station", "address": "105 El Ahram Street", "district": "Old Town", "opening_hours": "24/7", "phone": "+20-2-3548-1089", "website": "https://oldtownpolicestation3.example.com"}, "geometry": {"type": "Point", "coordinates": [31.2394, 30.112907]}}, {"type": "Feature", "properties": {"id": "police_021", "name": "Zamalek Isle Police Station", "category": "Police Station", "address": "148 Makram Ebeid Street", "district": "Zamalek Isle", "opening_hours": "24/7", "phone": "+20-2-2965-9515", "website": "https://zamalekislepolicestation.example.com"}, "geometry": {"type": "Point", "coordinates": [31.284404, 30.107597]}}, {"type": "Feature", "properties": {"id": "police_022", "name": "Zamalek Isle Police Station 2", "category": "Police Station", "address": "177 Port Said Street", "district": "Zamalek Isle", "opening_hours": "24/7", "phone": "+20-2-4587-7698", "website": "https://zamalekislepolicestation2.example.com"}, "geometry": {"type": "Point", "coordinates": [31.266266, 30.099396]}}, {"type": "Feature", "properties": {"id": "police_023", "name": "Zamalek Isle Police Station 3", "category": "Police Station", "address": "167 El Thawra Street", "district": "Zamalek Isle", "opening_hours": "24/7", "phone": "+20-2-4077-5281", "website": "https://zamalekislepolicestation3.example.com"}, "geometry": {"type": "Point", "coordinates": [31.275441, 30.069011]}}, {"type": "Feature", "properties": {"id": "police_024", "name": "Maadi Gardens Police Station", "category": "Police Station", "address": "94 El Thawra Street", "district": "Maadi Gardens", "opening_hours": "24/7", "phone": "+20-2-4257-7511", "website": "https://maadigardenspolicestation.example.com"}, "geometry": {"type": "Point", "coordinates": [31.322173, 30.085353]}}, {"type": "Feature", "properties": {"id": "police_025", "name": "Maadi Gardens Police Station 2", "category": "Police Station", "address": "201 Makram Ebeid Street", "district": "Maadi Gardens", "opening_hours": "24/7", "phone": "+20-2-5952-3928", "website": "https://maadigardenspolicestation2.example.com"}, "geometry": {"type": "Point", "coordinates": [31.319588, 30.084724]}}]}