{"type": "FeatureCollection", "features": [{"type": "Feature", "properties": {"id": "river_001", "name": "Nile River", "category": "River", "address": "", "district": "Nile Riverside", "opening_hours": "", "phone": "", "website": ""}, "geometry": {"type": "LineString", "coordinates": [[31.262, 29.965], [31.263963168180776, 29.969358974358975], [31.26571021881842, 29.973717948717947], [31.267048825908848, 29.978076923076923], [31.26783162740818, 29.9824358974359], [31.267972447746512, 29.98679487179487], [31.267455784560955, 29.991153846153846], [31.266338515290432, 29.99551282051282], [31.264743635759814, 29.999871794871794], [31.26284672004836, 30.00423076923077], [31.260856592222748, 30.00858974358974], [31.25899233770847, 30.012948717948717], [31.257459185028154, 30.017307692307693], [31.256425912992377, 30.021666666666665], [31.256006270497412, 30.02602564102564], [31.25624645435202, 30.030384615384616], [31.257120023650597, 30.034743589743588], [31.258530810549534, 30.039102564102564], [31.260323507010806, 30.04346153846154], [31.262300762059294, 30.04782051282051], [31.26424490738343, 30.052179487179487], [31.265941919592315, 30.05653846153846], [31.267204981217713, 30.060897435897434], [31.267895046721918, 30.06525641025641], [31.26793614947974, 30.069615384615382], [31.26732376464857, 30.073974358974358], [31.26612530729068, 30.078333333333333], [31.264472710911452, 30.082692307692305], [31.262547903413328, 30.08705128205128], [31.26056277936122, 30.091410256410256], [31.258735873334665, 30.09576923076923], [31.25726830230666, 30.100128205128204], [31.256321625458973, 30.10448717948718], [31.256000058760698, 30.10884615384615], [31.256339002237908, 30.113205128205127], [31.257301142922582, 30.1175641025641], [31.258780562492, 30.121923076923075], [31.260614397404595, 30.12628205128205], [31.26260076791328, 30.130641025641022], [31.26452100222096, 30.134999999999998]]}}]}