{"type": "FeatureCollection", "features": [{"type": "Feature", "properties": {"id": "road_001", "name": "El Tahrir Avenue", "category": "Road", "address": "", "district": "Downtown", "opening_hours": "", "phone": "", "website": "", "road_type": "major"}, "geometry": {"type": "LineString", "coordinates": [[31.16, 29.97], [31.18125, 29.97], [31.2025, 29.97], [31.22375, 29.97], [31.245, 29.97], [31.26625, 29.97], [31.2875, 29.97], [31.30875, 29.97], [31.33, 29.97]]}}, {"type": "Feature", "properties": {"id": "road_002", "name": "El Nil Street", "category": "Road", "address": "", "district": "Downtown", "opening_hours": "", "phone": "", "website": "", "road_type": "major"}, "geometry": {"type": "LineString", "coordinates": [[31.16, 30.01], [31.18125, 30.01], [31.2025, 30.01], [31.22375, 30.01], [31.245, 30.01], [31.26625, 30.01], [31.2875, 30.01], [31.30875, 30.01], [31.33, 30.01]]}}, {"type": "Feature", "properties": {"id": "road_003", "name": "El Horreya Road", "category": "Road", "address": "", "district": "Downtown", "opening_hours": "", "phone": "", "website": "", "road_type": "major"}, "geometry": {"type": "LineString", "coordinates": [[31.16, 30.05], [31.18125, 30.05], [31.2025, 30.05], [31.22375, 30.05], [31.245, 30.05], [31.26625, 30.05], [31.2875, 30.05], [31.30875, 30.05], [31.33, 30.05]]}}, {"type": "Feature", "properties": {"id": "road_004", "name": "Ramses Avenue", "category": "Road", "address": "", "district": "Old Town", "opening_hours": "", "phone": "", "website": "", "road_type": "major"}, "geometry": {"type": "LineString", "coordinates": [[31.16, 30.09], [31.18125, 30.09], [31.2025, 30.09], [31.22375, 30.09], [31.245, 30.09], [31.26625, 30.09], [31.2875, 30.09], [31.30875, 30.09], [31.33, 30.09]]}}, {"type": "Feature", "properties": {"id": "road_005", "name": "El Ahram Street", "category": "Road", "address": "", "district": "Old Town", "opening_hours": "", "phone": "", "website": "", "road_type": "major"}, "geometry": {"type": "LineString", "coordinates": [[31.16, 30.13], [31.18125, 30.13], [31.2025, 30.13], [31.22375, 30.13], [31.245, 30.13], [31.26625, 30.13], [31.2875, 30.13], [31.30875, 30.13], [31.33, 30.13]]}}, {"type": "Feature", "properties": {"id": "road_006", "name": "Salah Salem Road Axis", "category": "Road", "address": "", "district": "Industrial Zone", "opening_hours": "", "phone": "", "website": "", "road_type": "secondary"}, "geometry": {"type": "LineString", "coordinates": [[31.16, 29.97], [31.16, 30.01], [31.16, 30.05], [31.16, 30.09], [31.16, 30.13]]}}, {"type": "Feature", "properties": {"id": "road_007", "name": "El Merghany Street Axis", "category": "Road", "address": "", "district": "Industrial Zone", "opening_hours": "", "phone": "", "website": "", "road_type": "secondary"}, "geometry": {"type": "LineString", "coordinates": [[31.18125, 29.97], [31.18125, 30.01], [31.18125, 30.05], [31.18125, 30.09], [31.18125, 30.13]]}}, {"type": "Feature", "properties": {"id": "road_008", "name": "Abbas El Akkad Street Axis", "category": "Road", "address": "", "district": "Nasr City", "opening_hours": "", "phone": "", "website": "", "road_type": "major"}, "geometry": {"type": "LineString", "coordinates": [[31.2025, 29.97], [31.2025, 30.01], [31.2025, 30.05], [31.2025, 30.09], [31.2025, 30.13]]}}, {"type": "Feature", "properties": {"id": "road_009", "name": "Makram Ebeid Street Axis", "category": "Road", "address": "", "district": "Nasr City", "opening_hours": "", "phone": "", "website": "", "road_type": "secondary"}, "geometry": {"type": "LineString", "coordinates": [[31.22375, 29.97], [31.22375, 30.01], [31.22375, 30.05], [31.22375, 30.09], [31.22375, 30.13]]}}, {"type": "Feature", "properties": {"id": "road_010", "name": "El Thawra Street Axis", "category": "Road", "address": "", "district": "Downtown", "opening_hours": "", "phone": "", "website": "", "road_type": "major"}, "geometry": {"type": "LineString", "coordinates": [[31.245, 29.97], [31.245, 30.01], [31.245, 30.05], [31.245, 30.09], [31.245, 30.13]]}}, {"type": "Feature", "properties": {"id": "road_011", "name": "Gamal Abdel Nasser Road Axis", "category": "Road", "address": "", "district": "Nile Riverside", "opening_hours": "", "phone": "", "website": "", "road_type": "secondary"}, "geometry": {"type": "LineString", "coordinates": [[31.26625, 29.97], [31.26625, 30.01], [31.26625, 30.05], [31.26625, 30.09], [31.26625, 30.13]]}}, {"type": "Feature", "properties": {"id": "road_012", "name": "El Guish Road Axis", "category": "Road", "address": "", "district": "Nile Riverside", "opening_hours": "", "phone": "", "website": "", "road_type": "major"}, "geometry": {"type": "LineString", "coordinates": [[31.2875, 29.97], [31.2875, 30.01], [31.2875, 30.05], [31.2875, 30.09], [31.2875, 30.13]]}}, {"type": "Feature", "properties": {"id": "road_013", "name": "Port Said Street Axis", "category": "Road", "address": "", "district": "New Cairo Heights", "opening_hours": "", "phone": "", "website": "", "road_type": "secondary"}, "geometry": {"type": "LineString", "coordinates": [[31.30875, 29.97], [31.30875, 30.01], [31.30875, 30.05], [31.30875, 30.09], [31.30875, 30.13]]}}, {"type": "Feature", "properties": {"id": "road_014", "name": "El Nasr Road Axis", "category": "Road", "address": "", "district": "New Cairo Heights", "opening_hours": "", "phone": "", "website": "", "road_type": "secondary"}, "geometry": {"type": "LineString", "coordinates": [[31.33, 29.97], [31.33, 30.01], [31.33, 30.05], [31.33, 30.09], [31.33, 30.13]]}}, {"type": "Feature", "properties": {"id": "road_015", "name": "Ring Road", "category": "Road", "address": "", "district": "Maadi Gardens", "opening_hours": "", "phone": "", "website": "", "road_type": "major"}, "geometry": {"type": "LineString", "coordinates": [[31.17, 29.98], [31.32, 29.98], [31.32, 30.12], [31.17, 30.12], [31.17, 29.98]]}}]}