{"type": "FeatureCollection", "features": [{"type": "Feature", "properties": {"id": "school_001", "name": "Downtown School", "category": "School", "address": "87 Salah Salem Road", "district": "Downtown", "opening_hours": "07:30-14:30", "phone": "+20-2-2050-3972", "website": "https://downtownschool.example.com"}, "geometry": {"type": "Point", "coordinates": [31.249135, 30.000831]}}, {"type": "Feature", "properties": {"id": "school_002", "name": "Al Amal Language School", "category": "School", "address": "190 Gamal Abdel Nasser Road", "district": "Nile Riverside", "opening_hours": "07:30-14:30", "phone": "+20-2-9961-1502", "website": "https://alamallanguageschool.example.com"}, "geometry": {"type": "Point", "coordinates": [31.26381, 30.002983]}}, {"type": "Feature", "properties": {"id": "school_003", "name": "El Gomhoria Language School", "category": "School", "address": "117 Salah Salem Road", "district": "Nile Riverside", "opening_hours": "07:30-14:30", "phone": "+20-2-3289-7062", "website": "https://elgomhorialanguageschool.example.com"}, "geometry": {"type": "Point", "coordinates": [31.271546, 29.983212]}}, {"type": "Feature", "properties": {"id": "school_004", "name": "Al Nozha Language School", "category": "School", "address": "153 El Nil Street", "district": "Zamalek Isle", "opening_hours": "07:30-14:30", "phone": "+20-2-9236-1861", "website": "https://alnozhalanguageschool.example.com"}, "geometry": {"type": "Point", "coordinates": [31.26552, 30.051302]}}, {"type": "Feature", "properties": {"id": "school_005", "name": "El Feryal Language School", "category": "School", "address": "21 El Ahram Street", "district": "Downtown", "opening_hours": "07:30-14:30", "phone": "+20-2-5629-7947", "website": "https://elferyallanguageschool.example.com"}, "geometry": {"type": "Point", "coordinates": [31.257871, 30.005713]}}, {"type": "Feature", "properties": {"id": "school_006", "name": "Al Rahma Language School", "category": "School", "address": "194 Makram Ebeid Street", "district": "Old Town", "opening_hours": "07:30-14:30", "phone": "+20-2-2932-6655", "website": "https://alrahmalanguageschool.example.com"}, "geometry": {"type": "Point", "coordinates": [31.258825, 30.099049]}}, {"type": "Feature", "properties": {"id": "school_007", "name": "Al Nozha Language School 2", "category": "School", "address": "125 Makram Ebeid Street", "district": "Old Town", "opening_hours": "07:30-14:30", "phone": "+20-2-7465-6053", "website": "https://alnozhalanguageschool2.example.com"}, "geometry": {"type": "Point", "coordinates": [31.258817, 30.084934]}}, {"type": "Feature", "properties": {"id": "school_008", "name": "El Salam Language School", "category": "School", "address": "2 Ramses Avenue", "district": "Downtown", "opening_hours": "07:30-14:30", "phone": "+20-2-4469-4460", "website": "https://elsalamlanguageschool.example.com"}, "geometry": {"type": "Point", "coordinates": [31.261653, 29.979811]}}, {"type": "Feature", "properties": {"id": "school_009", "name": "El Horreya Language School", "category": "School", "address": "2 Abbas El Akkad Street", "district": "Nile Riverside", "opening_hours": "07:30-14:30", "phone": "+20-2-8119-8055", "website": "https://elhorreyalanguageschool.example.com"}, "geometry": {"type": "Point", "coordinates": [31.26858, 29.997224]}}, {"type": "Feature", "properties": {"id": "school_010", "name": "El Nasr Language School", "category": "School", "address": "129 Makram Ebeid Street", "district": "Downtown", "opening_hours": "07:30-14:30", "phone": "+20-2-8826-6802", "website": "https://elnasrlanguageschool.example.com"}, "geometry": {"type": "Point", "coordinates": [31.253607, 30.013358]}}, {"type": "Feature", "properties": {"id": "school_011", "name": "El Gomhoria Language School 2", "category": "School", "address": "5 Abbas El Akkad Street", "district": "Nile Riverside", "opening_hours": "07:30-14:30", "phone": "+20-2-9546-2275", "website": "https://elgomhorialanguageschool2.example.com"}, "geometry": {"type": "Point", "coordinates": [31.266337, 29.98548]}}, {"type": "Feature", "properties": {"id": "school_012", "name": "Al Safwa Language School", "category": "School", "address": "164 El Merghany Street", "district": "Zamalek Isle", "opening_hours": "07:30-14:30", "phone": "+20-2-4371-2887", "website": "https://alsafwalanguageschool.example.com"}, "geometry": {"type": "Point", "coordinates": [31.265346, 30.053103]}}, {"type": "Feature", "properties": {"id": "school_013", "name": "El Mostakbal Language School", "category": "School", "address": "118 El Nasr Road", "district": "Old Town", "opening_hours": "07:30-14:30", "phone": "+20-2-7649-6928", "website": "https://elmostakballanguageschool.example.com"}, "geometry": {"type": "Point", "coordinates": [31.26036, 30.071771]}}, {"type": "Feature", "properties": {"id": "school_014", "name": "El Gomhoria Language School 3", "category": "School", "address": "151 El Merghany Street", "district": "Nile Riverside", "opening_hours": "07:30-14:30", "phone": "+20-2-6292-2288", "website": "https://elgomhorialanguageschool3.example.com"}, "geometry": {"type": "Point", "coordinates": [31.267054, 29.981838]}}, {"type": "Feature", "properties": {"id": "school_015", "name": "El Nasr Language School 2", "category": "School", "address": "86 Port Said Street", "district": "Zamalek Isle", "opening_hours": "07:30-14:30", "phone": "+20-2-3377-2251", "website": "https://elnasrlanguageschool2.example.com"}, "geometry": {"type": "Point", "coordinates": [31.272709, 30.077066]}}, {"type": "Feature", "properties": {"id": "school_016", "name": "El Yasmin International School", "category": "School", "address": "187 El Nasr Road", "district": "Industrial Zone", "opening_hours": "07:30-14:30", "phone": "+20-2-7287-3419", "website": "https://elyasmininternationalschool.example.com"}, "geometry": {"type": "Point", "coordinates": [31.177257, 30.03468]}}, {"type": "Feature", "properties": {"id": "school_017", "name": "Al Rahma Primary School", "category": "School", "address": "155 El Horreya Road", "district": "Industrial Zone", "opening_hours": "07:30-14:30", "phone": "+20-2-8227-2234", "website": "https://alrahmaprimaryschool.example.com"}, "geometry": {"type": "Point", "coordinates": [31.170185, 29.988504]}}, {"type": "Feature", "properties": {"id": "school_018", "name": "El Tahrir Secondary School", "category": "School", "address": "194 El Thawra Street", "district": "Industrial Zone", "opening_hours": "07:30-14:30", "phone": "+20-2-8224-8354", "website": "https://eltahrirsecondaryschool.example.com"}, "geometry": {"type": "Point", "coordinates": [31.168657, 30.026589]}}, {"type": "Feature", "properties": {"id": "school_019", "name": "Al Basma International School", "category": "School", "address": "161 Salah Salem Road", "district": "Industrial Zone", "opening_hours": "07:30-14:30", "phone": "+20-2-3236-8205", "website": "https://albasmainternationalschool.example.com"}, "geometry": {"type": "Point", "coordinates": [31.18168, 30.033229]}}, {"type": "Feature", "properties": {"id": "school_020", "name": "El Shorouk International School", "category": "School", "address": "152 El Tahrir Avenue", "district": "Industrial Zone", "opening_hours": "07:30-14:30", "phone": "+20-2-4883-9312", "website": "https://elshoroukinternationalschool.example.com"}, "geometry": {"type": "Point", "coordinates": [31.165845, 30.006486]}}, {"type": "Feature", "properties": {"id": "school_021", "name": "El Salam Language School 2", "category": "School", "address": "95 El Nasr Road", "district": "Industrial Zone", "opening_hours": "07:30-14:30", "phone": "+20-2-4351-2257", "website": "https://elsalamlanguageschool2.example.com"}, "geometry": {"type": "Point", "coordinates": [31.165997, 30.007674]}}, {"type": "Feature", "properties": {"id": "school_022", "name": "Al Nahda Secondary School", "category": "School", "address": "119 El Thawra Street", "district": "Industrial Zone", "opening_hours": "07:30-14:30", "phone": "+20-2-6540-1672", "website": "https://alnahdasecondaryschool.example.com"}, "geometry": {"type": "Point", "coordinates": [31.180738, 30.039024]}}, {"type": "Feature", "properties": {"id": "school_023", "name": "Al Basma Primary School", "category": "School", "address": "83 El Thawra Street", "district": "Nasr City", "opening_hours": "07:30-14:30", "phone": "+20-2-5896-9214", "website": "https://albasmaprimaryschool.example.com"}, "geometry": {"type": "Point", "coordinates": [31.209701, 30.028837]}}, {"type": "Feature", "properties": {"id": "school_024", "name": "El Horreya International School", "category": "School", "address": "183 El Nil Street", "district": "Nasr City", "opening_hours": "07:30-14:30", "phone": "+20-2-6133-3827", "website": "https://elhorreyainternationalschool.example.com"}, "geometry": {"type": "Point", "coordinates": [31.201978, 29.983362]}}, {"type": "Feature", "properties": {"id": "school_025", "name": "Al Ahram Primary School", "category": "School", "address": "94 Salah Salem Road", "district": "Nasr City", "opening_hours": "07:30-14:30", "phone": "+20-2-9519-5634", "website": "https://alahramprimaryschool.example.com"}, "geometry": {"type": "Point", "coordinates": [31.199091, 30.022623]}}, {"type": "Feature", "properties": {"id": "school_026", "name": "El Feryal Language School 2", "category": "School", "address": "203 Gamal Abdel Nasser Road", "district": "Nasr City", "opening_hours": "07:30-14:30", "phone": "+20-2-7302-6482", "website": "https://elferyallanguageschool2.example.com"}, "geometry": {"type": "Point", "coordinates": [31.208091, 30.026687]}}, {"type": "Feature", "properties": {"id": "school_027", "name": "El Feryal Secondary School", "category": "School", "address": "73 El Ahram Street", "district": "Nasr City", "opening_hours": "07:30-14:30", "phone": "+20-2-7928-3463", "website": "https://elferyalsecondaryschool.example.com"}, "geometry": {"type": "Point", "coordinates": [31.199783, 29.985346]}}, {"type": "Feature", "properties": {"id": "school_028", "name": "Al Amal International School", "category": "School", "address": "80 Gamal Abdel Nasser Road", "district": "Nasr City", "opening_hours": "07:30-14:30", "phone": "+20-2-7721-7421", "website": "https://alamalinternationalschool.example.com"}, "geometry": {"type": "Point", "coordinates": [31.206694, 30.015031]}}, {"type": "Feature", "properties": {"id": "school_029", "name": "Al Nahda International School", "category": "School", "address": "144 El Merghany Street", "district": "Nasr City", "opening_hours": "07:30-14:30", "phone": "+20-2-7271-6381", "website": "https://alnahdainternationalschool.example.com"}, "geometry": {"type": "Point", "coordinates": [31.201412, 30.022697]}}, {"type": "Feature", "properties": {"id": "school_030", "name": "El Karma Language School", "category": "School", "address": "166 Gamal Abdel Nasser Road", "district": "Nasr City", "opening_hours": "07:30-14:30", "phone": "+20-2-5468-9331", "website": "https://elkarmalanguageschool.example.com"}, "geometry": {"type": "Point", "coordinates": [31.219093, 30.020343]}}, {"type": "Feature", "properties": {"id": "school_031", "name": "El Fardous Primary School", "category": "School", "address": "88 Port Said Street", "district": "Nasr City", "opening_hours": "07:30-14:30", "phone": "+20-2-5983-4145", "website": "https://elfardousprimaryschool.example.com"}, "geometry": {"type": "Point", "coordinates": [31.20743, 30.001646]}}, {"type": "Feature", "properties": {"id": "school_032", "name": "Al Nahda International School 2", "category": "School", "address": "217 Port Said Street", "district": "Nasr City", "opening_hours": "07:30-14:30", "phone": "+20-2-2828-9317", "website": "https://alnahdainternationalschool2.example.com"}, "geometry": {"type": "Point", "coordinates": [31.203934, 29.987964]}}, {"type": "Feature", "properties": {"id": "school_033", "name": "Al Zahraa Language School", "category": "School", "address": "170 Salah Salem Road", "district": "Nasr City", "opening_hours": "07:30-14:30", "phone": "+20-2-9179-3147", "website": "https://alzahraalanguageschool.example.com"}, "geometry": {"type": "Point", "coordinates": [31.217999, 30.030375]}}, {"type": "Feature", "properties": {"id": "school_034", "name": "El Fardous Primary School 2", "category": "School", "address": "185 Abbas El Akkad Street", "district": "Nasr City", "opening_hours": "07:30-14:30", "phone": "+20-2-2357-7731", "website": "https://elfardousprimaryschool2.example.com"}, "geometry": {"type": "Point", "coordinates": [31.213513, 29.988979]}}, {"type": "Feature", "properties": {"id": "school_035", "name": "Al Ahram International School", "category": "School", "address": "193 El Guish Road", "district": "Nasr City", "opening_hours": "07:30-14:30", "phone": "+20-2-8420-8355", "website": "https://alahraminternationalschool.example.com"}, "geometry": {"type": "Point", "coordinates": [31.207493, 30.023351]}}, {"type": "Feature", "properties": {"id": "school_036", "name": "El Tahrir Primary School", "category": "School", "address": "95 Gamal Abdel Nasser Road", "district": "Nasr City", "opening_hours": "07:30-14:30", "phone": "+20-2-9758-8218", "website": "https://eltahrirprimaryschool.example.com"}, "geometry": {"type": "Point", "coordinates": [31.204127, 29.994141]}}, {"type": "Feature", "properties": {"id": "school_037", "name": "Al Andalus Secondary School", "category": "School", "address": "42 El Nasr Road", "district": "Nasr City", "opening_hours": "07:30-14:30", "phone": "+20-2-3635-3267", "website": "https://alandalussecondaryschool.example.com"}, "geometry": {"type": "Point", "coordinates": [31.21001, 29.996732]}}, {"type": "Feature", "properties": {"id": "school_038", "name": "El Tahrir International School", "category": "School", "address": "142 El Nil Street", "district": "Nasr City", "opening_hours": "07:30-14:30", "phone": "+20-2-7827-9452", "website": "https://eltahririnternationalschool.example.com"}, "geometry": {"type": "Point", "coordinates": [31.220638, 29.982773]}}, {"type": "Feature", "properties": {"id": "school_039", "name": "El Fardous International School", "category": "School", "address": "116 Makram Ebeid Street", "district": "Downtown", "opening_hours": "07:30-14:30", "phone": "+20-2-3207-8167", "website": "https://elfardousinternationalschool.example.com"}, "geometry": {"type": "Point", "coordinates": [31.254074, 29.996932]}}, {"type": "Feature", "properties": {"id": "school_040", "name": "Al Ahram International School 2", "category": "School", "address": "7 El Merghany Street", "district": "Downtown", "opening_hours": "07:30-14:30", "phone": "+20-2-2436-7495", "website": "https://alahraminternationalschool2.example.com"}, "geometry": {"type": "Point", "coordinates": [31.23445, 30.034959]}}, {"type": "Feature", "properties": {"id": "school_041", "name": "Al Nahda International School 3", "category": "School", "address": "58 El Tahrir Avenue", "district": "Downtown", "opening_hours": "07:30-14:30", "phone": "+20-2-4610-2623", "website": "https://alnahdainternationalschool3.example.com"}, "geometry": {"type": "Point", "coordinates": [31.245052, 29.993935]}}, {"type": "Feature", "properties": {"id": "school_042", "name": "Al Amal Primary School", "category": "School", "address": "10 El Ahram Street", "district": "Downtown", "opening_hours": "07:30-14:30", "phone": "+20-2-9515-8740", "website": "https://alamalprimaryschool.example.com"}, "geometry": {"type": "Point", "coordinates": [31.253764, 30.019118]}}, {"type": "Feature", "properties": {"id": "school_043", "name": "Al Safwa Secondary School", "category": "School", "address": "115 El Thawra Street", "district": "Downtown", "opening_hours": "07:30-14:30", "phone": "+20-2-2043-2298", "website": "https://alsafwasecondaryschool.example.com"}, "geometry": {"type": "Point", "coordinates": [31.250067, 29.988039]}}, {"type": "Feature", "properties": {"id": "school_044", "name": "Al Amal Secondary School", "category": "School", "address": "29 Port Said Street", "district": "Downtown", "opening_hours": "07:30-14:30", "phone": "+20-2-4360-4893", "website": "https://alamalsecondaryschool.example.com"}, "geometry": {"type": "Point", "coordinates": [31.232571, 29.992712]}}, {"type": "Feature", "properties": {"id": "school_045", "name": "El Gomhoria Secondary School", "category": "School", "address": "17 El Nil Street", "district": "Downtown", "opening_hours": "07:30-14:30", "phone": "+20-2-8854-9189", "website": "https://elgomhoriasecondaryschool.example.com"}, "geometry": {"type": "Point", "coordinates": [31.239862, 29.982503]}}, {"type": "Feature", "properties": {"id": "school_046", "name": "Al Zahraa Primary School", "category": "School", "address": "184 El Horreya Road", "district": "Nile Riverside", "opening_hours": "07:30-14:30", "phone": "+20-2-4386-8032", "website": "https://alzahraaprimaryschool.example.com"}, "geometry": {"type": "Point", "coordinates": [31.2815, 29.980599]}}, {"type": "Feature", "properties": {"id": "school_047", "name": "Al Nozha Secondary School", "category": "School", "address": "48 Gamal Abdel Nasser Road", "district": "Nile Riverside", "opening_hours": "07:30-14:30", "phone": "+20-2-7474-2402", "website": "https://alnozhasecondaryschool.example.com"}, "geometry": {"type": "Point", "coordinates": [31.26612, 30.001051]}}, {"type": "Feature", "properties": {"id": "school_048", "name": "Al Zahraa Language School 2", "category": "School", "address": "100 El Nasr Road", "district": "Nile Riverside", "opening_hours": "07:30-14:30", "phone": "+20-2-5851-1713", "website": "https://alzahraalanguageschool2.example.com"}, "geometry": {"type": "Point", "coordinates": [31.279607, 30.001525]}}, {"type": "Feature", "properties": {"id": "school_049", "name": "Al Manar Language School", "category": "School", "address": "92 Port Said Street", "district": "Nile Riverside", "opening_hours": "07:30-14:30", "phone": "+20-2-2553-6649", "website": "https://almanarlanguageschool.example.com"}, "geometry": {"type": "Point", "coordinates": [31.282506, 30.039247]}}, {"type": "Feature", "properties": {"id": "school_050", "name": "El Horreya International School 2", "category": "School", "address": "35 El Tahrir Avenue", "district": "Nile Riverside", "opening_hours": "07:30-14:30", "phone": "+20-2-4886-9945", "website": "https://elhorreyainternationalschool2.example.com"}, "geometry": {"type": "Point", "coordinates": [31.272311, 30.019552]}}, {"type": "Feature", "properties": {"id": "school_051", "name": "El Feryal Secondary School 2", "category": "School", "address": "179 Abbas El Akkad Street", "district": "Nile Riverside", "opening_hours": "07:30-14:30", "phone": "+20-2-7175-3986", "website": "https://elferyalsecondaryschool2.example.com"}, "geometry": {"type": "Point", "coordinates": [31.274828, 30.018682]}}, {"type": "Feature", "properties": {"id": "school_052", "name": "Al Ahram Language School", "category": "School", "address": "76 Ramses Avenue", "district": "Nile Riverside", "opening_hours": "07:30-14:30", "phone": "+20-2-2358-4268", "website": "https://alahramlanguageschool.example.com"}, "geometry": {"type": "Point", "coordinates": [31.287049, 29.983437]}}, {"type": "Feature", "properties": {"id": "school_053", "name": "El Shorouk Secondary School", "category": "School", "address": "209 Makram Ebeid Street", "district": "New Cairo Heights", "opening_hours": "07:30-14:30", "phone": "+20-2-5878-5150", "website": "https://elshorouksecondaryschool.example.com"}, "geometry": {"type": "Point", "coordinates": [31.322969, 29.998788]}}, {"type": "Feature", "properties": {"id": "school_054", "name": "El Shorouk International School 2", "category": "School", "address": "200 El Tahrir Avenue", "district": "New Cairo Heights", "opening_hours": "07:30-14:30", "phone": "+20-2-9092-6438", "website": "https://elshoroukinternationalschool2.example.com"}, "geometry": {"type": "Point", "coordinates": [31.301026, 30.018932]}}, {"type": "Feature", "properties": {"id": "school_055", "name": "El Gomhoria Secondary School 2", "category": "School", "address": "191 Abbas El Akkad Street", "district": "New Cairo Heights", "opening_hours": "07:30-14:30", "phone": "+20-2-9328-7334", "website": "https://elgomhoriasecondaryschool2.example.com"}, "geometry": {"type": "Point", "coordinates": [31.30714, 30.0282]}}, {"type": "Feature", "properties": {"id": "school_056", "name": "Al Safwa Secondary School 2", "category": "School", "address": "95 Port Said Street", "district": "New Cairo Heights", "opening_hours": "07:30-14:30", "phone": "+20-2-6253-5369", "website": "https://alsafwasecondaryschool2.example.com"}, "geometry": {"type": "Point", "coordinates": [31.308841, 29.990958]}}, {"type": "Feature", "properties": {"id": "school_057", "name": "Al Nahda Secondary School 2", "category": "School", "address": "155 El Nasr Road", "district": "New Cairo Heights", "opening_hours": "07:30-14:30", "phone": "+20-2-3478-9937", "website": "https://alnahdasecondaryschool2.example.com"}, "geometry": {"type": "Point", "coordinates": [31.320782, 30.023807]}}, {"type": "Feature", "properties": {"id": "school_058", "name": "Al Waha International School", "category": "School", "address": "79 Abbas El Akkad Street", "district": "New Cairo Heights", "opening_hours": "07:30-14:30", "phone": "+20-2-6936-7981", "website": "https://alwahainternationalschool.example.com"}, "geometry": {"type": "Point", "coordinates": [31.307671, 29.985838]}}, {"type": "Feature", "properties": {"id": "school_059", "name": "Al Ahram Language School 2", "category": "School", "address": "187 El Nasr Road", "district": "New Cairo Heights", "opening_hours": "07:30-14:30", "phone": "+20-2-9467-6776", "website": "https://alahramlanguageschool2.example.com"}, "geometry": {"type": "Point", "coordinates": [31.304386, 30.00659]}}, {"type": "Feature", "properties": {"id": "school_060", "name": "Al Basma Language School", "category": "School", "address": "20 Gamal Abdel Nasser Road", "district": "New Cairo Heights", "opening_hours": "07:30-14:30", "phone": "+20-2-7222-7655", "website": "https://albasmalanguageschool.example.com"}, "geometry": {"type": "Point", "coordinates": [31.315968, 30.006044]}}, {"type": "Feature", "properties": {"id": "school_061", "name": "El Feryal Primary School", "category": "School", "address": "8 El Horreya Road", "district": "New Cairo Heights", "opening_hours": "07:30-14:30", "phone": "+20-2-8952-8179", "website": "https://elferyalprimaryschool.example.com"}, "geometry": {"type": "Point", "coordinates": [31.309468, 30.028307]}}, {"type": "Feature", "properties": {"id": "school_062", "name": "Al Basma International School 2", "category": "School", "address": "93 El Merghany Street", "district": "New Cairo Heights", "opening_hours": "07:30-14:30", "phone": "+20-2-9778-1530", "website": "https://albasmainternationalschool2.example.com"}, "geometry": {"type": "Point", "coordinates": [31.300979, 29.983688]}}, {"type": "Feature", "properties": {"id": "school_063", "name": "El Yasmin International School 2", "category": "School", "address": "114 Port Said Street", "district": "New Cairo Heights", "opening_hours": "07:30-14:30", "phone": "+20-2-2629-3255", "website": "https://elyasmininternationalschool2.example.com"}, "geometry": {"type": "Point", "coordinates": [31.315716, 30.020887]}}, {"type": "Feature", "properties": {"id": "school_064", "name": "Al Basma International School 3", "category": "School", "address": "64 El Nil Street", "district": "New Cairo Heights", "opening_hours": "07:30-14:30", "phone": "+20-2-2212-4048", "website": "https://albasmainternationalschool3.example.com"}, "geometry": {"type": "Point", "coordinates": [31.313761, 30.0038]}}, {"type": "Feature", "properties": {"id": "school_065", "name": "El Rehab Language School", "category": "School", "address": "68 Port Said Street", "district": "New Cairo Heights", "opening_hours": "07:30-14:30", "phone": "+20-2-4132-8311", "website": "https://elrehablanguageschool.example.com"}, "geometry": {"type": "Point", "coordinates": [31.312975, 30.003129]}}, {"type": "Feature", "properties": {"id": "school_066", "name": "Al Safwa Secondary School 3", "category": "School", "address": "52 El Nil Street", "district": "New Cairo Heights", "opening_hours": "07:30-14:30", "phone": "+20-2-3111-2213", "website": "https://alsafwasecondaryschool3.example.com"}, "geometry": {"type": "Point", "coordinates": [31.305624, 30.016802]}}, {"type": "Feature", "properties": {"id": "school_067", "name": "Al Ahram Language School 3", "category": "School", "address": "208 Gamal Abdel Nasser Road", "district": "New Cairo Heights", "opening_hours": "07:30-14:30", "phone": "+20-2-9926-6236", "website": "https://alahramlanguageschool3.example.com"}, "geometry": {"type": "Point", "coordinates": [31.311761, 30.03424]}}, {"type": "Feature", "properties": {"id": "school_068", "name": "El Rehab International School", "category": "School", "address": "77 El Nasr Road", "district": "Helwan Gardens", "opening_hours": "07:30-14:30", "phone": "+20-2-3290-3852", "website": "https://elrehabinternationalschool.example.com"}, "geometry": {"type": "Point", "coordinates": [31.181337, 30.10274]}}, {"type": "Feature", "properties": {"id": "school_069", "name": "El Horreya Primary School", "category": "School", "address": "203 El Horreya Road", "district": "Helwan Gardens", "opening_hours": "07:30-14:30", "phone": "+20-2-3939-9094", "website": "https://elhorreyaprimaryschool.example.com"}, "geometry": {"type": "Point", "coordinates": [31.184589, 30.090532]}}, {"type": "Feature", "properties": {"id": "school_070", "name": "El Yasmin Secondary School", "category": "School", "address": "206 Makram Ebeid Street", "district": "Helwan Gardens", "opening_hours": "07:30-14:30", "phone": "+20-2-3063-2412", "website": "https://elyasminsecondaryschool.example.com"}, "geometry": {"type": "Point", "coordinates": [31.164759, 30.093285]}}, {"type": "Feature", "properties": {"id": "school_071", "name": "Al Safwa Secondary School 4", "category": "School", "address": "135 El Merghany Street", "district": "Helwan Gardens", "opening_hours": "07:30-14:30", "phone": "+20-2-8300-7708", "website": "https://alsafwasecondaryschool4.example.com"}, "geometry": {"type": "Point", "coordinates": [31.165779, 30.083808]}}, {"type": "Feature", "properties": {"id": "school_072", "name": "Al Waha Language School", "category": "School", "address": "116 Abbas El Akkad Street", "district": "Helwan Gardens", "opening_hours": "07:30-14:30", "phone": "+20-2-7571-9476", "website": "https://alwahalanguageschool.example.com"}, "geometry": {"type": "Point", "coordinates": [31.185355, 30.064084]}}, {"type": "Feature", "properties": {"id": "school_073", "name": "El Rehab Primary School", "category": "School", "address": "197 El Horreya Road", "district": "Helwan Gardens", "opening_hours": "07:30-14:30", "phone": "+20-2-5544-9238", "website": "https://elrehabprimaryschool.example.com"}, "geometry": {"type": "Point", "coordinates": [31.172982, 30.11298]}}, {"type": "Feature", "properties": {"id": "school_074", "name": "El Horreya Primary School 2", "category": "School", "address": "78 El Horreya Road", "district": "Helwan Gardens", "opening_hours": "07:30-14:30", "phone": "+20-2-3326-6286", "website": "https://elhorreyaprimaryschool2.example.com"}, "geometry": {"type": "Point", "coordinates": [31.187613, 30.062969]}}, {"type": "Feature", "properties": {"id": "school_075", "name": "Al Zahraa International School", "category": "School", "address": "217 El Nil Street", "district": "Helwan Gardens", "opening_hours": "07:30-14:30", "phone": "+20-2-4052-4216", "website": "https://alzahraainternationalschool.example.com"}, "geometry": {"type": "Point", "coordinates": [31.188234, 30.073309]}}, {"type": "Feature", "properties": {"id": "school_076", "name": "Al Amal International School 2", "category": "School", "address": "158 Makram Ebeid Street", "district": "Helwan Gardens", "opening_hours": "07:30-14:30", "phone": "+20-2-2765-9234", "website": "https://alamalinternationalschool2.example.com"}, "geometry": {"type": "Point", "coordinates": [31.18049, 30.093091]}}, {"type": "Feature", "properties": {"id": "school_077", "name": "Al Nozha Primary School", "category": "School", "address": "44 Gamal Abdel Nasser Road", "district": "Helwan Gardens", "opening_hours": "07:30-14:30", "phone": "+20-2-7115-6531", "website": "https://alnozhaprimaryschool.example.com"}, "geometry": {"type": "Point", "coordinates": [31.180643, 30.095582]}}, {"type": "Feature", "properties": {"id": "school_078", "name": "Al Noor Language School", "category": "School", "address": "12 Gamal Abdel Nasser Road", "district": "Helwan Gardens", "opening_hours": "07:30-14:30", "phone": "+20-2-8316-5336", "website": "https://alnoorlanguageschool.example.com"}, "geometry": {"type": "Point", "coordinates": [31.185851, 30.093868]}}, {"type": "Feature", "properties": {"id": "school_079", "name": "El Gomhoria Language School 4", "category": "School", "address": "128 Gamal Abdel Nasser Road", "district": "Helwan Gardens", "opening_hours": "07:30-14:30", "phone": "+20-2-6469-5745", "website": "https://elgomhorialanguageschool4.example.com"}, "geometry": {"type": "Point", "coordinates": [31.180905, 30.106231]}}, {"type": "Feature", "properties": {"id": "school_080", "name": "El Nasr Secondary School", "category": "School", "address": "77 Abbas El Akkad Street", "district": "Helwan Gardens", "opening_hours": "07:30-14:30", "phone": "+20-2-2597-1981", "website": "https://elnasrsecondaryschool.example.com"}, "geometry": {"type": "Point", "coordinates": [31.180667, 30.077967]}}, {"type": "Feature", "properties": {"id": "school_081", "name": "Al Ahram Primary School 2", "category": "School", "address": "88 El Thawra Street", "district": "Helwan Gardens", "opening_hours": "07:30-14:30", "phone": "+20-2-3176-6121", "website": "https://alahramprimaryschool2.example.com"}, "geometry": {"type": "Point", "coordinates": [31.168165, 30.08487]}}, {"type": "Feature", "properties": {"id": "school_082", "name": "El Yasmin Secondary School 2", "category": "School", "address": "34 Port Said Street", "district": "Helwan Gardens", "opening_hours": "07:30-14:30", "phone": "+20-2-5035-9437", "website": "https://elyasminsecondaryschool2.example.com"}, "geometry": {"type": "Point", "coordinates": [31.186341, 30.079014]}}, {"type": "Feature", "properties": {"id": "school_083", "name": "Al Ahram Language School 4", "category": "School", "address": "69 Abbas El Akkad Street", "district": "University District", "opening_hours": "07:30-14:30", "phone": "+20-2-4030-3308", "website": "https://alahramlanguageschool4.example.com"}, "geometry": {"type": "Point", "coordinates": [31.212593, 30.079002]}}, {"type": "Feature", "properties": {"id": "school_084", "name": "Al Andalus Secondary School 2", "category": "School", "address": "64 El Nasr Road", "district": "University District", "opening_hours": "07:30-14:30", "phone": "+20-2-9391-3616", "website": "https://alandalussecondaryschool2.example.com"}, "geometry": {"type": "Point", "coordinates": [31.200582, 30.077245]}}, {"type": "Feature", "properties": {"id": "school_085", "name": "El Karma International School", "category": "School", "address": "49 Port Said Street", "district": "University District", "opening_hours": "07:30-14:30", "phone": "+20-2-3305-9163", "website": "https://elkarmainternationalschool.example.com"}, "geometry": {"type": "Point", "coordinates": [31.2191, 30.116372]}}, {"type": "Feature", "properties": {"id": "school_086", "name": "El Shorouk Secondary School 2", "category": "School", "address": "6 El Nil Street", "district": "University District", "opening_hours": "07:30-14:30", "phone": "+20-2-9743-7442", "website": "https://elshorouksecondaryschool2.example.com"}, "geometry": {"type": "Point", "coordinates": [31.223816, 30.087982]}}, {"type": "Feature", "properties": {"id": "school_087", "name": "Al Rahma International School", "category": "School", "address": "13 El Tahrir Avenue", "district": "University District", "opening_hours": "07:30-14:30", "phone": "+20-2-4304-9108", "website": "https://alrahmainternationalschool.example.com"}, "geometry": {"type": "Point", "coordinates": [31.211141, 30.118375]}}, {"type": "Feature", "properties": {"id": "school_088", "name": "El Feryal Secondary School 3", "category": "School", "address": "74 Makram Ebeid Street", "district": "University District", "opening_hours": "07:30-14:30", "phone": "+20-2-2066-2761", "website": "https://elferyalsecondaryschool3.example.com"}, "geometry": {"type": "Point", "coordinates": [31.21352, 30.110845]}}, {"type": "Feature", "properties": {"id": "school_089", "name": "El Karma International School 2", "category": "School", "address": "196 El Merghany Street", "district": "University District", "opening_hours": "07:30-14:30", "phone": "+20-2-4997-1741", "website": "https://elkarmainternationalschool2.example.com"}, "geometry": {"type": "Point", "coordinates": [31.209215, 30.113253]}}, {"type": "Feature", "properties": {"id": "school_090", "name": "Al Rahma International School 2", "category": "School", "address": "142 El Ahram Street", "district": "Old Town", "opening_hours": "07:30-14:30", "phone": "+20-2-2602-7329", "website": "https://alrahmainternationalschool2.example.com"}, "geometry": {"type": "Point", "coordinates": [31.242431, 30.094273]}}, {"type": "Feature", "properties": {"id": "school_091", "name": "Al Manar Language School 2", "category": "School", "address": "33 El Nil Street", "district": "Old Town", "opening_hours": "07:30-14:30", "phone": "+20-2-5226-7114", "website": "https://almanarlanguageschool2.example.com"}, "geometry": {"type": "Point", "coordinates": [31.24511, 30.106076]}}, {"type": "Feature", "properties": {"id": "school_092", "name": "El Yasmin Primary School", "category": "School", "address": "51 El Thawra Street", "district": "Old Town", "opening_hours": "07:30-14:30", "phone": "+20-2-6170-7576", "website": "https://elyasminprimaryschool.example.com"}, "geometry": {"type": "Point", "coordinates": [31.25262, 30.080216]}}, {"type": "Feature", "properties": {"id": "school_093", "name": "Al Amal International School 3", "category": "School", "address": "206 Abbas El Akkad Street", "district": "Old Town", "opening_hours": "07:30-14:30", "phone": "+20-2-6254-8487", "website": "https://alamalinternationalschool3.example.com"}, "geometry": {"type": "Point", "coordinates": [31.245002, 30.062354]}}, {"type": "Feature", "properties": {"id": "school_094", "name": "Al Amal International School 4", "category": "School", "address": "157 Salah Salem Road", "district": "Old Town", "opening_hours": "07:30-14:30", "phone": "+20-2-3331-7438", "website": "https://alamalinternationalschool4.example.com"}, "geometry": {"type": "Point", "coordinates": [31.235929, 30.113902]}}, {"type": "Feature", "properties": {"id": "school_095", "name": "El Shorouk International School 3", "category": "School", "address": "130 El Nasr Road", "district": "Old Town", "opening_hours": "07:30-14:30", "phone": "+20-2-6175-9721", "website": "https://elshoroukinternationalschool3.example.com"}, "geometry": {"type": "Point", "coordinates": [31.257678, 30.104551]}}, {"type": "Feature", "properties": {"id": "school_096", "name": "El Tahrir Language School", "category": "School", "address": "95 Salah Salem Road", "district": "Old Town", "opening_hours": "07:30-14:30", "phone": "+20-2-7519-2795", "website": "https://eltahrirlanguageschool.example.com"}, "geometry": {"type": "Point", "coordinates": [31.244738, 30.093826]}}, {"type": "Feature", "properties": {"id": "school_097", "name": "El Karma Language School 2", "category": "School", "address": "153 Abbas El Akkad Street", "district": "Zamalek Isle", "opening_hours": "07:30-14:30", "phone": "+20-2-4175-4728", "website": "https://elkarmalanguageschool2.example.com"}, "geometry": {"type": "Point", "coordinates": [31.291401, 30.095089]}}, {"type": "Feature", "properties": {"id": "school_098", "name": "El Fardous Secondary School", "category": "School", "address": "38 El Nasr Road", "district": "Zamalek Isle", "opening_hours": "07:30-14:30", "phone": "+20-2-7576-4968", "website": "https://elfardoussecondaryschool.example.com"}, "geometry": {"type": "Point", "coordinates": [31.284721, 30.095078]}}, {"type": "Feature", "properties": {"id": "school_099", "name": "El Horreya Primary School 3", "category": "School", "address": "5 Abbas El Akkad Street", "district": "Zamalek Isle", "opening_hours": "07:30-14:30", "phone": "+20-2-4569-7861", "website": "https://elhorreyaprimaryschool3.example.com"}, "geometry": {"type": "Point", "coordinates": [31.266896, 30.117251]}}, {"type": "Feature", "properties": {"id": "school_100", "name": "El Gomhoria Secondary School 3", "category": "School", "address": "218 El Guish Road", "district": "Zamalek Isle", "opening_hours": "07:30-14:30", "phone": "+20-2-7958-2020", "website": "https://elgomhoriasecondaryschool3.example.com"}, "geometry": {"type": "Point", "coordinates": [31.269993, 30.101582]}}, {"type": "Feature", "properties": {"id": "school_101", "name": "El Rehab International School 2", "category": "School", "address": "170 Abbas El Akkad Street", "district": "Zamalek Isle", "opening_hours": "07:30-14:30", "phone": "+20-2-6304-7173", "website": "https://elrehabinternationalschool2.example.com"}, "geometry": {"type": "Point", "coordinates": [31.284317, 30.091136]}}, {"type": "Feature", "properties": {"id": "school_102", "name": "El Rehab International School 3", "category": "School", "address": "140 Salah Salem Road", "district": "Zamalek Isle", "opening_hours": "07:30-14:30", "phone": "+20-2-7536-5331", "website": "https://elrehabinternationalschool3.example.com"}, "geometry": {"type": "Point", "coordinates": [31.274187, 30.070129]}}, {"type": "Feature", "properties": {"id": "school_103", "name": "El Nasr International School", "category": "School", "address": "143 El Ahram Street", "district": "Zamalek Isle", "opening_hours": "07:30-14:30", "phone": "+20-2-3842-5876", "website": "https://elnasrinternationalschool.example.com"}, "geometry": {"type": "Point", "coordinates": [31.281844, 30.07129]}}, {"type": "Feature", "properties": {"id": "school_104", "name": "Al Safwa Secondary School 5", "category": "School", "address": "82 Abbas El Akkad Street", "district": "Zamalek Isle", "opening_hours": "07:30-14:30", "phone": "+20-2-4857-5480", "website": "https://alsafwasecondaryschool5.example.com"}, "geometry": {"type": "Point", "coordinates": [31.286007, 30.102458]}}, {"type": "Feature", "properties": {"id": "school_105", "name": "El Rehab Secondary School", "category": "School", "address": "102 El Nasr Road", "district": "Zamalek Isle", "opening_hours": "07:30-14:30", "phone": "+20-2-4827-3399", "website": "https://elrehabsecondaryschool.example.com"}, "geometry": {"type": "Point", "coordinates": [31.273516, 30.094467]}}, {"type": "Feature", "properties": {"id": "school_106", "name": "Al Safwa Language School 2", "category": "School", "address": "89 Abbas El Akkad Street", "district": "Maadi Gardens", "opening_hours": "07:30-14:30", "phone": "+20-2-7373-5201", "website": "https://alsafwalanguageschool2.example.com"}, "geometry": {"type": "Point", "coordinates": [31.307585, 30.077088]}}, {"type": "Feature", "properties": {"id": "school_107", "name": "El Rehab International School 4", "category": "School", "address": "144 El Guish Road", "district": "Maadi Gardens", "opening_hours": "07:30-14:30", "phone": "+20-2-4225-3249", "website": "https://elrehabinternationalschool4.example.com"}, "geometry": {"type": "Point", "coordinates": [31.319391, 30.07261]}}, {"type": "Feature", "properties": {"id": "school_108", "name": "El Nasr Primary School", "category": "School", "address": "13 Gamal Abdel Nasser Road", "district": "Maadi Gardens", "opening_hours": "07:30-14:30", "phone": "+20-2-9415-9700", "website": "https://elnasrprimaryschool.example.com"}, "geometry": {"type": "Point", "coordinates": [31.302902, 30.104646]}}, {"type": "Feature", "properties": {"id": "school_109", "name": "El Horreya Secondary School", "category": "School", "address": "85 El Guish Road", "district": "Maadi Gardens", "opening_hours": "07:30-14:30", "phone": "+20-2-5869-2647", "website": "https://elhorreyasecondaryschool.example.com"}, "geometry": {"type": "Point", "coordinates": [31.305911, 30.073756]}}, {"type": "Feature", "properties": {"id": "school_110", "name": "El Rehab Primary School 2", "category": "School", "address": "105 Gamal Abdel Nasser Road", "district": "Maadi Gardens", "opening_hours": "07:30-14:30", "phone": "+20-2-9659-8793", "website": "https://elrehabprimaryschool2.example.com"}, "geometry": {"type": "Point", "coordinates": [31.317682, 30.067958]}}, {"type": "Feature", "properties": {"id": "school_111", "name": "El Shorouk International School 4", "category": "School", "address": "74 Gamal Abdel Nasser Road", "district": "Maadi Gardens", "opening_hours": "07:30-14:30", "phone": "+20-2-2484-2465", "website": "https://elshoroukinternationalschool4.example.com"}, "geometry": {"type": "Point", "coordinates": [31.312417, 30.071727]}}, {"type": "Feature", "properties": {"id": "school_112", "name": "El Karma Language School 3", "category": "School", "address": "45 El Merghany Street", "district": "Maadi Gardens", "opening_hours": "07:30-14:30", "phone": "+20-2-9227-3880", "website": "https://elkarmalanguageschool3.example.com"}, "geometry": {"type": "Point", "coordinates": [31.316935, 30.073719]}}, {"type": "Feature", "properties": {"id": "school_113", "name": "Al Andalus Secondary School 3", "category": "School", "address": "48 El Guish Road", "district": "Maadi Gardens", "opening_hours": "07:30-14:30", "phone": "+20-2-9881-5742", "website": "https://alandalussecondaryschool3.example.com"}, "geometry": {"type": "Point", "coordinates": [31.324213, 30.061809]}}, {"type": "Feature", "properties": {"id": "school_114", "name": "Al Nozha Language School 3", "category": "School", "address": "86 El Ahram Street", "district": "Maadi Gardens", "opening_hours": "07:30-14:30", "phone": "+20-2-5722-9901", "website": "https://alnozhalanguageschool3.example.com"}, "geometry": {"type": "Point", "coordinates": [31.322735, 30.060163]}}, {"type": "Feature", "properties": {"id": "school_115", "name": "Al Amal Secondary School 2", "category": "School", "address": "70 Ramses Avenue", "district": "Maadi Gardens", "opening_hours": "07:30-14:30", "phone": "+20-2-8625-2845", "website": "https://alamalsecondaryschool2.example.com"}, "geometry": {"type": "Point", "coordinates": [31.313628, 30.113667]}}, {"type": "Feature", "properties": {"id": "school_116", "name": "Al Basma International School 4", "category": "School", "address": "184 El Horreya Road", "district": "Maadi Gardens", "opening_hours": "07:30-14:30", "phone": "+20-2-2115-6523", "website": "https://albasmainternationalschool4.example.com"}, "geometry": {"type": "Point", "coordinates": [31.308625, 30.104052]}}, {"type": "Feature", "properties": {"id": "school_117", "name": "Al Rahma Primary School 2", "category": "School", "address": "157 El Nasr Road", "district": "Maadi Gardens", "opening_hours": "07:30-14:30", "phone": "+20-2-7232-7643", "website": "https://alrahmaprimaryschool2.example.com"}, "geometry": {"type": "Point", "coordinates": [31.320513, 30.094121]}}, {"type": "Feature", "properties": {"id": "school_118", "name": "Al Nahda Secondary School 3", "category": "School", "address": "172 El Nil Street", "district": "Maadi Gardens", "opening_hours": "07:30-14:30", "phone": "+20-2-3513-3303", "website": "https://alnahdasecondaryschool3.example.com"}, "geometry": {"type": "Point", "coordinates": [31.321449, 30.090929]}}, {"type": "Feature", "properties": {"id": "school_119", "name": "Al Noor International School", "category": "School", "address": "99 Ramses Avenue", "district": "Maadi Gardens", "opening_hours": "07:30-14:30", "phone": "+20-2-5659-5374", "website": "https://alnoorinternationalschool.example.com"}, "geometry": {"type": "Point", "coordinates": [31.312417, 30.116498]}}, {"type": "Feature", "properties": {"id": "school_120", "name": "El Karma Language School 4", "category": "School", "address": "67 Gamal Abdel Nasser Road", "district": "Maadi Gardens", "opening_hours": "07:30-14:30", "phone": "+20-2-4945-4871", "website": "https://elkarmalanguageschool4.example.com"}, "geometry": {"type": "Point", "coordinates": [31.324732, 30.077958]}}]}