{"type": "FeatureCollection", "features": [{"type": "Feature", "properties": {"id": "mall_001", "name": "City Mall", "category": "Shopping Mall", "address": "61 El Nasr Road", "district": "Downtown", "opening_hours": "10:00-24:00", "phone": "+20-2-3331-3900", "website": "https://citymall.example.com"}, "geometry": {"type": "Point", "coordinates": [31.254666, 30.021975]}}, {"type": "Feature", "properties": {"id": "mall_002", "name": "Al Waha Mall", "category": "Shopping Mall", "address": "201 El Merghany Street", "district": "Industrial Zone", "opening_hours": "10:00-24:00", "phone": "+20-2-8571-5065", "website": "https://alwahamall.example.com"}, "geometry": {"type": "Point", "coordinates": [31.16472, 30.024383]}}, {"type": "Feature", "properties": {"id": "mall_003", "name": "El Horreya Mall", "category": "Shopping Mall", "address": "98 El Nasr Road", "district": "Nasr City", "opening_hours": "10:00-24:00", "phone": "+20-2-2317-8711", "website": "https://elhorreyamall.example.com"}, "geometry": {"type": "Point", "coordinates": [31.204974, 30.027472]}}, {"type": "Feature", "properties": {"id": "mall_004", "name": "Al Ahram Mall", "category": "Shopping Mall", "address": "90 El Ahram Street", "district": "Downtown", "opening_hours": "10:00-24:00", "phone": "+20-2-8721-4728", "website": "https://alahrammall.example.com"}, "geometry": {"type": "Point", "coordinates": [31.237828, 30.029248]}}, {"type": "Feature", "properties": {"id": "mall_005", "name": "Al Andalus Mall", "category": "Shopping Mall", "address": "85 El Ahram Street", "district": "Downtown", "opening_hours": "10:00-24:00", "phone": "+20-2-9080-2137", "website": "https://alandalusmall.example.com"}, "geometry": {"type": "Point", "coordinates": [31.23784, 30.01973]}}, {"type": "Feature", "properties": {"id": "mall_006", "name": "Al Basma Mall", "category": "Shopping Mall", "address": "131 El Merghany Street", "district": "Downtown", "opening_hours": "10:00-24:00", "phone": "+20-2-7566-9785", "website": "https://albasmamall.example.com"}, "geometry": {"type": "Point", "coordinates": [31.257064, 29.996571]}}, {"type": "Feature", "properties": {"id": "mall_007", "name": "Al Manar Mall", "category": "Shopping Mall", "address": "46 El Thawra Street", "district": "Nile Riverside", "opening_hours": "10:00-24:00", "phone": "+20-2-9885-5349", "website": "https://almanarmall.example.com"}, "geometry": {"type": "Point", "coordinates": [31.274637, 29.981278]}}, {"type": "Feature", "properties": {"id": "mall_008", "name": "El Yasmin Mall", "category": "Shopping Mall", "address": "187 Port Said Street", "district": "Nile Riverside", "opening_hours": "10:00-24:00", "phone": "+20-2-4569-8149", "website": "https://elyasminmall.example.com"}, "geometry": {"type": "Point", "coordinates": [31.267069, 30.015872]}}, {"type": "Feature", "properties": {"id": "mall_009", "name": "Al Andalus Mall 2", "category": "Shopping Mall", "address": "148 Ramses Avenue", "district": "Nile Riverside", "opening_hours": "10:00-24:00", "phone": "+20-2-4086-1727", "website": "https://alandalusmall2.example.com"}, "geometry": {"type": "Point", "coordinates": [31.281744, 30.010695]}}, {"type": "Feature", "properties": {"id": "mall_010", "name": "El Rehab Mall", "category": "Shopping Mall", "address": "176 El Guish Road", "district": "New Cairo Heights", "opening_hours": "10:00-24:00", "phone": "+20-2-9702-4228", "website": "https://elrehabmall.example.com"}, "geometry": {"type": "Point", "coordinates": [31.318395, 29.979703]}}, {"type": "Feature", "properties": {"id": "mall_011", "name": "El Feryal Mall", "category": "Shopping Mall", "address": "85 El Thawra Street", "district": "New Cairo Heights", "opening_hours": "10:00-24:00", "phone": "+20-2-4571-3041", "website": "https://elferyalmall.example.com"}, "geometry": {"type": "Point", "coordinates": [31.309491, 29.983854]}}, {"type": "Feature", "properties": {"id": "mall_012", "name": "El Shorouk Mall", "category": "Shopping Mall", "address": "171 El Merghany Street", "district": "New Cairo Heights", "opening_hours": "10:00-24:00", "phone": "+20-2-4672-7592", "website": "https://elshoroukmall.example.com"}, "geometry": {"type": "Point", "coordinates": [31.318678, 29.99786]}}, {"type": "Feature", "properties": {"id": "mall_013", "name": "Al Rahma Mall", "category": "Shopping Mall", "address": "108 Gamal Abdel Nasser Road", "district": "Helwan Gardens", "opening_hours": "10:00-24:00", "phone": "+20-2-9703-7211", "website": "https://alrahmamall.example.com"}, "geometry": {"type": "Point", "coordinates": [31.182096, 30.093308]}}, {"type": "Feature", "properties": {"id": "mall_014", "name": "El Mostakbal Mall", "category": "Shopping Mall", "address": "146 El Ahram Street", "district": "University District", "opening_hours": "10:00-24:00", "phone": "+20-2-5326-9977", "website": "https://elmostakbalmall.example.com"}, "geometry": {"type": "Point", "coordinates": [31.215582, 30.114491]}}, {"type": "Feature", "properties": {"id": "mall_015", "name": "Al Rahma Mall 2", "category": "Shopping Mall", "address": "111 Port Said Street", "district": "University District", "opening_hours": "10:00-24:00", "phone": "+20-2-6751-6279", "website": "https://alrahmamall2.example.com"}, "geometry": {"type": "Point", "coordinates": [31.219623, 30.078076]}}, {"type": "Feature", "properties": {"id": "mall_016", "name": "Al Rahma Mall 3", "category": "Shopping Mall", "address": "131 Abbas El Akkad Street", "district": "Old Town", "opening_hours": "10:00-24:00", "phone": "+20-2-8502-3780", "website": "https://alrahmamall3.example.com"}, "geometry": {"type": "Point", "coordinates": [31.244095, 30.086483]}}, {"type": "Feature", "properties": {"id": "mall_017", "name": "El Feryal Mall 2", "category": "Shopping Mall", "address": "163 El Thawra Street", "district": "Zamalek Isle", "opening_hours": "10:00-24:00", "phone": "+20-2-4745-2530", "website": "https://elferyalmall2.example.com"}, "geometry": {"type": "Point", "coordinates": [31.283105, 30.076854]}}, {"type": "Feature", "properties": {"id": "mall_018", "name": "El Feryal Mall 3", "category": "Shopping Mall", "address": "80 Ramses Avenue", "district": "Zamalek Isle", "opening_hours": "10:00-24:00", "phone": "+20-2-8607-4262", "website": "https://elferyalmall3.example.com"}, "geometry": {"type": "Point", "coordinates": [31.287228, 30.105269]}}, {"type": "Feature", "properties": {"id": "mall_019", "name": "El Tahrir Mall", "category": "Shopping Mall", "address": "157 El Nasr Road", "district": "Zamalek Isle", "opening_hours": "10:00-24:00", "phone": "+20-2-8295-2193", "website": "https://eltahrirmall.example.com"}, "geometry": {"type": "Point", "coordinates": [31.269888, 30.06241]}}, {"type": "Feature", "properties": {"id": "mall_020", "name": "Al Nozha Mall", "category": "Shopping Mall", "address": "50 El Guish Road", "district": "Maadi Gardens", "opening_hours": "10:00-24:00", "phone": "+20-2-7704-7291", "website": "https://alnozhamall.example.com"}, "geometry": {"type": "Point", "coordinates": [31.311848, 30.113477]}}]}