{"type": "FeatureCollection", "features": [{"type": "Feature", "properties": {"id": "university_001", "name": "Cairo University", "category": "University", "address": "164 El Nil Street", "district": "University District", "opening_hours": "08:00-18:00", "phone": "+20-2-2204-5506", "website": "https://cairouniversity.example.com"}, "geometry": {"type": "Point", "coordinates": [31.211, 30.09]}}, {"type": "Feature", "properties": {"id": "university_002", "name": "El Nahda University", "category": "University", "address": "27 Gamal Abdel Nasser Road", "district": "University District", "opening_hours": "08:00-18:00", "phone": "+20-2-8067-9935", "website": "https://elnahdauniversity.example.com"}, "geometry": {"type": "Point", "coordinates": [31.205796, 30.072698]}}, {"type": "Feature", "properties": {"id": "university_003", "name": "Al Azhar Science University", "category": "University", "address": "8 El Nil Street", "district": "University District", "opening_hours": "08:00-18:00", "phone": "+20-2-3791-4811", "website": "https://alazharscienceuniversity.example.com"}, "geometry": {"type": "Point", "coordinates": [31.202574, 30.086252]}}, {"type": "Feature", "properties": {"id": "university_004", "name": "Helwan Technical University", "category": "University", "address": "51 El Guish Road", "district": "University District", "opening_hours": "08:00-18:00", "phone": "+20-2-7323-9928", "website": "https://helwantechnicaluniversity.example.com"}, "geometry": {"type": "Point", "coordinates": [31.211109, 30.067274]}}, {"type": "Feature", "properties": {"id": "university_005", "name": "New Cairo International University", "category": "University", "address": "208 El Nasr Road", "district": "Zamalek Isle", "opening_hours": "08:00-18:00", "phone": "+20-2-2053-3615", "website": "https://newcairointernationaluniversity.example.com"}, "geometry": {"type": "Point", "coordinates": [31.273297, 30.094285]}}]}